{"name":"Antwerpen","other_names":{"name:am":"አንትወርፕ","name:an":"Anvers","name:ar":"أنتويرب","name:az":"Antverpen","name:ba":"Антверпен","name:be":"Антверпен","name:bg":"Атверпен","name:bn":"আন্টভের্প","name:ca":"Anvers","name:ce":"Антверпен","name:cs":"Antverpy","name:cv":"Антверпен","name:cy":"Antwerp","name:de":"Antwerpen","name:el":"Αμβέρσα","name:en":"Antwerp","name:eo":"Antverpeno","name:es":"Amberes","name:eu":"Anberes","name:fa":"آنتورپ","name:fi":"Antwerpen","name:fr":"Anvers","name:ga":"Antuairp","name:gl":"Anveres","name:gn":"Amberes","name:ha":"Birnin Antwerp","name:he":"אנטוורפן","name:hi":"एंटवर्प","name:hr":"Antwerpen","name:ht":"Anvè","name:hy":"Անտվերպեն","name:it":"Anversa","name:ja":"アントワープ","name:ka":"ანტვერპენი","name:kk":"Антверпен","name:kn":"ಆಂಟ್ವೆರ್ಪ್","name:ko":"안트베르펜","name:ky":"Антверпен","name:la":"Antverpia","name:li":"Antwerpe","name:lt":"Antverpenas","name:lv":"Antverpene","name:mi":"Anatawepa","name:mk":"Антверпен","name:ml":"ആന്റ്‌വെർപ്","name:mr":"अँटवर्प","name:ms":"Antwerp","name:my":"အန့်တွပ်မြို့","name:nl":"Antwerpen","name:oc":"Anvèrs","name:os":"Антверпен","name:pl":"Antwerpia","name:pt":"Antuérpia","name:ro":"Anvers","name:ru":"Антверпен","name:sd":"انٽورپ","name:sk":"Antverpy","name:sq":"Antwerp","name:sr":"Антверпен","name:ta":"ஆண்ட்வெர்ப்","name:th":"แอนต์เวิร์ป","name:tl":"Amberes","name:tr":"Anvers","name:ug":"Antwérp","name:uk":"Антверпен","name:ur":"اینٹ ورپن","name:uz":"Antverpen","name:vo":"Antwerpen","name:wa":"Anverse","name:yi":"אנטווערפן","name:zh":"安特卫普","name:gcf":"Anvè","name:nds":"Antwarp","name:pcd":"Anvérse","name:vls":"Antwerpn","alt_name:ar":"أنتفيرب","alt_name:es":"Antuerpia","alt_name:mk":"Антверп","alt_name:ur":"اینٹورپن","name:nds-nl":"Antwaarp","old_name:de":"Antorf","alt_name_2:ur":"اینٹ ورپ","alt_name_3:ur":"اینٹورپ"},"display_name":"Antwerpen, Vlaanderen, België / Belgique / Belgien","address":{"city":"Antwerpen","county":"Antwerpen","state":"Antwerpen","ISO3166-2-lvl6":"BE-VAN","region":"Vlaanderen","ISO3166-2-lvl4":"BE-VLG","country":"België / Belgique / Belgien","country_code":"be"},"population":506922,"osm_type":"node","osm_id":1765433658,"type":"city","location":[4.3997081,51.2211097],"bbox":[4.2397081,51.0611097,4.5597081,51.3811097],"border":[{"name":"Antwerpen","other_names":{"name:ar":"أنتويرب","name:ca":"Anvers","name:cs":"Antverpy","name:de":"Antwerpen","name:el":"Αμβέρσα","name:en":"Antwerp","name:eo":"Antverpeno","name:es":"Amberes","name:fi":"Antwerpen","name:fr":"Anvers","name:he":"אנטוורפן","name:hr":"Antwerpen","name:hu":"Antwerpen","name:hy":"Անտվերպեն","name:it":"Anversa","name:ja":"アントワープ","name:ka":"ანტვერპენი","name:kn":"ಆಂಟ್ವೆರ್ಪ್","name:la":"Antverpia","name:lt":"Antverpenas","name:lv":"Antverpene","name:mk":"Антверпен","name:nl":"Antwerpen","name:pl":"Antwerpia","name:pt":"Antuérpia","name:ru":"Антверпен","name:sk":"Antverpy","name:sr":"Антверпен","name:uk":"Антверпен","name:ur":"اینٹورپ","name:wa":"Anverse","name:zh":"安特卫普","name:nds":"Antwarp","name:pcd":"Anvérse","name:tzl":"Anviarça","name:vls":"Antwerpn","ISO3166-2":"BE-VAN","alt_name:ar":"أنتفيرب","alt_name:es":"Antuerpia","alt_name:mk":"Антверп","name:nds-nl":"Antwaarp","old_name:de":"Antorf","official_name":"Antwerpen","official_name:de":"Antwerpen","official_name:en":"Antwerp","official_name:fr":"Anvers","official_name:nl":"Antwerpen"},"display_name":"Antwerpen, Vlaanderen, België / Belgique / Belgien","address":{"state":"Antwerpen","ISO3166-2-lvl6":"BE-VAN","region":"Vlaanderen","ISO3166-2-lvl4":"BE-VLG","country":"België / Belgique / Belgien","country_code":"be"},"population":1802719,"osm_type":"relation","osm_id":53114,"type":"administrative","location":[4.776534056048172,51.24773665],"bbox":[4.1724192,50.9901442,5.2622486,51.5051145]},{"name":"Antwerpen","other_names":{"name:ar":"أنتويرب","name:ca":"Anvers","name:cs":"Antverpy","name:de":"Antwerpen","name:el":"Αμβέρσα","name:en":"Antwerp","name:eo":"Antverpeno","name:es":"Amberes","name:fi":"Antwerpen","name:fr":"Anvers","name:he":"אנטוורפן","name:hr":"Antwerpen","name:hy":"Անտվերպեն","name:it":"Anversa","name:ja":"アントワープ","name:ka":"ანტვერპენი","name:kn":"ಆಂಟ್ವೆರ್ಪ್","name:la":"Antverpia","name:lt":"Antverpenas","name:lv":"Antverpene","name:mk":"Антверпен","name:nl":"Antwerpen","name:pl":"Antwerpia","name:pt":"Antuérpia","name:ru":"Антверпен","name:sk":"Antverpy","name:sr":"Антверпен","name:uk":"Антверпен","name:ur":"اینٹورپن","name:wa":"Anverse","name:zh":"安特卫普","name:nds":"Antwarp","name:pcd":"Anvérse","name:tzl":"Anviarça","name:vls":"Antwerpn","alt_name:ar":"أنتفيرب","alt_name:es":"Antuerpia","alt_name:mk":"Антверп","name:nds-nl":"Antwaarp","old_name:de":"Antorf","official_name":"Arrondissement Antwerpen","official_name:ar":"دائرة أنتويرب","official_name:nl":"Arrondissement Antwerpen"},"display_name":"Antwerpen, Vlaanderen, België / Belgique / Belgien","address":{"county":"Antwerpen","state":"Antwerpen","ISO3166-2-lvl6":"BE-VAN","region":"Vlaanderen","ISO3166-2-lvl4":"BE-VLG","country":"België / Belgique / Belgien","country_code":"be"},"osm_type":"relation","osm_id":1902793,"type":"administrative","location":[4.544304730774046,51.277046549999994],"bbox":[4.2175769,51.0715932,4.7766514,51.4823977]},{"name":"Antwerpen","other_names":{"name:ar":"أنتويرب","name:ca":"Anvers","name:cs":"Antverpy","name:da":"Antwerpen","name:de":"Antwerpen","name:el":"Αμβέρσα","name:en":"Antwerp","name:eo":"Antverpeno","name:es":"Amberes","name:fi":"Antwerpen","name:fr":"Anvers","name:he":"אנטוורפן","name:hr":"Antwerpen","name:hy":"Անտվերպեն","name:it":"Anversa","name:ja":"アントワープ","name:ka":"ანტვერპენი","name:kn":"ಆಂಟ್ವೆರ್ಪ್","name:ko":"안트베르펜","name:la":"Antverpia","name:lt":"Antverpenas","name:lv":"Antverpene","name:mk":"Антверпен","name:nl":"Antwerpen","name:pl":"Antwerpia","name:pt":"Antuérpia","name:ru":"Антверпен","name:sk":"Antverpy","name:sr":"Антверпен","name:uk":"Антверпен","name:ur":"اینٹ ورپن","name:wa":"Anverse","name:zh":"安特卫普","name:nds":"Antwarp","name:pcd":"Anvérse","name:tzl":"Anviarça","name:vls":"Antwerpn","alt_name:ar":"أنتفيرب","alt_name:es":"Antuerpia","alt_name:mk":"Антверп","alt_name:ur":"اینٹورپن;اینٹورپ;اینٹ ورپ","name:nds-nl":"Antwaarp","old_name:de":"Antorf","name:am":"አንትወርፕ","name:an":"Anvers","name:az":"Antverpen","name:ba":"Антверпен","name:be":"Антверпен","name:bg":"Атверпен","name:bn":"আন্টভের্প","name:ce":"Антверпен","name:cv":"Антверпен","name:cy":"Antwerp","name:eu":"Anberes","name:fa":"آنتورپ","name:ga":"Antuairp","name:gl":"Anveres","name:gn":"Amberes","name:ha":"Birnin Antwerp","name:hi":"एंटवर्प","name:ht":"Anvè","name:kk":"Антверпен","name:ky":"Антверпен","name:li":"Antwerpe","name:mi":"Anatawepa","name:ml":"ആന്റ്‌വെർപ്","name:mr":"अँटवर्प","name:ms":"Antwerp","name:my":"အန့်တွပ်မြို့","name:oc":"Anvèrs","name:os":"Антверпен","name:ro":"Anvers","name:sd":"انٽورپ","name:sq":"Antwerp","name:ta":"ஆண்ட்வெர்ப்","name:th":"แอนต์เวิร์ป","name:tl":"Amberes","name:tr":"Anvers","name:ug":"Antwérp","name:uz":"Antverpen","name:vo":"Antwerpen","name:yi":"אנטווערפן","name:gcf":"Anvè","_place_alt_name:ur":"اینٹورپن","alt_name_2:ur":"اینٹ ورپ","alt_name_3:ur":"اینٹورپ"},"display_name":"Antwerpen, Vlaanderen, België / Belgique / Belgien","address":{"city":"Antwerpen","county":"Antwerpen","state":"Antwerpen","ISO3166-2-lvl6":"BE-VAN","region":"Vlaanderen","ISO3166-2-lvl4":"BE-VLG","country":"België / Belgique / Belgien","country_code":"be"},"population":525935,"osm_type":"relation","osm_id":59518,"type":"administrative","location":[4.3997081,51.2211097],"bbox":[4.2175769,51.1432868,4.5090543,51.3776356]},{"name":"Antwerpen","other_names":{"name:ar":"أنتويرب","name:ca":"Anvers","name:cs":"Antverpy","name:de":"Antwerpen","name:el":"Αμβέρσα","name:en":"Antwerp","name:eo":"Antverpeno","name:es":"Amberes","name:fi":"Antwerpen","name:fr":"Anvers","name:he":"אנטוורפן","name:hr":"Antwerpen","name:hy":"Անտվերպեն","name:it":"Anversa","name:ja":"アントワープ","name:ka":"ანტვერპენი","name:kn":"ಆಂಟ್ವೆರ್ಪ್","name:la":"Antverpia","name:lt":"Antverpenas","name:lv":"Antverpene","name:mk":"Антверпен","name:nl":"Antwerpen","name:pl":"Antwerpia","name:pt":"Antuérpia","name:ru":"Антверпен","name:sk":"Antverpy","name:sr":"Антверпен","name:uk":"Антверпен","name:ur":"اینٹورپن","name:wa":"Anverse","name:zh":"安特卫普","name:nds":"Antwarp","name:pcd":"Anvérse","name:vls":"Antwerpn","alt_name:ar":"أنتفيرب","alt_name:es":"Antuerpia","alt_name:mk":"Антверп","name:nds-nl":"Antwaarp","old_name:de":"Antorf"},"display_name":"Antwerpen, Vlaanderen, België / Belgique / Belgien","address":{"city_district":"Antwerpen","city":"Antwerpen","county":"Antwerpen","state":"Antwerpen","ISO3166-2-lvl6":"BE-VAN","region":"Vlaanderen","ISO3166-2-lvl4":"BE-VLG","country":"België / Belgique / Belgien","country_code":"be"},"osm_type":"relation","osm_id":60709,"type":"administrative","location":[4.382442306343581,51.2452978],"bbox":[4.3008128,51.1754763,4.4443102,51.313495]}]}
{"name":"Brugge","other_names":{"name:ar":"بروج","name:be":"Бругэ","name:ca":"Bruges","name:cs":"Bruggy","name:de":"Brügge","name:el":"Βρύγη","name:en":"Bruges","name:eo":"Bruĝo","name:es":"Brujas","name:eu":"Brujas","name:fr":"Bruges","name:he":"ברוז'","name:hi":"ब्रूज","name:it":"Bruges","name:ko":"브뤼허","name:la":"Brugae","name:lb":"Bruges","name:lt":"Briugė","name:lv":"Brige","name:mk":"Бриж","name:ml":"ബ്രൂഷ്","name:nl":"Brugge","name:pl":"Brugia","name:pt":"Bruges","name:ru":"Брюгге","name:sk":"Bruggy","name:sr":"Бриж","name:sv":"Brygge","name:tr":"Brüj","name:uk":"Брюгге","name:ur":"بروخے","name:wa":"Brudje","name:zh":"布魯日","name:gcf":"Brij","name:pcd":"Brudje","name:vls":"Brugge","name:zh-Hans":"布鲁日","name:zh-Hant":"布魯日"},"display_name":"Brugge, West-Vlaanderen, Vlaanderen, België / Belgique / Belgien","address":{"city":"Brugge","county":"Brugge","state":"West-Vlaanderen","ISO3166-2-lvl6":"BE-VWV","region":"Vlaanderen","ISO3166-2-lvl4":"BE-VLG","country":"België / Belgique / Belgien","country_code":"be"},"population":117639,"osm_type":"node","osm_id":1651558422,"type":"city","location":[3.226772,51.2085526],"bbox":[3.066772,51.0485526,3.386772,51.3685526],"border":[{"name":"Brugge","other_names":{"name:ar":"بروج","name:ca":"Bruges","name:cs":"Bruggy","name:de":"Brügge","name:es":"Brujas","name:fr":"Bruges","name:it":"Bruges","name:la":"Brugae","name:lb":"Bruges","name:lt":"Briugė","name:lv":"Brige","name:nl":"Brugge","name:pl":"Brugia","name:pt":"Bruges","name:ru":"Брюгге","name:sk":"Bruggy","name:sr":"Бриж","name:sv":"Brygge","name:tr":"Brüj","name:wa":"Brudje","name:pcd":"Brudje","name:vls":"Brugge","official_name":"Arrondissement Brugge","official_name:nl":"Arrondissement Brugge","official_name:vls":"Arroundissement Brugge"},"display_name":"Brugge, West-Vlaanderen, Vlaanderen, België / Belgique / Belgien","address":{"county":"Brugge","state":"West-Vlaanderen","ISO3166-2-lvl6":"BE-VWV","region":"Vlaanderen","ISO3166-2-lvl4":"BE-VLG","country":"België / Belgique / Belgien","country_code":"be"},"osm_type":"relation","osm_id":2239546,"type":"administrative","location":[3.2030728714652836,51.19313965],"bbox":[3.0400683,51.0135324,3.4109642,51.372703]},{"name":"Brugge","other_names":{"name:ar":"بروج","name:bg":"Брюж","name:ca":"Bruges","name:cs":"Bruggy","name:da":"Brygge","name:de":"Brügge","name:en":"Bruges","name:eo":"Bruĝo","name:es":"Brujas","name:fi":"Brygge","name:fr":"Bruges","name:hu":"Bruges","name:it":"Bruges","name:ja":"ブルッヘ","name:la":"Brugae","name:lb":"Bruges","name:lt":"Briugė","name:lv":"Brige","name:nl":"Brugge","name:pl":"Brugia","name:pt":"Bruges","name:ru":"Брюгге","name:sk":"Bruggy","name:sr":"Бриж","name:sv":"Brygge","name:tr":"Brüj","name:ur":"بروخے","name:wa":"Brudje","name:zh":"布鲁日","name:pcd":"Brudje","name:vls":"Brugge","name:sr-Latn":"Briž","name:be":"Бругэ","name:el":"Βρύγη","name:eu":"Brujas","name:he":"ברוז'","name:hi":"ब्रूज","name:ko":"브뤼허","name:mk":"Бриж","name:ml":"ബ്രൂഷ്","name:uk":"Брюгге","name:gcf":"Brij","name:zh-Hans":"布鲁日","name:zh-Hant":"布魯日","alt:zh":"布魯日"},"display_name":"Brugge, West-Vlaanderen, Vlaanderen, België / Belgique / Belgien","address":{"city":"Brugge","county":"Brugge","state":"West-Vlaanderen","ISO3166-2-lvl6":"BE-VWV","region":"Vlaanderen","ISO3166-2-lvl4":"BE-VLG","country":"België / Belgique / Belgien","country_code":"be"},"population":117639,"osm_type":"relation","osm_id":562654,"type":"administrative","location":[3.226772,51.2085526],"bbox":[3.1341748,51.1582193,3.3098982,51.363347]},{"name":"Brugge","other_names":{"name:ar":"بروج","name:ca":"Bruges","name:cs":"Bruggy","name:de":"Brügge","name:es":"Brujas","name:fr":"Bruges","name:it":"Bruges","name:la":"Brugae","name:lb":"Bruges","name:lt":"Briugė","name:lv":"Brige","name:nl":"Brugge","name:pl":"Brugia","name:pt":"Bruges","name:ru":"Брюгге","name:sk":"Bruggy","name:sr":"Бриж","name:sv":"Brygge","name:tr":"Brüj","name:wa":"Brudje","name:pcd":"Brudje","name:vls":"Brugge"},"display_name":"Brugge, West-Vlaanderen, Vlaanderen, 8000, België / Belgique / Belgien","address":{"city_district":"Brugge","city":"Brugge","county":"Brugge","state":"West-Vlaanderen","ISO3166-2-lvl6":"BE-VWV","region":"Vlaanderen","ISO3166-2-lvl4":"BE-VLG","postcode":"8000","country":"België / Belgique / Belgien","country_code":"be"},"osm_type":"relation","osm_id":2375259,"type":"administrative","location":[3.203099149517685,51.2317392],"bbox":[3.160064,51.1937976,3.245121,51.2698802]}]}
{"name":"Bruxelles - Brussel","other_names":{"name:af":"Brussel","name:am":"ብሩክሴል","name:an":"Bruselas","name:ar":"بروكسل","name:be":"Брусель","name:bg":"Брюксел","name:bo":"པུའུ་ལུའུ་སེལ​།","name:br":"Brusel","name:bs":"Brisel","name:ca":"Brussel·les","name:ce":"Бруссель","name:cs":"Brusel","name:cy":"Brwsel","name:da":"Bruxelles","name:de":"Brüssel","name:el":"Βρυξέλλες","name:en":"Brussels","name:eo":"Bruselo","name:es":"Bruselas","name:et":"Brüssel","name:eu":"Brusela","name:fa":"بروکسل","name:fi":"Bryssel","name:fo":"Brussel","name:fr":"Bruxelles","name:fy":"Brussel","name:ga":"An Bhruiséil","name:gd":"A' Bhruiseal","name:gl":"Bruxelas","name:gv":"Yn Vrussyl","name:he":"בריסל","name:hi":"ब्रसेल्स","name:hr":"Brisel","name:ht":"Briksèl","name:hu":"Brüsszel","name:hy":"Բրյուսել","name:ia":"Brussel","name:id":"Brussel","name:io":"Bruxel","name:is":"Brussel","name:it":"Bruxelles","name:ja":"ブリュッセル","name:jv":"Brussel","name:ka":"ბრიუსელი","name:kk":"Бруссел","name:kl":"Bruxelles","name:kn":"ಬ್ರಸೆಲ್ಸ್","name:ko":"브뤼셀","name:ku":"Bruksel","name:kv":"Брюссель","name:kw":"Brusselas","name:la":"Bruxellae","name:lb":"Bréissel","name:li":"Brussel","name:ln":"Bruxelles","name:lt":"Briuselis","name:lv":"Brisele","name:mg":"Brussel","name:mi":"Paruhi","name:mk":"Брисел","name:ml":"ബ്രസൽസ്","name:mn":"Брюссель","name:mr":"ब्रसेल्स","name:ms":"Brussels","name:mt":"Brussell","name:my":"ဘရပ်ဆဲလ်မြို့","name:na":"Brussels","name:nl":"Brussel","name:nn":"Brussel","name:no":"Brussel","name:oc":"Brussèlas","name:os":"Брюссель","name:pa":"ਬਰੂਸਲ","name:pl":"Bruksela","name:ps":"بروکسل","name:pt":"Bruxelas","name:qu":"Brussel","name:ro":"Bruxelles","name:ru":"Брюссель","name:sh":"Bruxelles","name:sk":"Brusel","name:sl":"Bruselj","name:sq":"Brukseli","name:sr":"Брисел","name:sv":"Bryssel","name:sw":"Brussels","name:ta":"பிரசெல்சு","name:tg":"Брюссел","name:th":"บรัสเซลส์","name:tr":"Brüksel","name:ug":"Bryussél","name:uk":"Брюссель","name:ur":"برسلز","name:vi":"Bruxelles","name:wa":"Brussele","name:yi":"בריסל","name:zh":"布魯塞爾","name:ang":"Brysel","name:arc":"ܒܪܘܟܣܠ","name:ast":"Bruxeles","name:azb":"بروکسل","name:ckb":"بروکسێل","name:crh":"Brüksel","name:diq":"Bruksel","name:ext":"Brusselas","name:frp":"Brussèles","name:gcf":"Brisèl","name:grc":"Βρυξέλλαι","name:kab":"Bruxelles","name:kmr":"بروکسەل","name:lad":"Bruselas","name:lij":"Bruxelles","name:lrc":"بورۊکسل","name:mzn":"بروکسل","name:nah":"Brusel","name:nan":"Brussels","name:nap":"Bruxelles","name:nds":"Brüssel","name:nov":"Bruxelles","name:pap":"Brusela","name:pcd":"Brusselle","name:pms":"Brussel","name:pnb":"برسلز","name:rue":"Брусел","name:sah":"Брүссель","name:scn":"Bruxelles","name:stq":"Brussel","name:syc":"ܒܪܘܟܣܠ","name:szl":"Bruksela","name:tpi":"Brussels","name:tzl":"Brüxell","name:vec":"Borseła","name:vep":"Brüssel'","name:vls":"Brussel","name:wuu":"布鲁塞尔","name:yue":"布魯塞爾","name:zea":"Brussel","short_name":"BXL","name:nds-nl":"Bruzzel","name:simple":"Brussels","old_name:hr":"Bruselj","name:bat-smg":"Briuselis","name:sr-Latn":"Brisel","name:zh-Hans":"布鲁塞尔","name:zh-Hant":"布魯塞爾","name:be-tarask":"Брусэль"},"display_name":"Bruxelles - Brussel, Brussel-Hoofdstad - Bruxelles-Capitale, Région de Bruxelles-Capitale - Brussels Hoofdstedelijk Gewest, België / Belgique / Belgien","address":{"city":"Bruxelles - Brussel","county":"Brussel-Hoofdstad - Bruxelles-Capitale","region":"Région de Bruxelles-Capitale - Brussels Hoofdstedelijk Gewest","ISO3166-2-lvl4":"BE-BRU","country":"België / Belgique / Belgien","country_code":"be"},"population":194291,"osm_type":"node","osm_id":1635651356,"type":"city","location":[4.351697,50.8465573],"bbox":[4.191697,50.6865573,4.511697,51.0065573],"border":[{"name":"Brussel-Hoofdstad - Bruxelles-Capitale","other_names":{"name:ar":"بروكسل العاصمة","name:ca":"Brussel·les-Capital","name:de":"Brüssel-Hauptstadt","name:en":"Brussels-Capital","name:es":"Bruselas-Capital","name:fr":"Bruxelles-Capitale","name:lb":"Bréissel-Haaptstad","name:li":"Brussels-Hoofsjtaejelik","name:nl":"Brussel-Hoofdstad","name:ru":"Брюссельский столичный регион","name:sk":"Brusel - Hlavné mesto","name:ur":"برسلز دارالحکومت","name:wa":"Brussele-Capitåle","name:vls":"Brussels-Oofdstedelik","short_name":"BXL","name:nds-nl":"Bruzzels Heufdstedelk Gewest","short_name:nl":"BHG"},"display_name":"Brussel-Hoofdstad - Bruxelles-Capitale, Région de Bruxelles-Capitale - Brussels Hoofdstedelijk Gewest, België / Belgique / Belgien","address":{"county":"Brussel-Hoofdstad - Bruxelles-Capitale","region":"Région de Bruxelles-Capitale - Brussels Hoofdstedelijk Gewest","ISO3166-2-lvl4":"BE-BRU","country":"België / Belgique / Belgien","country_code":"be"},"osm_type":"relation","osm_id":2404020,"type":"administrative","location":[4.375304132256188,50.83879505],"bbox":[4.2437658,50.7636799,4.4822711,50.9139045]},{"name":"Bruxelles - Brussel","other_names":{"name:ar":"بروكسل","name:bg":"Брюксел","name:by":"Брусэль","name:ca":"Brussel·les","name:cs":"Brusel","name:cy":"Brwsel","name:da":"Bryssel","name:de":"Brüssel","name:el":"Βρυξέλλες","name:en":"Brussels","name:eo":"Bruselo","name:es":"Bruselas","name:et":"Brüssel","name:eu":"Brusela","name:fi":"Bryssel","name:fr":"Bruxelles","name:ga":"an Bhruiséil","name:he":"בריסל","name:hu":"Brüsszel","name:id":"Brusel","name:ja":"ブラッセルズ","name:la":"Bruxellae","name:lb":"Bréissel","name:li":"Breusel","name:lv":"Brisele","name:ms":"Brussels","name:nl":"Brussel","name:pl":"Bruksela","name:pt":"Bruxelas","name:ru":"Брюссель","name:sk":"Brusel","name:sl":"Bruselj","name:sv":"Bryssel","name:tr":"Brüksel","name:uk":"Брюсель","name:ur":"شہر برسلز","name:wa":"Brussele","name:zh":"布鲁塞尔","int_name":"Bruxelles-Brussel","name:grc":"Βρυξέλλες","name:pcd":"Brusselle","name:vls":"Brussel","alt_name:ar":"بروكسل المدينة","alt_name:fr":"Bruxelles-Ville","name:nds-nl":"Bruzzel","name:sr-Latn":"Brisel","official_name":"Bruxelles - Brussel","name:af":"Brussel","name:am":"ብሩክሴል","name:an":"Bruselas","name:be":"Брусель","name:bo":"པུའུ་ལུའུ་སེལ​།","name:br":"Brusel","name:bs":"Brisel","name:ce":"Бруссель","name:fa":"بروکسل","name:fo":"Brussel","name:fy":"Brussel","name:gd":"A' Bhruiseal","name:gl":"Bruxelas","name:gv":"Yn Vrussyl","name:hi":"ब्रसेल्स","name:hr":"Brisel","name:ht":"Briksèl","name:hy":"Բրյուսել","name:ia":"Brussel","name:io":"Bruxel","name:is":"Brussel","name:it":"Bruxelles","name:jv":"Brussel","name:ka":"ბრიუსელი","name:kk":"Бруссел","name:kl":"Bruxelles","name:kn":"ಬ್ರಸೆಲ್ಸ್","name:ko":"브뤼셀","name:ku":"Bruksel","name:kv":"Брюссель","name:kw":"Brusselas","name:ln":"Bruxelles","name:lt":"Briuselis","name:mg":"Brussel","name:mi":"Paruhi","name:mk":"Брисел","name:ml":"ബ്രസൽസ്","name:mn":"Брюссель","name:mr":"ब्रसेल्स","name:mt":"Brussell","name:my":"ဘရပ်ဆဲလ်မြို့","name:na":"Brussels","name:nn":"Brussel","name:no":"Brussel","name:oc":"Brussèlas","name:os":"Брюссель","name:pa":"ਬਰੂਸਲ","name:ps":"بروکسل","name:qu":"Brussel","name:ro":"Bruxelles","name:sh":"Bruxelles","name:sq":"Brukseli","name:sr":"Брисел","name:sw":"Brussels","name:ta":"பிரசெல்சு","name:tg":"Брюссел","name:th":"บรัสเซลส์","name:ug":"Bryussél","name:vi":"Bruxelles","name:yi":"בריסל","name:ang":"Brysel","name:arc":"ܒܪܘܟܣܠ","name:ast":"Bruxeles","name:azb":"بروکسل","name:ckb":"بروکسێل","name:crh":"Brüksel","name:diq":"Bruksel","name:ext":"Brusselas","name:frp":"Brussèles","name:gcf":"Brisèl","name:kab":"Bruxelles","name:kmr":"بروکسەل","name:lad":"Bruselas","name:lij":"Bruxelles","name:lrc":"بورۊکسل","name:mzn":"بروکسل","name:nah":"Brusel","name:nan":"Brussels","name:nap":"Bruxelles","name:nds":"Brüssel","name:nov":"Bruxelles","name:pap":"Brusela","name:pms":"Brussel","name:pnb":"برسلز","name:rue":"Брусел","name:sah":"Брүссель","name:scn":"Bruxelles","name:stq":"Brussel","name:syc":"ܒܪܘܟܣܠ","name:szl":"Bruksela","name:tpi":"Brussels","name:tzl":"Brüxell","name:vec":"Borseła","name:vep":"Brüssel'","name:wuu":"布鲁塞尔","name:yue":"布魯塞爾","name:zea":"Brussel","official_name:de":"Brüssel","official_name:en":"Brussels","official_name:fr":"Bruxelles","official_name:ky":"Брүссел","official_name:nl":"Brussel","short_name":"BXL","name:simple":"Brussels","old_name:hr":"Bruselj","name:bat-smg":"Briuselis","name:zh-Hans":"布鲁塞尔","name:zh-Hant":"布魯塞爾","name:be-tarask":"Брусэль","alt:da":"Bruxelles","alt:ga":"An Bhruiséil","alt:id":"Brussel","alt:ja":"ブリュッセル","alt:li":"Brussel","alt:uk":"Брюссель","alt:ur":"برسلز","alt:zh":"布魯塞爾","alt:grc":"Βρυξέλλαι"},"display_name":"Bruxelles - Brussel, Brussel-Hoofdstad - Bruxelles-Capitale, Région de Bruxelles-Capitale - Brussels Hoofdstedelijk Gewest, België / Belgique / Belgien","address":{"city":"Bruxelles - Brussel","county":"Brussel-Hoofdstad - Bruxelles-Capitale","region":"Région de Bruxelles-Capitale - Brussels Hoofdstedelijk Gewest","ISO3166-2-lvl4":"BE-BRU","country":"België / Belgique / Belgien","country_code":"be"},"population":188137,"osm_type":"relation","osm_id":58274,"type":"administrative","location":[4.351697,50.8465573],"bbox":[4.3137681,50.7963454,4.4370662,50.9139045]},{"name":"Bruxelles - Brussel","other_names":{"name:ar":"بروكسل","name:be":"Брусель","name:br":"Brusel","name:ca":"Brussel·les","name:cs":"Brusel","name:da":"Bryssel","name:de":"Brüssel","name:el":"Βρυξέλλες","name:en":"Brussels","name:es":"Bruselas","name:et":"Brüssel","name:eu":"Brusela","name:fa":"بروکسل","name:fi":"Bryssel","name:fr":"Bruxelles","name:he":"בריסל","name:hr":"Brisel","name:hu":"Brüsszel","name:is":"Brussel","name:it":"Bruxelles","name:ku":"Bruksel","name:la":"Bruxellae","name:lb":"Bréissel","name:lt":"Briuselis","name:lv":"Brisele","name:nl":"Brussel","name:pa":"ਬਰੂਸਲ","name:pl":"Bruksela","name:ps":"بروکسل","name:pt":"Bruxelas","name:ru":"Брюссель","name:sk":"Brusel","name:sr":"Брисел","name:sv":"Bryssel","name:tr":"Brüksel","name:uk":"Брюссель","name:ur":"برسلز","name:zh":"布鲁塞尔","name:arc":"ܒܪܘܟܣܠ","name:ast":"Bruxeles","name:azb":"بروکسل","name:ckb":"بروکسێل","name:grc":"Βρυξέλλαι","name:kmr":"بروکسەل","name:lrc":"بورۊکسل","name:mzn":"بروکسل","name:pnb":"برسلز","name:syc":"ܒܪܘܟܣܠ","name:tzl":"Brüxell","short_name":"BXL","name:nds-nl":"Bruzzel","name:pa-Arab":"برسل"},"display_name":"Bruxelles - Brussel, Brussel-Hoofdstad - Bruxelles-Capitale, Région de Bruxelles-Capitale - Brussels Hoofdstedelijk Gewest, België / Belgique / Belgien","address":{"city_district":"Bruxelles - Brussel","city":"Bruxelles - Brussel","county":"Brussel-Hoofdstad - Bruxelles-Capitale","region":"Région de Bruxelles-Capitale - Brussels Hoofdstedelijk Gewest","ISO3166-2-lvl4":"BE-BRU","country":"België / Belgique / Belgien","country_code":"be"},"osm_type":"relation","osm_id":2404021,"type":"administrative","location":[4.367386454769331,50.84356515],"bbox":[4.335475,50.7963454,4.402003,50.890497]}]}
{"name":"Charleroi","other_names":{"name:ar":"شارلوروا","name:de":"Charleroi","name:fr":"Charleroi","name:hi":"शारलेरोई","name:hu":"Charleroi","name:la":"Caroloregium","name:lt":"Šarlerua","name:mk":"Шарлероа","name:ml":"ഷാർലർവ","name:nl":"Charleroi","name:ru":"Шарлеруа","name:sr":"Шарлроа","name:uk":"Шарлеруа","name:ur":"شارلروا","name:wa":"Tchålerwè","name:gcf":"Chalwa","name:pcd":"Carleroé","nat_name":"La capitale du Pays noir","old_name":"Charnoy","alt_name:nl":"Karelskoning","alt_name:ur":"شالروا","alt_name:wa":"Chålerwè","old_name:de":"Karolingen"},"display_name":"Charleroi, Hainaut, Wallonie, 6000, België / Belgique / Belgien","address":{"city":"Charleroi","county":"Charleroi","state":"Hainaut","ISO3166-2-lvl6":"BE-WHT","region":"Wallonie","ISO3166-2-lvl4":"BE-WAL","postcode":"6000","country":"België / Belgique / Belgien","country_code":"be"},"population":202730,"osm_type":"node","osm_id":9002746,"type":"city","location":[4.444528,50.4116233],"bbox":[4.284528,50.2516233,4.604528,50.5716233],"border":[{"name":"Charleroi","other_names":{"name:ar":"شارلوروا","name:de":"Charleroi","name:fr":"Charleroi","name:nl":"Charleroi","name:ru":"Шарлеруа","name:sr":"Шарлроа","name:wa":"Tchålerwè","name:pcd":"Carleroé","old_name":"Charnoy","alt_name:nl":"Karelskoning","alt_name:wa":"Chålerwè","old_name:de":"Karolingen"},"display_name":"Charleroi, Hainaut, Wallonie, België / Belgique / Belgien","address":{"county":"Charleroi","state":"Hainaut","ISO3166-2-lvl6":"BE-WHT","region":"Wallonie","ISO3166-2-lvl4":"BE-WAL","country":"België / Belgique / Belgien","country_code":"be"},"osm_type":"relation","osm_id":2336710,"type":"administrative","location":[4.423705710602002,50.4398053],"bbox":[4.2619886,50.3149771,4.6172678,50.56466]},{"name":"Charleroi","other_names":{"name:ar":"شارلوروا","name:fr":"Charleroi","name:nl":"Charleroi","name:ur":"شارلروا","name:wa":"Tchålerwè","name:pcd":"Carleroé","name:vls":"Charleroi","old_name":"Charnoy","alt_name:nl":"Karelskoning","alt_name:wa":"Châlerwè","name:de":"Charleroi","name:hi":"शारलेरोई","name:hu":"Charleroi","name:la":"Caroloregium","name:lt":"Šarlerua","name:mk":"Шарлероа","name:ml":"ഷാർലർവ","name:ru":"Шарлеруа","name:sr":"Шарлроа","name:uk":"Шарлеруа","name:gcf":"Chalwa","nat_name":"La capitale du Pays noir","alt_name:ur":"شالروا","_place_alt_name:wa":"Chålerwè","old_name:de":"Karolingen"},"display_name":"Charleroi, Hainaut, Wallonie, België / Belgique / Belgien","address":{"city":"Charleroi","county":"Charleroi","state":"Hainaut","ISO3166-2-lvl6":"BE-WHT","region":"Wallonie","ISO3166-2-lvl4":"BE-WAL","country":"België / Belgique / Belgien","country_code":"be"},"population":202730,"osm_type":"relation","osm_id":2113725,"type":"administrative","location":[4.444528,50.4116233],"bbox":[4.3480641,50.3528371,4.5075516,50.4924266]},{"name":"Charleroi","other_names":{"name:ar":"شارلوروا","name:nl":"Charleroi","name:wa":"Tchålerwè","name:pcd":"Carleroé","name:vls":"Charleroi","old_name":"Charnoy","alt_name:nl":"Karelskoning","alt_name:wa":"Châlerwè"},"display_name":"Charleroi, Hainaut, Wallonie, 6000, België / Belgique / Belgien","address":{"city_district":"Charleroi","city":"Charleroi","county":"Charleroi","state":"Hainaut","ISO3166-2-lvl6":"BE-WHT","region":"Wallonie","ISO3166-2-lvl4":"BE-WAL","postcode":"6000","country":"België / Belgique / Belgien","country_code":"be"},"osm_type":"relation","osm_id":3411109,"type":"administrative","location":[4.4493739695069205,50.41681655],"bbox":[4.4306123,50.4035242,4.4660224,50.4300185]}]}
{"name":"Gent","other_names":{"name:ar":"غنت","name:be":"Гент","name:bg":"Гент","name:ca":"Gant","name:de":"Gent","name:el":"Γάνδη","name:en":"Ghent","name:eo":"Gento","name:es":"Gante","name:eu":"Gante","name:fa":"گنت","name:fr":"Gand","name:fy":"Gint","name:gl":"Gante - Gent","name:he":"גנט","name:hi":"खेंट","name:it":"Gand","name:ja":"ヘント","name:ka":"გენტი","name:ko":"헨트","name:la":"Gandavum","name:lt":"Gentas","name:lv":"Ģente","name:mk":"Гент","name:ml":"ഗെന്റ്","name:mn":"Гент","name:mr":"गेंट","name:my":"ဂင့်မြို့","name:na":"Ghent","name:nl":"Gent","name:oc":"Gant","name:os":"Гент","name:pl":"Gandawa","name:pt":"Gante","name:ru":"Гент","name:sr":"Гент","name:th":"เกนต์","name:tl":"Gante","name:ug":"Gant","name:uk":"Ґент","name:ur":"گینٹ","name:vo":"Ghent","name:wa":"Gant","name:zh":"根特","name:ast":"Gante","name:gcf":"Gènt","name:pcd":"Gand","old_name:en":"Gaunt","old_name:it":"Guanto","name:zh-Hans":"根特","name:zh-Hant":"根特","name:sign_language":"https://woordenboek.vlaamsegebarentaal.be/gloss/GENT(OVL)?sid=4226"},"display_name":"Gent, Oost-Vlaanderen, Vlaanderen, België / Belgique / Belgien","address":{"city":"Gent","county":"Gent","state":"Oost-Vlaanderen","ISO3166-2-lvl6":"BE-VOV","region":"Vlaanderen","ISO3166-2-lvl4":"BE-VLG","country":"België / Belgique / Belgien","country_code":"be"},"population":237000,"osm_type":"node","osm_id":1668655163,"type":"city","location":[3.7250121,51.0538286],"bbox":[3.5650121,50.8938286,3.8850121,51.2138286],"border":[{"name":"Gent","other_names":{"name:de":"Gent","name:fr":"Gand","name:la":"Gandavum","name:nl":"Gent","name:ru":"Гент","name:ur":"گینٹ","name:wa":"Gant","name:pcd":"Gand","official_name":"Arrondissement Gent","official_name:fr":"Arrondissment de Gand","official_name:nl":"Arrondissement Gent","official_name:wa":"Arondixhmint di Gant"},"display_name":"Gent, Oost-Vlaanderen, Vlaanderen, België / Belgique / Belgien","address":{"county":"Gent","state":"Oost-Vlaanderen","ISO3166-2-lvl6":"BE-VOV","region":"Vlaanderen","ISO3166-2-lvl4":"BE-VLG","country":"België / Belgique / Belgien","country_code":"be"},"osm_type":"relation","osm_id":2524008,"type":"administrative","location":[3.6426007010688295,51.058757],"bbox":[3.3313115,50.8947485,3.9232771,51.2230186]},{"name":"Gent","other_names":{"name:as":"Gand","name:en":"Ghent","name:la":"Gandavum","name:nl":"Gent","name:ru":"Гент","name:ur":"گینٹ","name:wa":"Gant","name:pcd":"Gand","name:vls":"Gent","name:ar":"غنت","name:be":"Гент","name:bg":"Гент","name:ca":"Gant","name:de":"Gent","name:el":"Γάνδη","name:eo":"Gento","name:es":"Gante","name:eu":"Gante","name:fa":"گنت","name:fr":"Gand","name:fy":"Gint","name:gl":"Gante - Gent","name:he":"גנט","name:hi":"खेंट","name:it":"Gand","name:ja":"ヘント","name:ka":"გენტი","name:ko":"헨트","name:lt":"Gentas","name:lv":"Ģente","name:mk":"Гент","name:ml":"ഗെന്റ്","name:mn":"Гент","name:mr":"गेंट","name:my":"ဂင့်မြို့","name:na":"Ghent","name:oc":"Gant","name:os":"Гент","name:pl":"Gandawa","name:pt":"Gante","name:sr":"Гент","name:th":"เกนต์","name:tl":"Gante","name:ug":"Gant","name:uk":"Ґент","name:vo":"Ghent","name:zh":"根特","name:ast":"Gante","name:gcf":"Gènt","old_name:en":"Gaunt","old_name:it":"Guanto","name:zh-Hans":"根特","name:zh-Hant":"根特","name:sign_language":"https://woordenboek.vlaamsegebarentaal.be/gloss/GENT(OVL)?sid=4226"},"display_name":"Gent, Oost-Vlaanderen, Vlaanderen, België / Belgique / Belgien","address":{"city":"Gent","county":"Gent","state":"Oost-Vlaanderen","ISO3166-2-lvl6":"BE-VOV","region":"Vlaanderen","ISO3166-2-lvl4":"BE-VLG","country":"België / Belgique / Belgien","country_code":"be"},"population":237000,"osm_type":"relation","osm_id":897671,"type":"administrative","location":[3.7250121,51.0538286],"bbox":[3.5797616,50.9795422,3.8493413,51.188891]},{"name":"Gent","other_names":{"name:en":"Ghent","name:fr":"Gand","name:la":"Gandavum","name:nl":"Gent","name:wa":"Gant","name:pcd":"Gand","name:vls":"Gent"},"display_name":"Gent, Oost-Vlaanderen, Vlaanderen, België / Belgique / Belgien","address":{"city_district":"Gent","city":"Gent","county":"Gent","state":"Oost-Vlaanderen","ISO3166-2-lvl6":"BE-VOV","region":"Vlaanderen","ISO3166-2-lvl4":"BE-VLG","country":"België / Belgique / Belgien","country_code":"be"},"population":237000,"osm_type":"relation","osm_id":3754123,"type":"administrative","location":[3.7395008742915907,51.10159575],"bbox":[3.6725638,51.0141965,3.80201,51.188891]}]}
{"name":"Kortrijk","other_names":{"name:an":"Contrai","name:be":"Горад Кортрэйк","name:bg":"Кортрейк","name:ca":"Cortrai","name:en":"Kortrijk","name:eo":"Kortrejko","name:es":"Cortrique","name:fa":"کورتریک","name:fr":"Courtrai","name:fy":"Kortrik","name:gl":"Courtrai","name:he":"קורטרייק","name:hi":"कॉर्ट्रीक","name:it":"Courtrai","name:ja":"コルトレイク","name:ko":"코르트레이크","name:ky":"Кортрейк","name:la":"Cortoriacum","name:lt":"Kortreikas","name:lv":"Kortreika","name:ml":"കൊർട്രെയ്ക്","name:nl":"Kortrijk","name:oc":"Cortrai","name:pt":"Courtrai","name:ru":"Кортрейк","name:sr":"Кортрајк","name:th":"คอร์ทไรค์","name:uk":"Кортрейк","name:ur":"کورتریک","name:vi":"Courtrai","name:zh":"科特赖克","name:vls":"Kortryk"},"display_name":"Kortrijk, West-Vlaanderen, Vlaanderen, België / Belgique / Belgien","address":{"city":"Kortrijk","county":"Kortrijk","state":"West-Vlaanderen","ISO3166-2-lvl6":"BE-VWV","region":"Vlaanderen","ISO3166-2-lvl4":"BE-VLG","country":"België / Belgique / Belgien","country_code":"be"},"population":77109,"osm_type":"node","osm_id":5458266808,"type":"city","location":[3.2659884,50.8276429],"bbox":[3.1059884,50.6676429,3.4259884,50.9876429],"border":[{"name":"Kortrijk","other_names":{"name:en":"Kortrijk","name:es":"Courtrai","name:fr":"Courtrai","name:he":"קורטרייק","name:it":"Courtrai","name:la":"Cortoriacum","name:nl":"Kortrijk","name:ru":"Кортрейк","name:zh":"科尔特赖克","name:vls":"Kortryk","official_name":"Arrondissement Kortrijk","official_name:fr":"Arrondissement administratif de Courtrai","official_name:nl":"Arrondissement Kortrijk","official_name:vls":"Arroundissement Kortryk"},"display_name":"Kortrijk, West-Vlaanderen, Vlaanderen, België / Belgique / Belgien","address":{"county":"Kortrijk","state":"West-Vlaanderen","ISO3166-2-lvl6":"BE-VWV","region":"Vlaanderen","ISO3166-2-lvl4":"BE-VLG","country":"België / Belgique / Belgien","country_code":"be"},"osm_type":"relation","osm_id":2239750,"type":"administrative","location":[3.309952274809797,50.8102349],"bbox":[3.0805889,50.7095733,3.5234351,50.9113901]},{"name":"Kortrijk","other_names":{"name:ca":"Cortrai","name:en":"Kortrijk","name:fr":"Courtrai","name:la":"Cortoriacum","name:nl":"Kortrijk","name:oc":"Cortrai","name:ru":"Кортрейк","name:ur":"کورتریک","name:vls":"Kortryk","alt_name:en":"Courtrai;Courtray","alt_name:la":"Cortoracum","alt_name:vls":"Kortrik","name:an":"Contrai","name:be":"Горад Кортрэйк","name:bg":"Кортрейк","name:eo":"Kortrejko","name:es":"Cortrique","name:fa":"کورتریک","name:fy":"Kortrik","name:gl":"Courtrai","name:he":"קורטרייק","name:hi":"कॉर्ट्रीक","name:it":"Courtrai","name:ja":"コルトレイク","name:ko":"코르트레이크","name:ky":"Кортрейк","name:lt":"Kortreikas","name:lv":"Kortreika","name:ml":"കൊർട്രെയ്ക്","name:pt":"Courtrai","name:sr":"Кортрајк","name:th":"คอร์ทไรค์","name:uk":"Кортрейк","name:vi":"Courtrai","name:zh":"科特赖克"},"display_name":"Kortrijk, West-Vlaanderen, Vlaanderen, België / Belgique / Belgien","address":{"city":"Kortrijk","county":"Kortrijk","state":"West-Vlaanderen","ISO3166-2-lvl6":"BE-VWV","region":"Vlaanderen","ISO3166-2-lvl4":"BE-VLG","country":"België / Belgique / Belgien","country_code":"be"},"population":76700,"osm_type":"relation","osm_id":961284,"type":"administrative","location":[3.2659884,50.8276429],"bbox":[3.2007699,50.7310311,3.3590759,50.8746384]},{"name":"Kortrijk","other_names":{"name:en":"Kortrijk","name:fr":"Courtrai","name:la":"Cortoriacum","name:vls":"Kortryk","alt_name:en":"Courtrai;Courtray","alt_name:la":"Cortoracum","alt_name:vls":"Kortrik"},"display_name":"Kortrijk, West-Vlaanderen, Vlaanderen, 8500, België / Belgique / Belgien","address":{"city_district":"Kortrijk","city":"Kortrijk","county":"Kortrijk","state":"West-Vlaanderen","ISO3166-2-lvl6":"BE-VWV","region":"Vlaanderen","ISO3166-2-lvl4":"BE-VLG","postcode":"8500","country":"België / Belgique / Belgien","country_code":"be"},"osm_type":"relation","osm_id":960213,"type":"administrative","location":[3.2782581976982095,50.8178422],"bbox":[3.2395786,50.7853496,3.3209083,50.850243]}]}
{"name":"Lauwe","other_names":{"name:ru":"Лауве","name:vls":"Lauwe"},"display_name":"Lauwe, Menen, Kortrijk, West-Vlaanderen, Vlaanderen, 8930, België / Belgique / Belgien","address":{"city":"Lauwe","municipality":"Menen","county":"Kortrijk","state":"West-Vlaanderen","ISO3166-2-lvl6":"BE-VWV","region":"Vlaanderen","ISO3166-2-lvl4":"BE-VLG","postcode":"8930","country":"België / Belgique / Belgien","country_code":"be"},"osm_type":"relation","osm_id":1335258,"type":"administrative","location":[3.1940622778335173,50.788719650000004],"bbox":[3.1630792,50.7704593,3.2196522,50.8070715],"inferred_type":"city"}
{"name":"Leuven","other_names":{"name:ar":"لوفان","name:bg":"Льовен","name:ca":"Lovaina","name:cs":"Lovaň","name:de":"Löwen","name:el":"Λέουβεν","name:en":"Leuven","name:eo":"Loveno","name:es":"Lovaina","name:eu":"Lovaina","name:fr":"Louvain","name:ga":"Lováin","name:he":"לוון","name:hi":"लोवेन","name:it":"Lovanio","name:ja":"ルーヴェン","name:la":"Lovanium","name:lb":"Léiwen","name:li":"Leuve","name:lt":"Leuvenas","name:mk":"Левен","name:ml":"ലുവൻ","name:nl":"Leuven","name:pt":"Lovaina","name:ro":"Louvain","name:ru":"Лёвен","name:sk":"Leuven","name:sr":"Левен","name:uk":"Левен","name:ur":"لیوَن","name:wa":"Vî-Lovén","name:zh":"鲁汶","name:vls":"Leuvn","alt_name:ur":"لیون","alt_name:wa":"Lovén;Vîye-Lovagne","name:sr-Latn":"Luven","alt_name_2:ur":"لوون","alt_name_3:ur":"لوواں"},"display_name":"Leuven, Vlaams-Brabant, Vlaanderen, België / Belgique / Belgien","address":{"city":"Leuven","county":"Leuven","state":"Vlaams-Brabant","ISO3166-2-lvl6":"BE-VBR","region":"Vlaanderen","ISO3166-2-lvl4":"BE-VLG","country":"België / Belgique / Belgien","country_code":"be"},"population":102275,"osm_type":"node","osm_id":1448497912,"type":"city","location":[4.7011675,50.879202],"bbox":[4.5411675,50.719202,4.8611675,51.039202],"border":[{"name":"Leuven","other_names":{"name:ar":"لوفان","name:bg":"Льовен","name:ca":"Lovaina","name:cs":"Lovaň","name:de":"Löwen","name:el":"Λέουβεν","name:en":"Leuven","name:eo":"Loveno","name:es":"Lovaina","name:eu":"Lovaina","name:fr":"Louvain","name:he":"לוון","name:it":"Lovanio","name:ja":"ルーヴェン","name:la":"Lovanium","name:lb":"Léiwen","name:li":"Leuve","name:lt":"Leuvenas","name:mk":"Левен","name:nl":"Leuven","name:pt":"Lovaina","name:ro":"Louvain","name:ru":"Лёвен","name:sk":"Leuven","name:sr":"Левен","name:wa":"Vî-Lovén","name:zh":"鲁汶","name:vls":"Leuvn","alt_name:wa":"Lovén;Vîye-Lovagne","name:sr-Latn":"Luven","official_name":"Arrondissement Leuven","official_name:nl":"Arrondissement Leuven"},"display_name":"Leuven, Vlaams-Brabant, Vlaanderen, België / Belgique / Belgien","address":{"county":"Leuven","state":"Vlaams-Brabant","ISO3166-2-lvl6":"BE-VBR","region":"Vlaanderen","ISO3166-2-lvl4":"BE-VLG","country":"België / Belgique / Belgien","country_code":"be"},"osm_type":"relation","osm_id":2524256,"type":"administrative","location":[4.838740993341033,50.87658895],"bbox":[4.4471762,50.7033512,5.1880329,51.0498244]},{"name":"Leuven","other_names":{"name:ar":"لوفان","name:bg":"Льовен","name:ca":"Lovaina","name:cs":"Lovaň","name:de":"Löwen","name:el":"Λέουβεν","name:en":"Leuven","name:eo":"Loveno","name:es":"Lovaina","name:eu":"Lovaina","name:fr":"Louvain","name:he":"לוון","name:it":"Lovanio","name:ja":"ルーヴェン","name:la":"Lovanium","name:lb":"Léiwen","name:li":"Leuve","name:lt":"Leuvenas","name:mk":"Левен","name:nl":"Leuven","name:pt":"Lovaina","name:ro":"Louvain","name:ru":"Лёвен","name:sk":"Leuven","name:sr":"Левен","name:ur":"لوون","name:wa":"Vî-Lovén","name:zh":"鲁汶","name:vls":"Leuvn","alt_name:wa":"Lovén;Vîye-Lovagne","name:sr-Latn":"Luven","name:ga":"Lováin","name:hi":"लोवेन","name:ml":"ലുവൻ","name:uk":"Левен","alt_name:ur":"لیون","alt_name_2:ur":"لوون","alt_name_3:ur":"لوواں","alt:ur":"لیوَن"},"display_name":"Leuven, Vlaams-Brabant, Vlaanderen, België / Belgique / Belgien","address":{"city":"Leuven","county":"Leuven","state":"Vlaams-Brabant","ISO3166-2-lvl6":"BE-VBR","region":"Vlaanderen","ISO3166-2-lvl4":"BE-VLG","country":"België / Belgique / Belgien","country_code":"be"},"population":102275,"osm_type":"relation","osm_id":196311,"type":"administrative","location":[4.7011675,50.879202],"bbox":[4.640295,50.8242096,4.7705305,50.9440707]},{"name":"Leuven","other_names":{"name:ar":"لوفان","name:bg":"Льовен","name:ca":"Lovaina","name:cs":"Lovaň","name:de":"Löwen","name:el":"Λέουβεν","name:en":"Leuven","name:eo":"Loveno","name:es":"Lovaina","name:eu":"Lovaina","name:fr":"Louvain","name:he":"לוון","name:it":"Lovanio","name:ja":"ルーヴェン","name:la":"Lovanium","name:lb":"Léiwen","name:li":"Leuve","name:lt":"Leuvenas","name:mk":"Левен","name:nl":"Leuven","name:pt":"Lovaina","name:ro":"Louvain","name:ru":"Лёвен","name:sk":"Leuven","name:sr":"Левен","name:wa":"Vî-Lovén","name:zh":"鲁汶","name:vls":"Leuvn","alt_name:wa":"Lovén;Vîye-Lovagne","name:sr-Latn":"Luven"},"display_name":"Leuven, Vlaams-Brabant, Vlaanderen, 3000, België / Belgique / Belgien","address":{"city_district":"Leuven","city":"Leuven","county":"Leuven","state":"Vlaams-Brabant","ISO3166-2-lvl6":"BE-VBR","region":"Vlaanderen","ISO3166-2-lvl4":"BE-VLG","postcode":"3000","country":"België / Belgique / Belgien","country_code":"be"},"osm_type":"relation","osm_id":3921680,"type":"administrative","location":[4.694081600114844,50.8811722],"bbox":[4.6706352,50.8680728,4.7181492,50.8944869]}]}
{"name":"Liège","other_names":{"name:ar":"لييج","name:bg":"Льеж","name:ca":"Lieja","name:cs":"Lutych","name:de":"Lüttich","name:el":"Λιέγη","name:eo":"Lieĝo","name:es":"Lieja","name:eu":"Lieja","name:fa":"لیژ","name:fr":"Liège","name:fy":"Luik","name:gl":"Liexa","name:he":"לייז'","name:hi":"लीज","name:it":"Liegi","name:ja":"リエージュ","name:kk":"Льеж","name:ko":"리에주","name:la":"Leodium","name:lb":"Léck","name:li":"Luuk","name:lt":"Lježas","name:lv":"Lježa","name:mk":"Лиеж","name:ml":"ലീജ്","name:mr":"लीज","name:nl":"Luik","name:oc":"Lièja","name:ru":"Льеж","name:sr":"Лијеж","name:th":"ลีแยฌ","name:uk":"Льєж","name:ur":"لیئژ","name:wa":"Lîdje","name:zh":"列日","alt_name":"La cité ardente","name:ast":"Liex","name:gcf":"Lyèj","name:nds":"Lüttich","name:pcd":"Lidje","name:pnb":"لئیج","name:vls":"Luuk","alt_name:la":"Legia","alt_name:ur":"لیئج","name:nds-nl":"Luuk","old_name:fr":"Liége","old_name:la":"Leodicum","name:zh-Hans":"列日","name:zh-Hant":"列日"},"display_name":"Liège, Wallonie, België / Belgique / Belgien","address":{"city":"Liège","county":"Liège","state":"Liège","ISO3166-2-lvl6":"BE-WLG","region":"Wallonie","ISO3166-2-lvl4":"BE-WAL","country":"België / Belgique / Belgien","country_code":"be"},"population":197013,"osm_type":"node","osm_id":1689207163,"type":"city","location":[5.5736112,50.6450944],"bbox":[5.4136112,50.4850944,5.7336112,50.8050944],"border":[{"name":"Liège","other_names":{"name:ar":"لييج","name:bg":"Льеж","name:ca":"Província de Lieja","name:cs":"Lutych","name:de":"Lüttich","name:el":"Λιέγη","name:en":"Liège","name:eo":"Lieĝo","name:es":"Lieja","name:eu":"Lieja","name:fa":"لیژ","name:fr":"Liège","name:fy":"Luik","name:gl":"Liexa","name:he":"לייז'","name:hu":"Liège","name:it":"Liegi","name:ja":"リエージュ","name:kk":"Льеж","name:ko":"리에주","name:la":"Leodium","name:lb":"Léck","name:li":"Luuk","name:lt":"Lježas","name:lv":"Lježa","name:mr":"लीज","name:nl":"Luik","name:oc":"Lièja","name:ru":"Льеж","name:sk":"Lutyšsko","name:sr":"Лијеж","name:th":"ลีแยฌ","name:uk":"Льєж","name:wa":"Lîdje","name:zh":"列日省","name:ast":"Liex","name:nds":"Lüttich","name:pcd":"Lidje","name:pnb":"لیج","name:vls":"Luuk","ISO3166-2":"BE-WLG","alt_name:la":"Legia","name:nds-nl":"Luuk","old_name:fr":"Liége","old_name:la":"Leodicum","name:zh-Hans":"列日省","name:zh-Hant":"列日省","official_name":"Liège","official_name:de":"Lüttich","official_name:en":"Liege","official_name:fr":"Liège","official_name:nl":"Luik"},"display_name":"Liège, Wallonie, België / Belgique / Belgien","address":{"state":"Liège","ISO3166-2-lvl6":"BE-WLG","region":"Wallonie","ISO3166-2-lvl4":"BE-WAL","country":"België / Belgique / Belgien","country_code":"be"},"osm_type":"relation","osm_id":1407192,"type":"administrative","location":[5.773545903524977,50.47081585],"bbox":[4.9793071,50.1294854,6.408097,50.8121222]},{"name":"Liège","other_names":{"name:ar":"لييج","name:bg":"Льеж","name:ca":"Lieja","name:cs":"Lutych","name:de":"Lüttich","name:el":"Λιέγη","name:eo":"Lieĝo","name:es":"Lieja","name:eu":"Lieja","name:fa":"لیژ","name:fr":"Liège","name:fy":"Luik","name:gl":"Liexa","name:he":"לייז'","name:it":"Liegi","name:ja":"リエージュ","name:kk":"Льеж","name:ko":"리에주","name:la":"Leodium","name:lb":"Léck","name:li":"Luuk","name:lt":"Lježas","name:lv":"Lježa","name:mr":"लीज","name:nl":"Luik","name:oc":"Lièja","name:ru":"Льеж","name:sr":"Лијеж","name:th":"ลีแยฌ","name:uk":"Льєж","name:wa":"Lîdje","name:zh":"列日","name:ast":"Liex","name:nds":"Lüttich","name:pcd":"Lidje","name:pnb":"لیج","name:vls":"Luuk","alt_name:la":"Legia","name:nds-nl":"Luuk","old_name:fr":"Liége","old_name:la":"Leodicum","official_name":"Arrondissement administratif de Liège","official_name:fr":"Arrondissement administratif de Liège"},"display_name":"Liège, Wallonie, België / Belgique / Belgien","address":{"county":"Liège","state":"Liège","ISO3166-2-lvl6":"BE-WLG","region":"Wallonie","ISO3166-2-lvl4":"BE-WAL","country":"België / Belgique / Belgien","country_code":"be"},"osm_type":"relation","osm_id":1407191,"type":"administrative","location":[5.543119803161028,50.60381545],"bbox":[5.3494595,50.395499,5.8187573,50.8121222]},{"name":"Liège","other_names":{"name:ar":"لييج","name:bg":"Льеж","name:ca":"Lieja","name:cs":"Lutych","name:de":"Lüttich","name:el":"Λιέγη","name:eo":"Lieĝo","name:es":"Lieja","name:eu":"Lieja","name:fa":"لیژ","name:fr":"Liège","name:fy":"Luik","name:gl":"Liexa","name:he":"לייז'","name:it":"Liegi","name:ja":"リエージュ","name:kk":"Льеж","name:ko":"리에주","name:la":"Leodium","name:lb":"Léck","name:li":"Luuk","name:lt":"Lježas","name:lv":"Lježa","name:mr":"लीज","name:nl":"Luik","name:oc":"Lièja","name:ru":"Льеж","name:sr":"Лијеж","name:th":"ลีแยฌ","name:uk":"Льєж","name:ur":"لیئج","name:wa":"Lîdje","name:zh":"列日","name:ast":"Liex","name:nds":"Lüttich","name:pcd":"Lidje","name:pnb":"لیج","name:vls":"Luuk","alt_name:la":"Legia","name:nds-nl":"Luuk","old_name:fr":"Liége","old_name:la":"Leodicum","name:hi":"लीज","name:mk":"Лиеж","name:ml":"ലീജ്","alt_name":"La cité ardente","name:gcf":"Lyèj","alt_name:ur":"لیئج","name:zh-Hans":"列日","name:zh-Hant":"列日","alt:ur":"لیئژ","alt:pnb":"لئیج"},"display_name":"Liège, Wallonie, 4000, België / Belgique / Belgien","address":{"city":"Liège","county":"Liège","state":"Liège","ISO3166-2-lvl6":"BE-WLG","region":"Wallonie","ISO3166-2-lvl4":"BE-WAL","postcode":"4000","country":"België / Belgique / Belgien","country_code":"be"},"population":197013,"osm_type":"relation","osm_id":1681788,"type":"administrative","location":[5.5736112,50.6450944],"bbox":[5.5233883,50.5610182,5.675257,50.6881981]}]}
{"name":"Mons","other_names":{"name:ar":"مونس","name:de":"Bergen","name:fr":"Mons","name:hi":"माँस","name:la":"Montes","name:mk":"Монсерат","name:ml":"മോൻസ്","name:nl":"Bergen","name:ru":"Монс","name:sr":"Монс","name:uk":"Монс","name:ur":"مونس","name:zh":"蒙斯","nat_name":"La cité du Doudou","alt_name:pcd":"Mont","name:zh-Hans":"蒙斯","name:zh-Hant":"蒙斯"},"display_name":"Mons, Hainaut, Wallonie, België / Belgique / Belgien","address":{"city":"Mons","county":"Mons","state":"Hainaut","ISO3166-2-lvl6":"BE-WHT","region":"Wallonie","ISO3166-2-lvl4":"BE-WAL","country":"België / Belgique / Belgien","country_code":"be"},"population":92721,"osm_type":"node","osm_id":893278148,"type":"city","location":[3.951958,50.4549568],"bbox":[3.791958,50.2949568,4.111958,50.6149568],"border":[{"name":"Mons","other_names":{"name:ar":"مونس","name:de":"Bergen","name:fr":"Mons","name:nl":"Bergen","name:ru":"Монс","name:wa":"Mont","name:pcd":"Mon","name:vls":"Bergn","alt_name:pcd":"Mont"},"display_name":"Mons, Hainaut, Wallonie, België / Belgique / Belgien","address":{"county":"Mons","state":"Hainaut","ISO3166-2-lvl6":"BE-WHT","region":"Wallonie","ISO3166-2-lvl4":"BE-WAL","country":"België / Belgique / Belgien","country_code":"be"},"osm_type":"relation","osm_id":2372934,"type":"administrative","location":[3.9091714527891672,50.46009675],"bbox":[3.6555184,50.3031647,4.0851725,50.6172218]},{"name":"Mons","other_names":{"name:ar":"مونس","name:fr":"Mons","name:nl":"Bergen","name:ru":"Монс","name:ur":"مونس","name:wa":"Mont","name:pcd":"Mon","name:vls":"Bergn","alt_name:nl":"Bergen aan de Hene","alt_name:pcd":"Mont","name:de":"Bergen","name:hi":"माँस","name:la":"Montes","name:mk":"Монсерат","name:ml":"മോൻസ്","name:sr":"Монс","name:uk":"Монс","name:zh":"蒙斯","nat_name":"La cité du Doudou","name:zh-Hans":"蒙斯","name:zh-Hant":"蒙斯"},"display_name":"Mons, Hainaut, Wallonie, België / Belgique / Belgien","address":{"city":"Mons","county":"Mons","state":"Hainaut","ISO3166-2-lvl6":"BE-WHT","region":"Wallonie","ISO3166-2-lvl4":"BE-WAL","country":"België / Belgique / Belgien","country_code":"be"},"population":92721,"osm_type":"relation","osm_id":1949374,"type":"administrative","location":[3.951958,50.4549568],"bbox":[3.854493,50.3777076,4.0851725,50.5138183]},{"name":"Mons","display_name":"Mons, Hainaut, Wallonie, 7000, België / Belgique / Belgien","address":{"city_district":"Mons","city":"Mons","county":"Mons","state":"Hainaut","ISO3166-2-lvl6":"BE-WHT","region":"Wallonie","ISO3166-2-lvl4":"BE-WAL","postcode":"7000","country":"België / Belgique / Belgien","country_code":"be"},"osm_type":"relation","osm_id":16537781,"type":"administrative","location":[3.9671304642288954,50.4551647],"bbox":[3.9263013,50.4318513,4.0069605,50.4782095]}]}
{"name":"Namur","other_names":{"name:ar":"نامور","name:de":"Namur","name:en":"Namur","name:eo":"Namuro","name:es":"Namur","name:fr":"Namur","name:hi":"नमूर","name:it":"Namur","name:la":"Namurcum","name:lb":"Namouer","name:lt":"Namiūras","name:mk":"Намир","name:ml":"നമൂർ","name:nl":"Namen","name:ru":"Намюр","name:sr":"Намир","name:uk":"Намюр","name:ur":"نامر","name:wa":"Nameur","name:zh":"那慕爾","name:gcf":"Namir","name:pcd":"Nameur","name:vls":"Noamn","alt_name:ur":"نامن","name:zh-Hans":"那慕尔","name:zh-Hant":"那慕爾"},"display_name":"Namur, Wallonie, 5000, België / Belgique / Belgien","address":{"city":"Namur","county":"Namur","state":"Namur","ISO3166-2-lvl6":"BE-WNA","region":"Wallonie","ISO3166-2-lvl4":"BE-WAL","postcode":"5000","country":"België / Belgique / Belgien","country_code":"be"},"population":113174,"osm_type":"node","osm_id":1765500676,"type":"city","location":[4.8661892,50.4665284],"bbox":[4.7061892,50.3065284,5.0261892,50.6265284],"border":[{"name":"Namur","other_names":{"name:ar":"نامور","name:ca":"Namur","name:de":"Namur","name:en":"Namur","name:eo":"Namuro","name:es":"Namur","name:fr":"Namur","name:hu":"Namur","name:it":"Namur","name:la":"Namurcum","name:lb":"Namouer","name:lt":"Namiūras","name:mk":"Намир","name:nl":"Namen","name:ru":"Намюр","name:sk":"Namursko","name:sr":"Намир","name:uk":"Намюр","name:wa":"Nameur","name:zh":"那慕爾","name:pcd":"Nameur","name:vls":"Noamn","ISO3166-2":"BE-WNA","name:zh-Hans":"那慕尔","name:zh-Hant":"那慕爾","official_name":"Namur","official_name:de":"Namur","official_name:en":"Namur","official_name:fr":"Namur","official_name:nl":"Namen"},"display_name":"Namur, Wallonie, België / Belgique / Belgien","address":{"state":"Namur","ISO3166-2-lvl6":"BE-WNA","region":"Wallonie","ISO3166-2-lvl4":"BE-WAL","country":"België / Belgique / Belgien","country_code":"be"},"osm_type":"relation","osm_id":1311816,"type":"administrative","location":[4.801161997672262,50.21692965],"bbox":[4.2857516,49.7855452,5.4026708,50.6484447]},{"name":"Namur","other_names":{"name:ar":"نامور","name:de":"Namur","name:en":"Namur","name:eo":"Namuro","name:es":"Namur","name:fr":"Namur","name:it":"Namur","name:la":"Namurcum","name:lb":"Namouer","name:lt":"Namiūras","name:mk":"Намир","name:nl":"Namen","name:ru":"Намюр","name:sr":"Намир","name:uk":"Намюр","name:wa":"Nameur","name:zh":"那慕爾","name:pcd":"Nameur","name:vls":"Noamn","name:zh-Hans":"那慕尔","name:zh-Hant":"那慕爾"},"display_name":"Namur, Wallonie, België / Belgique / Belgien","address":{"county":"Namur","state":"Namur","ISO3166-2-lvl6":"BE-WNA","region":"Wallonie","ISO3166-2-lvl4":"BE-WAL","country":"België / Belgique / Belgien","country_code":"be"},"osm_type":"relation","osm_id":1405410,"type":"administrative","location":[4.900091756287818,50.45530145],"bbox":[4.557379,50.2614207,5.2371384,50.6484447]},{"name":"Namur","other_names":{"name:ar":"نامور","name:de":"Namur","name:en":"Namur","name:eo":"Namuro","name:es":"Namur","name:fr":"Namur","name:it":"Namur","name:la":"Namurcum","name:lb":"Namouer","name:lt":"Namiūras","name:mk":"Намир","name:nl":"Namen","name:ru":"Намюр","name:sr":"Намир","name:uk":"Намюр","name:ur":"نامر","name:wa":"Nameur","name:zh":"那慕爾","name:pcd":"Nameur","name:vls":"Noamn","alt_name:ur":"نامن","name:zh-Hans":"那慕尔","name:zh-Hant":"那慕爾","name:hi":"नमूर","name:ml":"നമൂർ","name:gcf":"Namir"},"display_name":"Namur, Wallonie, België / Belgique / Belgien","address":{"city":"Namur","county":"Namur","state":"Namur","ISO3166-2-lvl6":"BE-WNA","region":"Wallonie","ISO3166-2-lvl4":"BE-WAL","country":"België / Belgique / Belgien","country_code":"be"},"population":113174,"osm_type":"relation","osm_id":1405439,"type":"administrative","location":[4.8661892,50.4665284],"bbox":[4.723053,50.3872825,4.9843576,50.5311017]},{"name":"Namur","other_names":{"name:ar":"نامور","name:de":"Namur","name:en":"Namur","name:eo":"Namuro","name:es":"Namur","name:fr":"Namur","name:it":"Namur","name:la":"Namurcum","name:lb":"Namouer","name:lt":"Namiūras","name:mk":"Намир","name:nl":"Namen","name:ru":"Намюр","name:sr":"Намир","name:uk":"Намюр","name:wa":"Nameur","name:zh":"那慕爾","name:pcd":"Nameur","name:vls":"Noamn","name:zh-Hans":"那慕尔","name:zh-Hant":"那慕爾"},"display_name":"Namur, Wallonie, 5000, België / Belgique / Belgien","address":{"city_district":"Namur","city":"Namur","county":"Namur","state":"Namur","ISO3166-2-lvl6":"BE-WNA","region":"Wallonie","ISO3166-2-lvl4":"BE-WAL","postcode":"5000","country":"België / Belgique / Belgien","country_code":"be"},"osm_type":"relation","osm_id":1701297,"type":"administrative","location":[4.849782469386653,50.45724185],"bbox":[4.8307218,50.4353622,4.9018176,50.4788755]}]}
{"name":"Oostende","other_names":{"name:de":"Ostende","name:en":"Ostend","name:es":"Ostende","name:fr":"Ostende","name:ga":"Ostainn","name:he":"אוסטנדה","name:it":"Ostenda","name:la":"Ostenda","name:lt":"Ostendė","name:nl":"Oostende","name:pl":"Ostenda","name:ru":"Остенде","name:uk":"Остенде","name:ur":"اوسٹینڈے","name:wa":"Ostinde","name:gcf":"Ostand","name:vls":"Ostende","name:zh-Hans":"奥斯坦德","name:zh-Hant":"奧斯坦德"},"display_name":"Oostende, West-Vlaanderen, Vlaanderen, België / Belgique / Belgien","address":{"city":"Oostende","county":"Oostende","state":"West-Vlaanderen","ISO3166-2-lvl6":"BE-VWV","region":"Vlaanderen","ISO3166-2-lvl4":"BE-VLG","country":"België / Belgique / Belgien","country_code":"be"},"population":71647,"osm_type":"node","osm_id":1651555409,"type":"city","location":[2.919496,51.2258565],"bbox":[2.759496,51.0658565,3.079496,51.3858565],"border":[{"name":"Oostende","other_names":{"name:da":"Ostende","name:de":"Ostende","name:en":"Ostend","name:fr":"Ostende","name:nl":"Oostende","name:ru":"Остенде","name:wa":"Ostinde","name:vls":"Ostende","official_name":"Arrondissement Oostende","official_name:nl":"Arrondissement Oostende"},"display_name":"Oostende, West-Vlaanderen, Vlaanderen, België / Belgique / Belgien","address":{"county":"Oostende","state":"West-Vlaanderen","ISO3166-2-lvl6":"BE-VWV","region":"Vlaanderen","ISO3166-2-lvl4":"BE-VLG","country":"België / Belgique / Belgien","country_code":"be"},"osm_type":"relation","osm_id":2239593,"type":"administrative","location":[2.921388482791199,51.184683899999996],"bbox":[2.7461155,51.0548719,3.1153023,51.3146054]},{"name":"Oostende","other_names":{"name:da":"Ostende","name:en":"Ostend","name:fr":"Ostende","name:la":"Ostenda","name:nl":"Oostende","name:ru":"Остенде","name:ur":"اوسٹینڈے","name:wa":"Ostinde","name:vls":"Ostende","name:de":"Ostende","name:es":"Ostende","name:ga":"Ostainn","name:he":"אוסטנדה","name:it":"Ostenda","name:lt":"Ostendė","name:pl":"Ostenda","name:uk":"Остенде","name:gcf":"Ostand","name:zh-Hans":"奥斯坦德","name:zh-Hant":"奧斯坦德"},"display_name":"Oostende, West-Vlaanderen, Vlaanderen, 8400, België / Belgique / Belgien","address":{"city":"Oostende","county":"Oostende","state":"West-Vlaanderen","ISO3166-2-lvl6":"BE-VWV","region":"Vlaanderen","ISO3166-2-lvl4":"BE-VLG","postcode":"8400","country":"België / Belgique / Belgien","country_code":"be"},"population":70600,"osm_type":"relation","osm_id":1292909,"type":"administrative","location":[2.919496,51.2258565],"bbox":[2.8384559,51.1845884,3.004316,51.2460739]},{"name":"Oostende","other_names":{"name:da":"Ostende","name:en":"Ostend","name:fr":"Ostende","name:la":"Ostenda","name:nl":"Oostende","name:wa":"Ostinde","name:vls":"Ostende"},"display_name":"Oostende, West-Vlaanderen, Vlaanderen, 8400, België / Belgique / Belgien","address":{"city_district":"Oostende","city":"Oostende","county":"Oostende","state":"West-Vlaanderen","ISO3166-2-lvl6":"BE-VWV","region":"Vlaanderen","ISO3166-2-lvl4":"BE-VLG","postcode":"8400","country":"België / Belgique / Belgien","country_code":"be"},"osm_type":"relation","osm_id":2247921,"type":"administrative","location":[2.8985004261732668,51.2154673],"bbox":[2.8384559,51.1845884,2.9700733,51.2460739]}]}
{"name":"Tournai","other_names":{"name:fr":"Tournai","name:la":"Turnacum","name:ml":"ടുർനേ","name:nl":"Doornik","name:ru":"Турне","name:uk":"Турне","name:ur":"تورنے","name:wa":"Tornè","alt_name":"La ville aux cinq clochers","name:pcd":"Tornai","name:vls":"Dôornik","alt_name:la":"Turnaco","old_name:de":"Dornick","name:zh-Hans":"图尔奈","name:zh-Hant":"圖爾奈"},"display_name":"Tournai, Tournai-Mouscron, Hainaut, Wallonie, 7500, België / Belgique / Belgien","address":{"city":"Tournai","county":"Tournai-Mouscron","state":"Hainaut","ISO3166-2-lvl6":"BE-WHT","region":"Wallonie","ISO3166-2-lvl4":"BE-WAL","postcode":"7500","country":"België / Belgique / Belgien","country_code":"be"},"population":69842,"osm_type":"node","osm_id":36162975,"type":"city","location":[3.3878179,50.6056458],"bbox":[3.2278179,50.4456458,3.5478179,50.7656458],"border":[{"name":"Tournai-Mouscron","other_names":{"name:fr":"Tournai-Mouscron","name:nl":"Doornik-Moeskroen","name:ru":"Турне-Мускрон","old_name:de":"Dornick"},"display_name":"Tournai-Mouscron, Hainaut, Wallonie, België / Belgique / Belgien","address":{"county":"Tournai-Mouscron","state":"Hainaut","ISO3166-2-lvl6":"BE-WHT","region":"Wallonie","ISO3166-2-lvl4":"BE-WAL","country":"België / Belgique / Belgien","country_code":"be"},"osm_type":"relation","osm_id":2198998,"type":"administrative","location":[3.4072178608493124,50.62901975],"bbox":[2.8420347,50.4867209,3.7137634,50.810795]},{"name":"Tournai","other_names":{"name:fr":"Tournai","name:la":"Turnacum","name:nl":"Doornik","name:ru":"Турне","name:ur":"تورنے","name:vls":"Dôornik","alt_name:la":"Turnaco","old_name:de":"Dornick","name:ml":"ടുർനേ","name:uk":"Турне","name:wa":"Tornè","alt_name":"La ville aux cinq clochers","name:pcd":"Tornai","name:zh-Hans":"图尔奈","name:zh-Hant":"圖爾奈"},"display_name":"Tournai, Tournai-Mouscron, Hainaut, Wallonie, België / Belgique / Belgien","address":{"city":"Tournai","county":"Tournai-Mouscron","state":"Hainaut","ISO3166-2-lvl6":"BE-WHT","region":"Wallonie","ISO3166-2-lvl4":"BE-WAL","country":"België / Belgique / Belgien","country_code":"be"},"population":69842,"osm_type":"relation","osm_id":2162970,"type":"administrative","location":[3.3878179,50.6056458],"bbox":[3.2440216,50.5524719,3.5768853,50.6887794]},{"name":"Tournai","other_names":{"name:de":"Dornick","name:fr":"Tournai","name:la":"Turnacum","name:nl":"Doornik","name:ru":"Турне","name:wa":"Tornè","alt_name":"La ville aux cinq clochers","name:pcd":"Tornai","name:vls":"Dôornik","alt_name:la":"Turnaco","old_name:de":"Dornick","name:zh-Hans":"图尔奈","name:zh-Hant":"圖爾奈"},"display_name":"Tournai, Tournai-Mouscron, Hainaut, Wallonie, 7500, België / Belgique / Belgien","address":{"city_district":"Tournai","city":"Tournai","county":"Tournai-Mouscron","state":"Hainaut","ISO3166-2-lvl6":"BE-WHT","region":"Wallonie","ISO3166-2-lvl4":"BE-WAL","postcode":"7500","country":"België / Belgique / Belgien","country_code":"be"},"osm_type":"relation","osm_id":12414699,"type":"administrative","location":[3.3962967268920368,50.604441949999995],"bbox":[3.3461758,50.5825435,3.4398957,50.6261277]}]}
