{"name":"Albula/Alvra","other_names":{"name:de":"Albula","name:rm":"Alvra"},"display_name":"Albula/Alvra, Albula, Graubünden/Grischun/Grigioni, 7450, Schweiz/Suisse/Svizzera/Svizra","address":{"city":"Albula/Alvra","county":"Albula","state":"Graubünden/Grischun/Grigioni","ISO3166-2-lvl4":"CH-GR","postcode":"7450","country":"Schweiz/Suisse/Svizzera/Svizra","country_code":"ch"},"population":1331,"osm_type":"relation","osm_id":4449887,"type":"administrative","location":[9.62906681940321,46.6902195],"bbox":[9.4888241,46.616325,9.6917636,46.7643491],"inferred_type":"city"}
{"name":"Arbedo-Castione","display_name":"Arbedo-Castione, Circolo di Arbedo-Castione, Distretto di Bellinzona, Ticino, 6517, Schweiz/Suisse/Svizzera/Svizra","address":{"city":"Arbedo-Castione","municipality":"Circolo di Arbedo-Castione","county":"Distretto di Bellinzona","state":"Ticino","ISO3166-2-lvl4":"CH-TI","postcode":"6517","country":"Schweiz/Suisse/Svizzera/Svizra","country_code":"ch"},"population":4576,"osm_type":"relation","osm_id":1684616,"type":"administrative","location":[9.071217516079448,46.20747145],"bbox":[9.029831,46.1769894,9.1393462,46.2395012],"inferred_type":"city"}
{"name":"Avers","other_names":{"name:rm":"Avras","alt_name":"Avers GR","official_name":"Gemeinde Avers"},"display_name":"Avers, Viamala, Graubünden/Grischun/Grigioni, Schweiz/Suisse/Svizzera/Svizra","address":{"city":"Avers","county":"Viamala","state":"Graubünden/Grischun/Grigioni","ISO3166-2-lvl4":"CH-GR","country":"Schweiz/Suisse/Svizzera/Svizra","country_code":"ch"},"osm_type":"relation","osm_id":1684043,"type":"administrative","location":[9.532904854002343,46.44462285],"bbox":[9.4544528,46.3818454,9.612501,46.5079216],"inferred_type":"city"}
{"name":"Ayent","display_name":"Ayent, Hérens, Valais/Wallis, 1966, Schweiz/Suisse/Svizzera/Svizra","address":{"city":"Ayent","county":"Hérens","state":"Valais/Wallis","ISO3166-2-lvl4":"CH-VS","postcode":"1966","country":"Schweiz/Suisse/Svizzera/Svizra","country_code":"ch"},"population":3999,"osm_type":"relation","osm_id":1685270,"type":"administrative","location":[7.416642296150059,46.3190236],"bbox":[7.3577353,46.252212,7.4621432,46.3861677],"inferred_type":"city"}
{"name":"Bas-Intyamon","display_name":"Bas-Intyamon, District de la Gruyère, Fribourg/Freiburg, Schweiz/Suisse/Svizzera/Svizra","address":{"city":"Bas-Intyamon","county":"District de la Gruyère","state":"Fribourg/Freiburg","ISO3166-2-lvl4":"CH-FR","country":"Schweiz/Suisse/Svizzera/Svizra","country_code":"ch"},"population":1242,"osm_type":"relation","osm_id":1683272,"type":"administrative","location":[7.096653106496181,46.56277255],"bbox":[7.0341706,46.534361,7.1668606,46.5909725],"inferred_type":"city"}
{"name":"Basel","other_names":{"name:ar":"بازل","name:be":"Базэль","name:ca":"Basilea","name:cs":"Basilej","name:de":"Basel","name:en":"Basel","name:es":"Basilea","name:fr":"Bâle","name:hu":"Bázel","name:it":"Basilea","name:la":"Basilea","name:ml":"ബാസൽ","name:nl":"Bazel","name:pl":"Bazylea","name:ru":"Базель","name:sk":"Bazilej","name:sr":"Базел","name:uk":"Базель","name:zh":"巴塞尔","name:gsw":"Basel","name:zh-Hans":"巴塞尔","name:zh-Hant":"巴塞爾"},"display_name":"Basel, Basel-Stadt, Schweiz/Suisse/Svizzera/Svizra","address":{"city":"Basel","state":"Basel-Stadt","ISO3166-2-lvl4":"CH-BS","country":"Schweiz/Suisse/Svizzera/Svizra","country_code":"ch"},"population":174491,"osm_type":"node","osm_id":27284711,"type":"city","location":[7.5878261,47.5581077],"bbox":[7.4278261,47.3981077,7.7478261,47.7181077],"border":{"name":"Basel","other_names":{"name:az":"Bazel","name:ca":"Basilea","name:el":"Βασιλεία","name:eo":"Bazelo","name:es":"Basilea","name:fr":"Bâle","name:hu":"Bázel","name:lt":"Bazelis","name:nl":"Bazel","name:pl":"Bazylea","name:pt":"Basileia","name:sl":"Bazileja","name:zh":"巴塞尔","name:ar":"بازل","name:be":"Базэль","name:cs":"Basilej","name:de":"Basel","name:en":"Basel","name:it":"Basilea","name:la":"Basilea","name:ml":"ബാസൽ","name:ru":"Базель","name:sk":"Bazilej","name:sr":"Базел","name:uk":"Базель","name:gsw":"Basel","name:zh-Hans":"巴塞尔","name:zh-Hant":"巴塞爾"},"display_name":"Basel, Basel-Stadt, Schweiz/Suisse/Svizzera/Svizra","address":{"city":"Basel","state":"Basel-Stadt","ISO3166-2-lvl4":"CH-BS","country":"Schweiz/Suisse/Svizzera/Svizra","country_code":"ch"},"population":174491,"osm_type":"relation","osm_id":1683619,"type":"administrative","location":[7.5878261,47.5581077],"bbox":[7.5546608,47.519294,7.6341406,47.5898969]}}
{"name":"Belmont-Broye","display_name":"Belmont-Broye, District de la Broye, Fribourg/Freiburg, Schweiz/Suisse/Svizzera/Svizra","address":{"city":"Belmont-Broye","county":"District de la Broye","state":"Fribourg/Freiburg","ISO3166-2-lvl4":"CH-FR","country":"Schweiz/Suisse/Svizzera/Svizra","country_code":"ch"},"population":5106,"osm_type":"relation","osm_id":5817631,"type":"administrative","location":[7.005465545379701,46.8485832],"bbox":[6.9769452,46.8165743,7.0555386,46.8807753],"inferred_type":"city"}
{"name":"Bern","other_names":{"name:am":"ቤርን","name:an":"Berna","name:ar":"برن","name:av":"Берн","name:ba":"Берн","name:be":"Берн","name:bg":"Берн","name:bn":"বের্ন","name:bo":"པེར་ནེ།","name:br":"Bern","name:ca":"Berna","name:ce":"Берн","name:cs":"Bern","name:cu":"Бєрнъ","name:cv":"Берн","name:de":"Bern","name:el":"Βέρνη","name:en":"Bern","name:eo":"Berno","name:es":"Berna","name:eu":"Berna","name:fa":"برن","name:fi":"Bern","name:fr":"Berne","name:fy":"Bern","name:ga":"Beirn","name:gd":"Berne","name:gl":"Berna - Bern","name:gv":"Berne","name:he":"ברן","name:hi":"बर्न","name:ht":"Bèn","name:hu":"Bern","name:hy":"Բեռն","name:ia":"Berna","name:is":"Bern","name:it":"Berna","name:ja":"ベルン","name:ka":"ბერნი","name:kk":"Берн","name:kn":"ಬೇರ್ನ್","name:ko":"베른","name:ks":"برن","name:ku":"Bern","name:la":"Berna","name:lt":"Bernas","name:lv":"Berne","name:mg":"Berna","name:mk":"Берн","name:ml":"ബേൺ","name:mn":"Берн","name:mr":"बर्न","name:ne":"बेर्न","name:nl":"Bern","name:no":"Bern","name:nv":"Nashkaadii Bighan","name:oc":"Bèrna","name:os":"Берн","name:pa":"ਬਰਨ","name:pl":"Berno","name:ps":"برن","name:pt":"Berna","name:rm":"Berna","name:ro":"Berna","name:ru":"Берн","name:sc":"Berna","name:sd":"برن","name:sk":"Bern","name:sl":"Berna","name:sq":"Berna","name:sr":"Берн","name:sv":"Bern","name:ta":"பேர்ன்","name:tg":"Берн","name:th":"เบิร์น","name:tr":"Bern","name:tt":"Берн","name:ug":"بېرن","name:uk":"Берн","name:ur":"برن","name:yi":"בערן","name:yo":"Berne","name:zh":"伯尔尼 / 伯恩 / 伯爾尼","loc_name":"Bärn","name:arc":"ܒܪܢ","name:arz":"بيرن","name:ast":"Berna","name:azb":"برن","name:ckb":"بێرن","name:ext":"Berna","name:frp":"Bèrna","name:fur":"Berna","name:gsw":"Bärn","name:ilo":"Berna","name:kmr":"بەرن","name:lij":"Berna","name:lmo":"Berna","name:lrc":"برن","name:lzh":"伯恩","name:nah":"Berna","name:nds":"Bern","name:ota":"برن","name:pdc":"Bann","name:pms":"Berna","name:pnb":"برن","name:sah":"Берн","name:scn":"Berna","name:tpi":"Berne","name:udm":"Берн","name:vec":"Berna","name:wuu":"办合纳","name:xmf":"ბერნი","name:yue":"伯恩","name:kk-Arab":"بەرن","name:ku-Arab":"بەرن","name:zh-Hans":"伯尔尼","name:zh-Hant":"伯恩 / 伯爾尼","name:kab-Arab":"بيرن","name:be-tarask":"Бэрн","name:zh-Hant-HK":"伯爾尼","name:zh-Hant-TW":"伯恩"},"display_name":"Bern, Verwaltungskreis Bern-Mittelland, Verwaltungsregion Bern-Mittelland, Bern/Berne, Schweiz/Suisse/Svizzera/Svizra","address":{"city":"Bern","county":"Verwaltungskreis Bern-Mittelland","state_district":"Verwaltungsregion Bern-Mittelland","state":"Bern/Berne","ISO3166-2-lvl4":"CH-BE","country":"Schweiz/Suisse/Svizzera/Svizra","country_code":"ch"},"population":128848,"osm_type":"node","osm_id":18477455,"type":"city","location":[7.4521749,46.9484742],"bbox":[7.2921749,46.7884742,7.6121749,47.1084742],"border":{"name":"Bern","other_names":{"name:ar":"برن","name:ca":"Berna","name:es":"Berna","name:fa":"برن","name:fr":"Berne","name:ja":"ベルン","name:ks":"برن","name:ps":"برن","name:ug":"بېرن","name:ur":"برن","name:azb":"برن","name:ckb":"بێرن","name:kmr":"بەرن","name:lrc":"برن","name:ota":"برن","name:pnb":"برن","name:kk-Arab":"بەرن","name:ku-Arab":"بەرن","name:kab-Arab":"بيرن","name:am":"ቤርን","name:an":"Berna","name:av":"Берн","name:ba":"Берн","name:be":"Берн","name:bg":"Берн","name:bn":"বের্ন","name:bo":"པེར་ནེ།","name:br":"Bern","name:ce":"Берн","name:cs":"Bern","name:cu":"Бєрнъ","name:cv":"Берн","name:de":"Bern","name:el":"Βέρνη","name:en":"Bern","name:eo":"Berno","name:eu":"Berna","name:fi":"Bern","name:fy":"Bern","name:ga":"Beirn","name:gd":"Berne","name:gl":"Berna - Bern","name:gv":"Berne","name:he":"ברן","name:hi":"बर्न","name:ht":"Bèn","name:hu":"Bern","name:hy":"Բեռն","name:ia":"Berna","name:is":"Bern","name:it":"Berna","name:ka":"ბერნი","name:kk":"Берн","name:kn":"ಬೇರ್ನ್","name:ko":"베른","name:ku":"Bern","name:la":"Berna","name:lt":"Bernas","name:lv":"Berne","name:mg":"Berna","name:mk":"Берн","name:ml":"ബേൺ","name:mn":"Берн","name:mr":"बर्न","name:ne":"बेर्न","name:nl":"Bern","name:no":"Bern","name:nv":"Nashkaadii Bighan","name:oc":"Bèrna","name:os":"Берн","name:pa":"ਬਰਨ","name:pl":"Berno","name:pt":"Berna","name:rm":"Berna","name:ro":"Berna","name:ru":"Берн","name:sc":"Berna","name:sd":"برن","name:sk":"Bern","name:sl":"Berna","name:sq":"Berna","name:sr":"Берн","name:sv":"Bern","name:ta":"பேர்ன்","name:tg":"Берн","name:th":"เบิร์น","name:tr":"Bern","name:tt":"Берн","name:uk":"Берн","name:yi":"בערן","name:yo":"Berne","name:zh":"伯尔尼 / 伯恩 / 伯爾尼","loc_name":"Bärn","name:arc":"ܒܪܢ","name:arz":"بيرن","name:ast":"Berna","name:ext":"Berna","name:frp":"Bèrna","name:fur":"Berna","name:gsw":"Bärn","name:ilo":"Berna","name:lij":"Berna","name:lmo":"Berna","name:lzh":"伯恩","name:nah":"Berna","name:nds":"Bern","name:pdc":"Bann","name:pms":"Berna","name:sah":"Берн","name:scn":"Berna","name:tpi":"Berne","name:udm":"Берн","name:vec":"Berna","name:wuu":"办合纳","name:xmf":"ბერნი","name:yue":"伯恩","name:zh-Hans":"伯尔尼","name:zh-Hant":"伯恩 / 伯爾尼","name:be-tarask":"Бэрн","name:zh-Hant-HK":"伯爾尼","name:zh-Hant-TW":"伯恩"},"display_name":"Bern, Verwaltungskreis Bern-Mittelland, Verwaltungsregion Bern-Mittelland, Bern/Berne, Schweiz/Suisse/Svizzera/Svizra","address":{"city":"Bern","county":"Verwaltungskreis Bern-Mittelland","state_district":"Verwaltungsregion Bern-Mittelland","state":"Bern/Berne","ISO3166-2-lvl4":"CH-BE","country":"Schweiz/Suisse/Svizzera/Svizra","country_code":"ch"},"population":128848,"osm_type":"relation","osm_id":1682378,"type":"administrative","location":[7.4521749,46.9484742],"bbox":[7.2943145,46.9190326,7.4955563,46.9901527]}}
{"name":"Bichelsee-Balterswil","other_names":{"name:gsw":"Bichelsee-Balterschwil"},"display_name":"Bichelsee-Balterswil, Bezirk Münchwilen, Thurgau, Schweiz/Suisse/Svizzera/Svizra","address":{"city":"Bichelsee-Balterswil","county":"Bezirk Münchwilen","state":"Thurgau","ISO3166-2-lvl4":"CH-TG","country":"Schweiz/Suisse/Svizzera/Svizra","country_code":"ch"},"population":2277,"osm_type":"relation","osm_id":1684505,"type":"administrative","location":[8.926625728858804,47.4520749],"bbox":[8.8942591,47.4281936,8.9525242,47.4739611],"inferred_type":"city"}
{"name":"Bielersee (BE)","other_names":{"name:de":"Bielersee (BE)","name:en":"Lake Bienne (BE)","name:fr":"Lac de Bienne (BE)","name:it":"Lago di Bienne (BE)"},"display_name":"Bielersee (BE), Verwaltungsregion Seeland, Bern/Berne, Schweiz/Suisse/Svizzera/Svizra","address":{"city":"Bielersee (BE)","state_district":"Verwaltungsregion Seeland","state":"Bern/Berne","ISO3166-2-lvl4":"CH-BE","country":"Schweiz/Suisse/Svizzera/Svizra","country_code":"ch"},"osm_type":"relation","osm_id":1682381,"type":"administrative","location":[7.169593988081546,47.08441535],"bbox":[7.0770275,47.0389912,7.2309638,47.1299165],"inferred_type":"city"}
{"name":"Bourg-en-Lavaux","display_name":"Bourg-en-Lavaux, District de Lavaux-Oron, Vaud, Schweiz/Suisse/Svizzera/Svizra","address":{"city":"Bourg-en-Lavaux","county":"District de Lavaux-Oron","state":"Vaud","ISO3166-2-lvl4":"CH-VD","country":"Schweiz/Suisse/Svizzera/Svizra","country_code":"ch"},"population":5189,"osm_type":"relation","osm_id":373404,"type":"administrative","location":[6.718555877309225,46.470014500000005],"bbox":[6.6862474,46.4442283,6.7557493,46.5216924],"inferred_type":"city"}
{"name":"Breggia","display_name":"Breggia, Circolo di Caneggio, Distretto di Mendrisio, Ticino, 6835, Schweiz/Suisse/Svizzera/Svizra","address":{"city":"Breggia","municipality":"Circolo di Caneggio","county":"Distretto di Mendrisio","state":"Ticino","ISO3166-2-lvl4":"CH-TI","postcode":"6835","country":"Schweiz/Suisse/Svizzera/Svizra","country_code":"ch"},"population":1966,"osm_type":"relation","osm_id":1684634,"type":"administrative","location":[9.059194985075038,45.88979435],"bbox":[9.0139933,45.8522307,9.0890232,45.9273549],"inferred_type":"city"}
{"name":"Brienzersee","other_names":{"name:de":"Brienzersee","name:en":"Lake Brienz","name:fr":"Lac de Brienz","name:it":"Lago di Brienz"},"display_name":"Brienzersee, Verwaltungskreis Interlaken-Oberhasli, Verwaltungsregion Oberland, Bern/Berne, 3855, Schweiz/Suisse/Svizzera/Svizra","address":{"city":"Brienzersee","county":"Verwaltungskreis Interlaken-Oberhasli","state_district":"Verwaltungsregion Oberland","state":"Bern/Berne","ISO3166-2-lvl4":"CH-BE","postcode":"3855","country":"Schweiz/Suisse/Svizzera/Svizra","country_code":"ch"},"osm_type":"relation","osm_id":1682392,"type":"administrative","location":[7.9643028712754536,46.72314805],"bbox":[7.8880218,46.6889469,8.048437,46.7567192],"inferred_type":"city"}
{"name":"Buchegg","display_name":"Buchegg, Bezirk Bucheggberg, Amtei Bucheggberg-Wasseramt, Solothurn, 4586, Schweiz/Suisse/Svizzera/Svizra","address":{"city":"Buchegg","municipality":"Bezirk Bucheggberg","county":"Amtei Bucheggberg-Wasseramt","state":"Solothurn","ISO3166-2-lvl4":"CH-SO","postcode":"4586","country":"Schweiz/Suisse/Svizzera/Svizra","country_code":"ch"},"population":2524,"osm_type":"relation","osm_id":3411895,"type":"administrative","location":[7.469369144089253,47.1337526],"bbox":[7.4217922,47.1089438,7.5297508,47.158645],"inferred_type":"city"}
{"name":"Calanca","display_name":"Calanca, Moësa, Graubünden/Grischun/Grigioni, 6543, Schweiz/Suisse/Svizzera/Svizra","address":{"city":"Calanca","county":"Moësa","state":"Graubünden/Grischun/Grigioni","ISO3166-2-lvl4":"CH-GR","postcode":"6543","country":"Schweiz/Suisse/Svizzera/Svizra","country_code":"ch"},"population":187,"osm_type":"relation","osm_id":1684042,"type":"administrative","location":[9.113624966096124,46.3149901],"bbox":[9.0643139,46.2841469,9.162191,46.3451488],"inferred_type":"city"}
{"name":"Clos du Doubs","other_names":{"name:fr-x-fc":"Ciôs-di-Doubs"},"display_name":"Clos du Doubs, District de Porrentruy, Jura, Schweiz/Suisse/Svizzera/Svizra","address":{"city":"Clos du Doubs","county":"District de Porrentruy","state":"Jura","ISO3166-2-lvl4":"CH-JU","country":"Schweiz/Suisse/Svizzera/Svizra","country_code":"ch"},"osm_type":"relation","osm_id":1685583,"type":"administrative","location":[7.120852845318149,47.34930715],"bbox":[7.0341457,47.3132405,7.2131004,47.3854332],"inferred_type":"city"}
{"name":"Delley-Portalban","display_name":"Delley-Portalban, District de la Broye, Fribourg/Freiburg, Schweiz/Suisse/Svizzera/Svizra","address":{"city":"Delley-Portalban","county":"District de la Broye","state":"Fribourg/Freiburg","ISO3166-2-lvl4":"CH-FR","country":"Schweiz/Suisse/Svizzera/Svizra","country_code":"ch"},"population":1066,"osm_type":"relation","osm_id":1683307,"type":"administrative","location":[6.940645424094396,46.9259498],"bbox":[6.9068105,46.8954577,6.9875095,46.9533993],"inferred_type":"city"}
{"name":"Domleschg","display_name":"Domleschg, Viamala, Graubünden/Grischun/Grigioni, Schweiz/Suisse/Svizzera/Svizra","address":{"city":"Domleschg","county":"Viamala","state":"Graubünden/Grischun/Grigioni","ISO3166-2-lvl4":"CH-GR","country":"Schweiz/Suisse/Svizzera/Svizra","country_code":"ch"},"population":1943,"osm_type":"relation","osm_id":4450590,"type":"administrative","location":[9.465634227222978,46.76950135],"bbox":[9.4143537,46.7267036,9.5146643,46.8119943],"inferred_type":"city"}
{"name":"Drei Höfe","display_name":"Drei Höfe, Bezirk Wasseramt, Amtei Bucheggberg-Wasseramt, Solothurn, 4558, Schweiz/Suisse/Svizzera/Svizra","address":{"city":"Drei Höfe","municipality":"Bezirk Wasseramt","county":"Amtei Bucheggberg-Wasseramt","state":"Solothurn","ISO3166-2-lvl4":"CH-SO","postcode":"4558","country":"Schweiz/Suisse/Svizzera/Svizra","country_code":"ch"},"population":745,"osm_type":"relation","osm_id":2744225,"type":"administrative","location":[7.6358074225602035,47.160457050000005],"bbox":[7.6154211,47.1489207,7.6535408,47.1717422],"inferred_type":"city"}
{"name":"Estavayer","other_names":{"name:de":"Estavayer","name:fr":"Estavayer","name:it":"Estavayer"},"display_name":"Estavayer, District de la Broye, Fribourg/Freiburg, Schweiz/Suisse/Svizzera/Svizra","address":{"city":"Estavayer","county":"District de la Broye","state":"Fribourg/Freiburg","ISO3166-2-lvl4":"CH-FR","country":"Schweiz/Suisse/Svizzera/Svizra","country_code":"ch"},"osm_type":"relation","osm_id":6838556,"type":"administrative","location":[6.84564887023321,46.865139],"bbox":[6.7487034,46.7173696,6.9306269,46.9095752],"inferred_type":"city"}
{"name":"Genève","other_names":{"name:af":"Genève","name:am":"ዠኔቭ","name:an":"Chinebra","name:ar":"جنيف","name:av":"Женева","name:az":"Cenevrə","name:ba":"Женева","name:be":"Жэнева","name:bg":"Женева","name:bh":"जेनेवा","name:bn":"জেনেভা","name:bo":"རི་ནོས་ཝ","name:br":"Geneva","name:bs":"Ženeva","name:ca":"Ginebra","name:ce":"Женева","name:co":"Ginevra","name:cs":"Ženeva","name:cv":"Женева","name:cy":"Genefa","name:da":"Geneve","name:de":"Genf","name:el":"Γενεύη","name:en":"Geneva","name:eo":"Ĝenevo","name:es":"Ginebra","name:et":"Genf","name:eu":"Geneva","name:fa":"ژنو","name:fi":"Geneve","name:fj":"Jeneva","name:fr":"Genève","name:fy":"Genève","name:ga":"An Ghinéiv","name:gd":"Sineubha","name:gl":"Xenebra","name:gn":"Ginebra","name:ha":"Geneva","name:he":"ז'נבה","name:hi":"जिनेवा","name:hr":"Ženeva","name:hu":"Genf","name:hy":"Ժնև","name:ia":"Geneva","name:id":"Jenewa","name:ie":"Geneva","name:io":"Genève","name:is":"Genf","name:it":"Ginevra","name:ja":"ジュネーヴ","name:jv":"Jenéwa","name:ka":"ჟენევა","name:ki":"Geneva","name:kk":"Женева","name:kn":"ಜೆನೇವ","name:ko":"제네바","name:ku":"Cenevre","name:kv":"Женева","name:ky":"Женева","name:la":"Genava","name:lb":"Genf","name:li":"Genf","name:ln":"Shnɛ́f","name:lt":"Ženeva","name:lv":"Ženēva","name:mg":"Geneva","name:mk":"Женева","name:ml":"ജനീവ","name:mn":"Женев","name:mr":"जिनिव्हा","name:ms":"Geneva","name:mt":"Ġinevra","name:my":"ဂျနီဗာမြို့","name:ne":"जेनेभा","name:nl":"Genève","name:oc":"Genèva","name:os":"Женевæ","name:pa":"ਜਨੇਵਾ","name:pl":"Genewa","name:ps":"ژینو","name:pt":"Genebra","name:rm":"Genevra","name:ro":"Geneva","name:ru":"Женева","name:sa":"जिनीवा","name:sc":"Ginevra","name:sd":"جنيوا","name:sk":"Ženeva","name:sl":"Ženeva","name:so":"Jineefa","name:sq":"Gjeneva","name:sr":"Женева","name:sw":"Geneva","name:ta":"ஜெனீவா","name:te":"జెనీవా నగరం","name:tg":"Женева","name:th":"เจนีวา","name:tl":"Geneva","name:tr":"Cenevre","name:tt":"Женева","name:ug":"Jenwe","name:uk":"Женева","name:ur":"جنیوا","name:uz":"Jeneva","name:vi":"Genève","name:wa":"Djineve","name:xh":"EGeneva","name:yi":"גענף","name:yo":"Geneva","name:zh":"日內瓦","int_name":"Geneva","name:als":"Genf","name:azb":"ژنو","name:gsw":"Genf","name:pnb":"جنیوا","alt_name:ku":"Jenev","old_name:vi":"Nhật Nội Ngỏa","name:kk-Arab":"جەنەۆا","name:zh-Hans":"日内瓦","name:zh-Hant":"日內瓦","name:zh-Latn-pinyin":"Rìnèiwǎ"},"display_name":"Genève, Schweiz/Suisse/Svizzera/Svizra","address":{"city":"Genève","state":"Genève","ISO3166-2-lvl4":"CH-GE","country":"Schweiz/Suisse/Svizzera/Svizra","country_code":"ch"},"population":191557,"osm_type":"node","osm_id":33622904,"type":"city","location":[6.1466014,46.2017559],"bbox":[5.9866014,46.0417559,6.3066014,46.3617559],"border":{"name":"Genève","other_names":{"name:ar":"جنيف","name:br":"Jeneva","name:ca":"Ginebra","name:de":"Genf","name:el":"Γενεύη","name:en":"Geneva","name:es":"Ginebra","name:fa":"ژنو","name:fr":"Genève","name:gl":"Xenebra","name:hu":"Genf","name:it":"Ginevra","name:pt":"Genebra","name:sd":"جنيوا","name:sk":"Ženeva","name:sl":"Ženeva","name:ur":"جنیوا","name:azb":"ژنو","name:pnb":"جنیوا","name:kk-Arab":"جەنەۆا","name:af":"Genève","name:am":"ዠኔቭ","name:an":"Chinebra","name:av":"Женева","name:az":"Cenevrə","name:ba":"Женева","name:be":"Жэнева","name:bg":"Женева","name:bh":"जेनेवा","name:bn":"জেনেভা","name:bo":"རི་ནོས་ཝ","name:bs":"Ženeva","name:ce":"Женева","name:co":"Ginevra","name:cs":"Ženeva","name:cv":"Женева","name:cy":"Genefa","name:da":"Geneve","name:eo":"Ĝenevo","name:et":"Genf","name:eu":"Geneva","name:fi":"Geneve","name:fj":"Jeneva","name:fy":"Genève","name:ga":"An Ghinéiv","name:gd":"Sineubha","name:gn":"Ginebra","name:ha":"Geneva","name:he":"ז'נבה","name:hi":"जिनेवा","name:hr":"Ženeva","name:hy":"Ժնև","name:ia":"Geneva","name:id":"Jenewa","name:ie":"Geneva","name:io":"Genève","name:is":"Genf","name:ja":"ジュネーヴ","name:jv":"Jenéwa","name:ka":"ჟენევა","name:ki":"Geneva","name:kk":"Женева","name:kn":"ಜೆನೇವ","name:ko":"제네바","name:ku":"Cenevre","name:kv":"Женева","name:ky":"Женева","name:la":"Genava","name:lb":"Genf","name:li":"Genf","name:ln":"Shnɛ́f","name:lt":"Ženeva","name:lv":"Ženēva","name:mg":"Geneva","name:mk":"Женева","name:ml":"ജനീവ","name:mn":"Женев","name:mr":"जिनिव्हा","name:ms":"Geneva","name:mt":"Ġinevra","name:my":"ဂျနီဗာမြို့","name:ne":"जेनेभा","name:nl":"Genève","name:oc":"Genèva","name:os":"Женевæ","name:pa":"ਜਨੇਵਾ","name:pl":"Genewa","name:ps":"ژینو","name:rm":"Genevra","name:ro":"Geneva","name:ru":"Женева","name:sa":"जिनीवा","name:sc":"Ginevra","name:so":"Jineefa","name:sq":"Gjeneva","name:sr":"Женева","name:sw":"Geneva","name:ta":"ஜெனீவா","name:te":"జెనీవా నగరం","name:tg":"Женева","name:th":"เจนีวา","name:tl":"Geneva","name:tr":"Cenevre","name:tt":"Женева","name:ug":"Jenwe","name:uk":"Женева","name:uz":"Jeneva","name:vi":"Genève","name:wa":"Djineve","name:xh":"EGeneva","name:yi":"גענף","name:yo":"Geneva","name:zh":"日內瓦","int_name":"Geneva","name:als":"Genf","name:gsw":"Genf","alt_name:ku":"Jenev","old_name:vi":"Nhật Nội Ngỏa","name:zh-Hans":"日内瓦","name:zh-Hant":"日內瓦","name:zh-Latn-pinyin":"Rìnèiwǎ","alt:br":"Geneva"},"display_name":"Genève, Schweiz/Suisse/Svizzera/Svizra","address":{"city":"Genève","state":"Genève","ISO3166-2-lvl4":"CH-GE","country":"Schweiz/Suisse/Svizzera/Svizra","country_code":"ch"},"population":191557,"osm_type":"relation","osm_id":1685488,"type":"administrative","location":[6.1466014,46.2017559],"bbox":[6.1102411,46.1777724,6.1758527,46.231885]}}
{"name":"Gibloux","display_name":"Gibloux, District de la Sarine, Fribourg/Freiburg, Schweiz/Suisse/Svizzera/Svizra","address":{"city":"Gibloux","county":"District de la Sarine","state":"Fribourg/Freiburg","ISO3166-2-lvl4":"CH-FR","country":"Schweiz/Suisse/Svizzera/Svizra","country_code":"ch"},"population":7139,"osm_type":"relation","osm_id":5817663,"type":"administrative","location":[7.060334821525005,46.7186571],"bbox":[7.0040013,46.6844442,7.1150671,46.752925],"inferred_type":"city"}
{"name":"Glarus Nord","display_name":"Glarus Nord, Glarus, Schweiz/Suisse/Svizzera/Svizra","address":{"city":"Glarus Nord","state":"Glarus","ISO3166-2-lvl4":"CH-GL","country":"Schweiz/Suisse/Svizzera/Svizra","country_code":"ch"},"population":17198,"osm_type":"relation","osm_id":1683140,"type":"administrative","location":[9.079663491860467,47.1066686],"bbox":[8.9480639,47.0391352,9.1920237,47.1739901],"inferred_type":"city"}
{"name":"Illnau-Effretikon","display_name":"Illnau-Effretikon, Bezirk Pfäffikon, Zürich, Schweiz/Suisse/Svizzera/Svizra","address":{"city":"Illnau-Effretikon","county":"Bezirk Pfäffikon","state":"Zürich","ISO3166-2-lvl4":"CH-ZH","country":"Schweiz/Suisse/Svizzera/Svizra","country_code":"ch"},"population":16117,"osm_type":"relation","osm_id":5817371,"type":"administrative","location":[8.715716576799185,47.43142195],"bbox":[8.6708337,47.3937585,8.7742865,47.4688048],"inferred_type":"city"}
{"name":"Jorat-Mézières","display_name":"Jorat-Mézières, District de Lavaux-Oron, Vaud, Schweiz/Suisse/Svizzera/Svizra","address":{"city":"Jorat-Mézières","county":"District de Lavaux-Oron","state":"Vaud","ISO3166-2-lvl4":"CH-VD","country":"Schweiz/Suisse/Svizzera/Svizra","country_code":"ch"},"population":2759,"osm_type":"relation","osm_id":6376490,"type":"administrative","location":[6.7764275151885025,46.596773400000004],"bbox":[6.7487606,46.5743157,6.8012367,46.6194699],"inferred_type":"city"}
{"name":"La Grande-Béroche","display_name":"La Grande-Béroche, Neuchâtel, 2022, Schweiz/Suisse/Svizzera/Svizra","address":{"city":"La Grande-Béroche","state":"Neuchâtel","ISO3166-2-lvl4":"CH-NE","postcode":"2022","country":"Schweiz/Suisse/Svizzera/Svizra","country_code":"ch"},"population":9068,"osm_type":"relation","osm_id":7859091,"type":"administrative","location":[6.757885772135261,46.90897765],"bbox":[6.7167059,46.8678973,6.8396497,46.9500803],"inferred_type":"city"}
{"name":"Lac de Neuchâtel (NE)","other_names":{"name:de":"Neuenburgersee (NE)","name:fr":"Lac de Neuchâtel (NE)","name:lt":"Nešatelio ežeras (NE)"},"display_name":"Lac de Neuchâtel (NE), Neuchâtel, Schweiz/Suisse/Svizzera/Svizra","address":{"city":"Lac de Neuchâtel (NE)","state":"Neuchâtel","ISO3166-2-lvl4":"CH-NE","country":"Schweiz/Suisse/Svizzera/Svizra","country_code":"ch"},"osm_type":"relation","osm_id":1685500,"type":"administrative","location":[6.871405187690694,46.93182145],"bbox":[6.7553255,46.8529608,7.0392933,47.0108809],"inferred_type":"city"}
{"name":"Lausanne","other_names":{"name:ar":"لوزان","name:be":"Лазана","name:ca":"Lausana","name:de":"Lausanne","name:el":"Λωζάνη","name:es":"Lausana","name:fr":"Lausanne","name:it":"Losanna","name:lt":"Lozana","name:ml":"ലോസാൻ","name:pl":"Lozanna","name:ru":"Лозанна","name:sl":"Lozana","name:sr":"Лозана","name:tr":"Lozan","name:uk":"Лозанна","name:zh":"洛桑","name:gsw":"Losan","name:zh-Hans":"洛桑","name:zh-Hant":"洛桑"},"display_name":"Lausanne, District de Lausanne, Vaud, Schweiz/Suisse/Svizzera/Svizra","address":{"city":"Lausanne","county":"District de Lausanne","state":"Vaud","ISO3166-2-lvl4":"CH-VD","country":"Schweiz/Suisse/Svizzera/Svizra","country_code":"ch"},"population":133521,"osm_type":"node","osm_id":35295150,"type":"city","location":[6.6327025,46.5218269],"bbox":[6.4727025,46.3618269,6.7927025,46.6818269],"border":{"name":"Lausanne","other_names":{"name:ar":"لوزان","name:br":"Lozena","name:ca":"Lausana","name:el":"Λωζάνη","name:eo":"Laŭzano","name:ko":"로잔","name:pl":"Lozanna","name:frp":"Losena","name:be":"Лазана","name:de":"Lausanne","name:es":"Lausana","name:fr":"Lausanne","name:it":"Losanna","name:lt":"Lozana","name:ml":"ലോസാൻ","name:ru":"Лозанна","name:sl":"Lozana","name:sr":"Лозана","name:tr":"Lozan","name:uk":"Лозанна","name:zh":"洛桑","name:gsw":"Losan","name:zh-Hans":"洛桑","name:zh-Hant":"洛桑"},"display_name":"Lausanne, District de Lausanne, Vaud, Schweiz/Suisse/Svizzera/Svizra","address":{"city":"Lausanne","county":"District de Lausanne","state":"Vaud","ISO3166-2-lvl4":"CH-VD","country":"Schweiz/Suisse/Svizzera/Svizra","country_code":"ch"},"population":133521,"osm_type":"relation","osm_id":1685018,"type":"administrative","location":[6.6327025,46.5218269],"bbox":[6.5838681,46.4548726,6.7208137,46.6025773]}}
{"name":"Lüterkofen-Ichertswil","display_name":"Lüterkofen-Ichertswil, Bezirk Bucheggberg, Amtei Bucheggberg-Wasseramt, Solothurn, 4571, Schweiz/Suisse/Svizzera/Svizra","address":{"city":"Lüterkofen-Ichertswil","municipality":"Bezirk Bucheggberg","county":"Amtei Bucheggberg-Wasseramt","state":"Solothurn","ISO3166-2-lvl4":"CH-SO","postcode":"4571","country":"Schweiz/Suisse/Svizzera/Svizra","country_code":"ch"},"population":715,"osm_type":"relation","osm_id":1683546,"type":"administrative","location":[7.506116985090555,47.1637839],"bbox":[7.4795947,47.1520428,7.5229262,47.175147],"inferred_type":"city"}
{"name":"Milvignes","display_name":"Milvignes, Neuchâtel, Schweiz/Suisse/Svizzera/Svizra","address":{"city":"Milvignes","state":"Neuchâtel","ISO3166-2-lvl4":"CH-NE","country":"Schweiz/Suisse/Svizzera/Svizra","country_code":"ch"},"population":8998,"osm_type":"relation","osm_id":2758642,"type":"administrative","location":[6.849184536849192,46.96998515],"bbox":[6.8208434,46.9559163,6.8946435,46.9841211],"inferred_type":"city"}
{"name":"Misery-Courtion","display_name":"Misery-Courtion, Seebezirk / District du Lac, Fribourg/Freiburg, 1721, Schweiz/Suisse/Svizzera/Svizra","address":{"city":"Misery-Courtion","county":"Seebezirk / District du Lac","state":"Fribourg/Freiburg","ISO3166-2-lvl4":"CH-FR","postcode":"1721","country":"Schweiz/Suisse/Svizzera/Svizra","country_code":"ch"},"population":1763,"osm_type":"relation","osm_id":1683363,"type":"administrative","location":[7.084385271894843,46.858454050000006],"bbox":[7.0493234,46.8416681,7.1170293,46.8751333],"inferred_type":"city"}
{"name":"Mont-Vully","other_names":{"name:de":"Wistenlach","name:fr":"Mont-Vully"},"display_name":"Mont-Vully, Seebezirk / District du Lac, Fribourg/Freiburg, Schweiz/Suisse/Svizzera/Svizra","address":{"city":"Mont-Vully","county":"Seebezirk / District du Lac","state":"Fribourg/Freiburg","ISO3166-2-lvl4":"CH-FR","country":"Schweiz/Suisse/Svizzera/Svizra","country_code":"ch"},"population":3495,"osm_type":"relation","osm_id":5817420,"type":"administrative","location":[7.087547536280642,46.95481504999999],"bbox":[7.0401636,46.9247089,7.1507075,46.9848983],"inferred_type":"city"}
{"name":"Montagny (FR)","display_name":"Montagny (FR), District de la Broye, Fribourg/Freiburg, Schweiz/Suisse/Svizzera/Svizra","address":{"city":"Montagny (FR)","county":"District de la Broye","state":"Fribourg/Freiburg","ISO3166-2-lvl4":"CH-FR","country":"Schweiz/Suisse/Svizzera/Svizra","country_code":"ch"},"population":1762,"osm_type":"relation","osm_id":1683364,"type":"administrative","location":[6.986444382978725,46.804662300000004],"bbox":[6.9559837,46.7763052,7.0270715,46.8329354],"inferred_type":"city"}
{"name":"Mörel-Filet","display_name":"Mörel-Filet, Östlich Raron, Valais/Wallis, 3983, Schweiz/Suisse/Svizzera/Svizra","address":{"city":"Mörel-Filet","county":"Östlich Raron","state":"Valais/Wallis","ISO3166-2-lvl4":"CH-VS","postcode":"3983","country":"Schweiz/Suisse/Svizzera/Svizra","country_code":"ch"},"population":686,"osm_type":"relation","osm_id":1685343,"type":"administrative","location":[8.049275953642393,46.3494652],"bbox":[8.0270004,46.3258332,8.0927356,46.3727808],"inferred_type":"city"}
{"name":"Obergoms","other_names":{"name:fr":"Conches-les-haut"},"display_name":"Obergoms, Goms, Valais/Wallis, Schweiz/Suisse/Svizzera/Svizra","address":{"city":"Obergoms","county":"Goms","state":"Valais/Wallis","ISO3166-2-lvl4":"CH-VS","country":"Schweiz/Suisse/Svizzera/Svizra","country_code":"ch"},"population":662,"osm_type":"relation","osm_id":1685350,"type":"administrative","location":[8.36323224818803,46.5388107],"bbox":[8.2580618,46.4236184,8.4785622,46.6540503],"inferred_type":"city"}
{"name":"Obersaxen-Mundaun","other_names":{"official_name":"Obersaxen Mundaun"},"display_name":"Obersaxen-Mundaun, Surselva, Graubünden/Grischun/Grigioni, Schweiz/Suisse/Svizzera/Svizra","address":{"city":"Obersaxen-Mundaun","county":"Surselva","state":"Graubünden/Grischun/Grigioni","ISO3166-2-lvl4":"CH-GR","country":"Schweiz/Suisse/Svizzera/Svizra","country_code":"ch"},"population":1146,"osm_type":"relation","osm_id":5817201,"type":"administrative","location":[9.069160133222404,46.723543500000005],"bbox":[9.0101397,46.6748246,9.1906807,46.7723837],"inferred_type":"city"}
{"name":"Ormont-Dessous","display_name":"Ormont-Dessous, District d'Aigle, Vaud, Schweiz/Suisse/Svizzera/Svizra","address":{"city":"Ormont-Dessous","county":"District d'Aigle","state":"Vaud","ISO3166-2-lvl4":"CH-VD","country":"Schweiz/Suisse/Svizzera/Svizra","country_code":"ch"},"population":1075,"osm_type":"relation","osm_id":1685082,"type":"administrative","location":[7.072978949475209,46.374411499999994],"bbox":[7.0117334,46.3231594,7.1377696,46.4269349],"inferred_type":"city"}
{"name":"Ormont-Dessus","display_name":"Ormont-Dessus, District d'Aigle, Vaud, Schweiz/Suisse/Svizzera/Svizra","address":{"city":"Ormont-Dessus","county":"District d'Aigle","state":"Vaud","ISO3166-2-lvl4":"CH-VD","country":"Schweiz/Suisse/Svizzera/Svizra","country_code":"ch"},"population":1307,"osm_type":"relation","osm_id":1685083,"type":"administrative","location":[7.1630702854579456,46.3425781],"bbox":[7.0919069,46.3025182,7.2300053,46.3829334],"inferred_type":"city"}
{"name":"Oron","display_name":"Oron, District de Lavaux-Oron, Vaud, Schweiz/Suisse/Svizzera/Svizra","address":{"city":"Oron","county":"District de Lavaux-Oron","state":"Vaud","ISO3166-2-lvl4":"CH-VD","country":"Schweiz/Suisse/Svizzera/Svizra","country_code":"ch"},"population":6050,"osm_type":"relation","osm_id":1948073,"type":"administrative","location":[6.82736275700439,46.55583515],"bbox":[6.7758835,46.5259647,6.8717061,46.5856653],"inferred_type":"city"}
{"name":"Péry-La Heutte","display_name":"Péry-La Heutte, Arrondissement administratif du Jura bernois, Région administrative du Jura bernois, Bern/Berne, Schweiz/Suisse/Svizzera/Svizra","address":{"city":"Péry-La Heutte","county":"Arrondissement administratif du Jura bernois","state_district":"Région administrative du Jura bernois","state":"Bern/Berne","ISO3166-2-lvl4":"CH-BE","country":"Schweiz/Suisse/Svizzera/Svizra","country_code":"ch"},"population":1919,"osm_type":"relation","osm_id":1682611,"type":"administrative","location":[7.238028528817572,47.1935675],"bbox":[7.198491,47.1698189,7.3204467,47.2175281],"inferred_type":"city"}
{"name":"Petit-Val","display_name":"Petit-Val, Arrondissement administratif du Jura bernois, Région administrative du Jura bernois, Bern/Berne, Schweiz/Suisse/Svizzera/Svizra","address":{"city":"Petit-Val","county":"Arrondissement administratif du Jura bernois","state_district":"Région administrative du Jura bernois","state":"Bern/Berne","ISO3166-2-lvl4":"CH-BE","country":"Schweiz/Suisse/Svizzera/Svizra","country_code":"ch"},"population":411,"osm_type":"relation","osm_id":4449432,"type":"administrative","location":[7.233486351338833,47.2724052],"bbox":[7.1678781,47.2549505,7.2954614,47.2899708],"inferred_type":"city"}
{"name":"Rapperswil-Jona","display_name":"Rapperswil-Jona, Wahlkreis See-Gaster, St. Gallen, Schweiz/Suisse/Svizzera/Svizra","address":{"city":"Rapperswil-Jona","county":"Wahlkreis See-Gaster","state":"St. Gallen","ISO3166-2-lvl4":"CH-SG","country":"Schweiz/Suisse/Svizzera/Svizra","country_code":"ch"},"population":26354,"osm_type":"relation","osm_id":1683921,"type":"administrative","location":[8.859650859230019,47.2298277],"bbox":[8.7956118,47.2081689,8.9191768,47.2515126],"inferred_type":"city"}
{"name":"Rheinwald","other_names":{"alt_name":"Rheinwald GR","official_name":"Gemeinde Rheinwald"},"display_name":"Rheinwald, Viamala, Graubünden/Grischun/Grigioni, Schweiz/Suisse/Svizzera/Svizra","address":{"city":"Rheinwald","county":"Viamala","state":"Graubünden/Grischun/Grigioni","ISO3166-2-lvl4":"CH-GR","country":"Schweiz/Suisse/Svizzera/Svizra","country_code":"ch"},"population":574,"osm_type":"relation","osm_id":9173036,"type":"administrative","location":[9.257837458663197,46.5316928],"bbox":[9.0389633,46.4763071,9.3733083,46.5869622],"inferred_type":"city"}
{"name":"Riviera","other_names":{"name:de":"Riviera","name:en":"Riviera","name:fr":"Riviera","name:it":"Riviera"},"display_name":"Riviera, Circolo della Riviera, Distretto di Riviera, Ticino, Schweiz/Suisse/Svizzera/Svizra","address":{"city":"Riviera","municipality":"Circolo della Riviera","county":"Distretto di Riviera","state":"Ticino","ISO3166-2-lvl4":"CH-TI","country":"Schweiz/Suisse/Svizzera/Svizra","country_code":"ch"},"osm_type":"relation","osm_id":7187847,"type":"administrative","location":[8.98702526133579,46.304568950000004],"bbox":[8.8989703,46.2534769,9.0751063,46.3560753],"inferred_type":"city"}
{"name":"Rüdtligen-Alchenflüh","display_name":"Rüdtligen-Alchenflüh, Verwaltungskreis Emmental, Verwaltungsregion Emmental-Oberaargau, Bern/Berne, 3422, Schweiz/Suisse/Svizzera/Svizra","address":{"city":"Rüdtligen-Alchenflüh","county":"Verwaltungskreis Emmental","state_district":"Verwaltungsregion Emmental-Oberaargau","state":"Bern/Berne","ISO3166-2-lvl4":"CH-BE","postcode":"3422","country":"Schweiz/Suisse/Svizzera/Svizra","country_code":"ch"},"population":2435,"osm_type":"relation","osm_id":1682633,"type":"administrative","location":[7.5696569747561835,47.0844316],"bbox":[7.5537006,47.0729177,7.5848205,47.0958842],"inferred_type":"city"}
{"name":"Surses","display_name":"Surses, Albula, Graubünden/Grischun/Grigioni, Schweiz/Suisse/Svizzera/Svizra","address":{"city":"Surses","county":"Albula","state":"Graubünden/Grischun/Grigioni","ISO3166-2-lvl4":"CH-GR","country":"Schweiz/Suisse/Svizzera/Svizra","country_code":"ch"},"population":2369,"osm_type":"relation","osm_id":5818092,"type":"administrative","location":[9.594715375789418,46.524797250000006],"bbox":[9.4927675,46.4045493,9.7325253,46.6449283],"inferred_type":"city"}
{"name":"Terre di Pedemonte","display_name":"Terre di Pedemonte, Circolo della Melezza, Distretto di Locarno, Ticino, Schweiz/Suisse/Svizzera/Svizra","address":{"city":"Terre di Pedemonte","municipality":"Circolo della Melezza","county":"Distretto di Locarno","state":"Ticino","ISO3166-2-lvl4":"CH-TI","country":"Schweiz/Suisse/Svizzera/Svizra","country_code":"ch"},"population":2618,"osm_type":"relation","osm_id":2888313,"type":"administrative","location":[8.723846817942153,46.191481100000004],"bbox":[8.6908701,46.1781238,8.7566085,46.2054097],"inferred_type":"city"}
{"name":"Thunersee","other_names":{"name:de":"Thunersee","name:en":"Lake Thun","name:fr":"Lac de Thoune","name:it":"Lago di Thun"},"display_name":"Thunersee, Verwaltungsregion Oberland, Bern/Berne, Schweiz/Suisse/Svizzera/Svizra","address":{"city":"Thunersee","state_district":"Verwaltungsregion Oberland","state":"Bern/Berne","ISO3166-2-lvl4":"CH-BE","country":"Schweiz/Suisse/Svizzera/Svizra","country_code":"ch"},"osm_type":"relation","osm_id":1682683,"type":"administrative","location":[7.697997055879873,46.700524],"bbox":[7.6315777,46.6552369,7.8288279,46.7451488],"inferred_type":"city"}
{"name":"Val Müstair","other_names":{"name:de":"Münstertal","name:fr":"Val Müstair","name:rm":"Val Müstair","name:uk":"Валь-Мюштайр"},"display_name":"Val Müstair, Region Engiadina Bassa/Val Müstair, Graubünden/Grischun/Grigioni, Schweiz/Suisse/Svizzera/Svizra","address":{"city":"Val Müstair","county":"Region Engiadina Bassa/Val Müstair","state":"Graubünden/Grischun/Grigioni","ISO3166-2-lvl4":"CH-GR","country":"Schweiz/Suisse/Svizzera/Svizra","country_code":"ch"},"population":1565,"osm_type":"relation","osm_id":1684200,"type":"administrative","location":[10.374507824856005,46.61063325],"bbox":[10.2382742,46.530709,10.4922941,46.6905602],"inferred_type":"city"}
{"name":"Val-de-Charmey","display_name":"Val-de-Charmey, District de la Gruyère, Fribourg/Freiburg, Schweiz/Suisse/Svizzera/Svizra","address":{"city":"Val-de-Charmey","county":"District de la Gruyère","state":"Fribourg/Freiburg","ISO3166-2-lvl4":"CH-FR","country":"Schweiz/Suisse/Svizzera/Svizra","country_code":"ch"},"population":2416,"osm_type":"relation","osm_id":3411331,"type":"administrative","location":[7.197837087739463,46.61839395],"bbox":[7.1328237,46.5268132,7.2867203,46.7100268],"inferred_type":"city"}
{"name":"Valbirse","display_name":"Valbirse, Arrondissement administratif du Jura bernois, Région administrative du Jura bernois, Bern/Berne, Schweiz/Suisse/Svizzera/Svizra","address":{"city":"Valbirse","county":"Arrondissement administratif du Jura bernois","state_district":"Région administrative du Jura bernois","state":"Bern/Berne","ISO3166-2-lvl4":"CH-BE","country":"Schweiz/Suisse/Svizzera/Svizra","country_code":"ch"},"population":4009,"osm_type":"relation","osm_id":4449080,"type":"administrative","location":[7.272459480965157,47.238658599999994],"bbox":[7.2466383,47.2110121,7.2974198,47.2661268],"inferred_type":"city"}
{"name":"Valsot","other_names":{"name:de":"Unteres Tal"},"display_name":"Valsot, Region Engiadina Bassa/Val Müstair, Graubünden/Grischun/Grigioni, Schweiz/Suisse/Svizzera/Svizra","address":{"city":"Valsot","county":"Region Engiadina Bassa/Val Müstair","state":"Graubünden/Grischun/Grigioni","ISO3166-2-lvl4":"CH-GR","country":"Schweiz/Suisse/Svizzera/Svizra","country_code":"ch"},"osm_type":"relation","osm_id":2754686,"type":"administrative","location":[10.40178077312156,46.8724043],"bbox":[10.2257169,46.7882431,10.4893516,46.9563853],"inferred_type":"city"}
{"name":"Vaz/Obervaz","display_name":"Vaz/Obervaz, Albula, Graubünden/Grischun/Grigioni, Schweiz/Suisse/Svizzera/Svizra","address":{"city":"Vaz/Obervaz","county":"Albula","state":"Graubünden/Grischun/Grigioni","ISO3166-2-lvl4":"CH-GR","country":"Schweiz/Suisse/Svizzera/Svizra","country_code":"ch"},"population":2691,"osm_type":"relation","osm_id":1684203,"type":"administrative","location":[9.544287189266644,46.7224925],"bbox":[9.4886498,46.6736182,9.6026207,46.7709599],"inferred_type":"city"}
{"name":"Vully-les-Lacs","display_name":"Vully-les-Lacs, District de la Broye-Vully, Vaud, Schweiz/Suisse/Svizzera/Svizra","address":{"city":"Vully-les-Lacs","county":"District de la Broye-Vully","state":"Vaud","ISO3166-2-lvl4":"CH-VD","country":"Schweiz/Suisse/Svizzera/Svizra","country_code":"ch"},"population":2643,"osm_type":"relation","osm_id":1868690,"type":"administrative","location":[7.014909308184269,46.928003950000004],"bbox":[6.9282011,46.8890365,7.0721752,46.9672255],"inferred_type":"city"}
{"name":"Wildhaus-Alt St. Johann","other_names":{"name:gsw":"Wildhus-Alt Sankt Johann"},"display_name":"Wildhaus-Alt St. Johann, Wahlkreis Toggenburg, St. Gallen, Schweiz/Suisse/Svizzera/Svizra","address":{"city":"Wildhaus-Alt St. Johann","county":"Wahlkreis Toggenburg","state":"St. Gallen","ISO3166-2-lvl4":"CH-SG","country":"Schweiz/Suisse/Svizzera/Svizra","country_code":"ch"},"osm_type":"relation","osm_id":1683966,"type":"administrative","location":[9.31590722723153,47.19723845],"bbox":[9.2192315,47.1447239,9.4019785,47.2496108],"inferred_type":"city"}
{"name":"Winterthur","other_names":{"name:ar":"فينترتور","name:be":"Вінтэртур","name:de":"Winterthur","name:eo":"Vinterturo","name:fr":"Winterthour","name:lt":"Vintertūras","name:ru":"Винтертур","name:sr":"Винтертур","name:uk":"Вінтертур","name:gsw":"Wintertur","name:zh-Hans":"温特图尔","name:zh-Hant":"溫特圖爾"},"display_name":"Winterthur, Bezirk Winterthur, Zürich, Schweiz/Suisse/Svizzera/Svizra","address":{"city":"Winterthur","county":"Bezirk Winterthur","state":"Zürich","ISO3166-2-lvl4":"CH-ZH","country":"Schweiz/Suisse/Svizzera/Svizra","country_code":"ch"},"population":108044,"osm_type":"node","osm_id":1378949424,"type":"city","location":[8.7291498,47.4991723],"bbox":[8.5691498,47.3391723,8.8891498,47.6591723],"border":{"name":"Winterthur","other_names":{"name:ar":"فينترتور","name:be":"Вінтэртур","name:de":"Winterthur","name:eo":"Vinterturo","name:fr":"Winterthour","name:lt":"Vintertūras","name:ru":"Винтертур","name:sr":"Винтертур","name:uk":"Вінтертур","name:gsw":"Wintertur","name:zh-Hans":"温特图尔","name:zh-Hant":"溫特圖爾"},"display_name":"Winterthur, Bezirk Winterthur, Zürich, Schweiz/Suisse/Svizzera/Svizra","address":{"city":"Winterthur","county":"Bezirk Winterthur","state":"Zürich","ISO3166-2-lvl4":"CH-ZH","country":"Schweiz/Suisse/Svizzera/Svizra","country_code":"ch"},"population":108044,"osm_type":"relation","osm_id":1682243,"type":"administrative","location":[8.7291498,47.4991723],"bbox":[8.6566073,47.4497183,8.8099397,47.5480032]}}
{"name":"Zürich","other_names":{"name:af":"Zürich","name:am":"ዙሪክ","name:an":"Zúrich","name:ar":"زيورخ","name:az":"Sürix","name:be":"Цюрых","name:bg":"Цюрих","name:bn":"জুরিখ","name:br":"Zürich","name:bs":"Zürich","name:ca":"Zúric","name:ce":"Цуьрих","name:cs":"Curych","name:cv":"Цюрих","name:cy":"Zürich","name:da":"Zürich","name:de":"Zürich","name:el":"Ζυρίχη","name:en":"Zurich","name:eo":"Zuriko","name:es":"Zúrich","name:et":"Zürich","name:eu":"Zürich","name:fa":"زوریخ","name:fi":"Zürich","name:fj":"Zuriki","name:fr":"Zurich","name:fy":"Zürich","name:ga":"Zürich","name:gd":"Zürich","name:gl":"Zúric","name:he":"ציריך","name:hi":"ज़्यूरिख़","name:hr":"Zürich","name:ht":"Zirik","name:hu":"Zürich","name:hy":"Ցյուրիխ","name:ia":"Zurich","name:id":"Zürich","name:ie":"Zúrich","name:io":"Zürich","name:is":"Zürich","name:it":"Zurigo","name:ja":"チューリッヒ","name:jv":"Zürich","name:ka":"ციურიხი","name:kk":"Цюрих","name:kn":"ಝ್ಯೂರಿಖ್","name:ko":"취리히","name:ku":"Zurîx","name:la":"Turicum","name:lb":"Zürech","name:li":"Zeurich","name:ln":"Tsúri","name:lt":"Ciurichas","name:lv":"Cīrihe","name:mk":"Цирих","name:ml":"സൂറിച്ച്","name:mn":"Цюрих","name:mr":"झ्युरिक","name:ms":"Zürich","name:mt":"Zurich","name:my":"ဇူးရစ်ချ်မြို့","name:na":"Zürich","name:nl":"Zürich","name:nn":"Zürich","name:no":"Zürich","name:oc":"Zuric","name:os":"Цюрих","name:pa":"ਜ਼ਿਊਰਿਖ","name:pl":"Zurych","name:ps":"څوریخ","name:pt":"Zurique","name:qu":"Zürich","name:rm":"Turitg","name:rn":"Zurich","name:ro":"Zürich","name:ru":"Цюрих","name:sh":"Zürich","name:sk":"Zürich","name:sl":"Zürich","name:sq":"Cyrihu","name:sr":"Цирих","name:sv":"Zürich","name:sw":"Zürich","name:ta":"சூரிக்","name:tg":"Тсюрих","name:th":"ซูริก","name:tl":"Zürich","name:tr":"Zürih","name:tt":"Tsürix","name:ug":"سيۇرىخ","name:uk":"Цюрих","name:ur":"زیورخ","name:uz":"Syurix","name:vi":"Zürich","name:vo":"Zürich","name:wo":"Zurich","name:yi":"ציריך","name:yo":"Zürich","name:zh":"蘇黎世","name:als":"Zürich","name:arc":"ܬܣܝܪܝܟ","name:arz":"زوريخ","name:bar":"Zirich","name:frp":"Tsurique","name:frr":"Zürich","name:gsw":"Züri","name:hsb":"Zürich","name:ilo":"Zürich","name:lmo":"Zürigh","name:nah":"Zurich","name:nan":"Zürich","name:nds":"Zürich","name:pdc":"Zurich","name:pfl":"Zirich","name:pms":"Zurigh","name:pnb":"زیورچ","name:scn":"Zurìcu","name:vec":"Zurigo","name:war":"Zürich","name:wuu":"苏黎世","name:yue":"蘇黎世","name:zh-Hans":"苏黎世","name:zh-Hant":"蘇黎世","name:be-tarask":"Цюрых"},"display_name":"Zürich, Bezirk Zürich, Zürich, Schweiz/Suisse/Svizzera/Svizra","address":{"city":"Zürich","county":"Bezirk Zürich","state":"Zürich","ISO3166-2-lvl4":"CH-ZH","country":"Schweiz/Suisse/Svizzera/Svizra","country_code":"ch"},"population":443037,"osm_type":"node","osm_id":240025182,"type":"city","location":[8.5410422,47.3744489],"bbox":[8.3810422,47.2144489,8.7010422,47.5344489],"border":{"name":"Zürich","other_names":{"name:ca":"Zúric","name:de":"Zürich","name:en":"Zurich","name:es":"Zúrich","name:fr":"Zurich","name:it":"Zurigo","name:lt":"Ciūrichas","name:ru":"Цюрих","name:sq":"Cyrihu","name:zh":"蘇黎世","name:zh-Hans":"苏黎世","name:zh-Hant":"蘇黎世","name:af":"Zürich","name:am":"ዙሪክ","name:an":"Zúrich","name:ar":"زيورخ","name:az":"Sürix","name:be":"Цюрых","name:bg":"Цюрих","name:bn":"জুরিখ","name:br":"Zürich","name:bs":"Zürich","name:ce":"Цуьрих","name:cs":"Curych","name:cv":"Цюрих","name:cy":"Zürich","name:da":"Zürich","name:el":"Ζυρίχη","name:eo":"Zuriko","name:et":"Zürich","name:eu":"Zürich","name:fa":"زوریخ","name:fi":"Zürich","name:fj":"Zuriki","name:fy":"Zürich","name:ga":"Zürich","name:gd":"Zürich","name:gl":"Zúric","name:he":"ציריך","name:hi":"ज़्यूरिख़","name:hr":"Zürich","name:ht":"Zirik","name:hu":"Zürich","name:hy":"Ցյուրիխ","name:ia":"Zurich","name:id":"Zürich","name:ie":"Zúrich","name:io":"Zürich","name:is":"Zürich","name:ja":"チューリッヒ","name:jv":"Zürich","name:ka":"ციურიხი","name:kk":"Цюрих","name:kn":"ಝ್ಯೂರಿಖ್","name:ko":"취리히","name:ku":"Zurîx","name:la":"Turicum","name:lb":"Zürech","name:li":"Zeurich","name:ln":"Tsúri","name:lv":"Cīrihe","name:mk":"Цирих","name:ml":"സൂറിച്ച്","name:mn":"Цюрих","name:mr":"झ्युरिक","name:ms":"Zürich","name:mt":"Zurich","name:my":"ဇူးရစ်ချ်မြို့","name:na":"Zürich","name:nl":"Zürich","name:nn":"Zürich","name:no":"Zürich","name:oc":"Zuric","name:os":"Цюрих","name:pa":"ਜ਼ਿਊਰਿਖ","name:pl":"Zurych","name:ps":"څوریخ","name:pt":"Zurique","name:qu":"Zürich","name:rm":"Turitg","name:rn":"Zurich","name:ro":"Zürich","name:sh":"Zürich","name:sk":"Zürich","name:sl":"Zürich","name:sr":"Цирих","name:sv":"Zürich","name:sw":"Zürich","name:ta":"சூரிக்","name:tg":"Тсюрих","name:th":"ซูริก","name:tl":"Zürich","name:tr":"Zürih","name:tt":"Tsürix","name:ug":"سيۇرىخ","name:uk":"Цюрих","name:ur":"زیورخ","name:uz":"Syurix","name:vi":"Zürich","name:vo":"Zürich","name:wo":"Zurich","name:yi":"ציריך","name:yo":"Zürich","name:als":"Zürich","name:arc":"ܬܣܝܪܝܟ","name:arz":"زوريخ","name:bar":"Zirich","name:frp":"Tsurique","name:frr":"Zürich","name:gsw":"Züri","name:hsb":"Zürich","name:ilo":"Zürich","name:lmo":"Zürigh","name:nah":"Zurich","name:nan":"Zürich","name:nds":"Zürich","name:pdc":"Zurich","name:pfl":"Zirich","name:pms":"Zurigh","name:pnb":"زیورچ","name:scn":"Zurìcu","name:vec":"Zurigo","name:war":"Zürich","name:wuu":"苏黎世","name:yue":"蘇黎世","name:be-tarask":"Цюрых","alt:lt":"Ciurichas"},"display_name":"Zürich, Bezirk Zürich, Zürich, Schweiz/Suisse/Svizzera/Svizra","address":{"city":"Zürich","county":"Bezirk Zürich","state":"Zürich","ISO3166-2-lvl4":"CH-ZH","country":"Schweiz/Suisse/Svizzera/Svizra","country_code":"ch"},"population":443037,"osm_type":"relation","osm_id":1682248,"type":"administrative","location":[8.5410422,47.3744489],"bbox":[8.4480061,47.3202187,8.6254413,47.4346662]}}
