{"name":"Acheritou","other_names":{"name:el":"Αχερίτου","name:en":"Acheritou","name:tr":"Aşeridu"},"display_name":"Acheritou, Δήμος Παραλιμνίου - Δερύνειας, Επαρχία Αμμοχώστου, Κύπρος, Κύπρος - Kıbrıs","address":{"city":"Acheritou","county":"Δήμος Παραλιμνίου - Δερύνειας","state_district":"Επαρχία Αμμοχώστου","ISO3166-2-lvl5":"CY-04","state":"Κύπρος","country":"Κύπρος - Kıbrıs","country_code":"cy"},"osm_type":"relation","osm_id":18712691,"type":"administrative","location":[33.88205184352303,35.07097235],"bbox":[33.8216433,35.0638336,33.8913759,35.0812672],"inferred_type":"city"}
{"name":"Achna","other_names":{"name:el":"Άχνα","name:en":"Achna","name:tr":"Ahna"},"display_name":"Achna, Επαρχία Αμμοχώστου, Κύπρος, Κύπρος - Kıbrıs","address":{"city":"Achna","state_district":"Επαρχία Αμμοχώστου","ISO3166-2-lvl5":"CY-04","state":"Κύπρος","country":"Κύπρος - Kıbrıs","country_code":"cy"},"osm_type":"relation","osm_id":18712692,"type":"administrative","location":[33.80572350485221,35.0550922],"bbox":[33.7919827,35.0398999,33.8242221,35.071474],"inferred_type":"city"}
{"name":"Ag. Epifanios Soleas","other_names":{"name:en":"Ag. Epifanios Soleas"},"display_name":"Ag. Epifanios Soleas, Επαρχία Λευκωσίας, Κύπρος, Κύπρος - Kıbrıs","address":{"city":"Ag. Epifanios Soleas","state_district":"Επαρχία Λευκωσίας","ISO3166-2-lvl5":"CY-01","state":"Κύπρος","country":"Κύπρος - Kıbrıs","country_code":"cy"},"osm_type":"relation","osm_id":15022762,"type":"administrative","location":[32.86677078488372,35.061643],"bbox":[32.845259,35.045854,32.884303,35.077436],"inferred_type":"city"}
{"name":"Agia Anna","other_names":{"name:en":"Agia Anna"},"display_name":"Agia Anna, Επαρχία Λάρνακας, Κύπρος, 7641, Κύπρος - Kıbrıs","address":{"city":"Agia Anna","state_district":"Επαρχία Λάρνακας","ISO3166-2-lvl5":"CY-03","state":"Κύπρος","postcode":"7641","country":"Κύπρος - Kıbrıs","country_code":"cy"},"osm_type":"relation","osm_id":15018439,"type":"administrative","location":[33.48971909071093,34.94005315],"bbox":[33.4645543,34.9201833,33.5115338,34.9597064],"inferred_type":"city"}
{"name":"Agia Eirini Lefkosia","other_names":{"name:en":"Agia Eirini Lefkosia"},"display_name":"Agia Eirini Lefkosia, Επαρχία Λευκωσίας, Κύπρος, Κύπρος - Kıbrıs","address":{"city":"Agia Eirini Lefkosia","state_district":"Επαρχία Λευκωσίας","ISO3166-2-lvl5":"CY-01","state":"Κύπρος","country":"Κύπρος - Kıbrıs","country_code":"cy"},"osm_type":"relation","osm_id":15022707,"type":"administrative","location":[32.962376594490216,34.984026],"bbox":[32.949721,34.966044,32.979259,35.002155],"inferred_type":"city"}
{"name":"Agia Marina Xyliatou","other_names":{"name:en":"Agia Marina Xyliatou"},"display_name":"Agia Marina Xyliatou, Επαρχία Λευκωσίας, Κύπρος, Κύπρος - Kıbrıs","address":{"city":"Agia Marina Xyliatou","state_district":"Επαρχία Λευκωσίας","ISO3166-2-lvl5":"CY-01","state":"Κύπρος","country":"Κύπρος - Kıbrıs","country_code":"cy"},"osm_type":"relation","osm_id":15022785,"type":"administrative","location":[33.06504928469148,35.03691],"bbox":[33.030475,34.99163,33.080749,35.082184],"inferred_type":"city"}
{"name":"Agia Varvara","other_names":{"name:en":"Agia Varvara"},"display_name":"Agia Varvara, Επαρχία Λευκωσίας, Κύπρος, 2560, Κύπρος - Kıbrıs","address":{"city":"Agia Varvara","state_district":"Επαρχία Λευκωσίας","ISO3166-2-lvl5":"CY-01","state":"Κύπρος","postcode":"2560","country":"Κύπρος - Kıbrıs","country_code":"cy"},"osm_type":"relation","osm_id":15022786,"type":"administrative","location":[33.36480343128599,35.004105],"bbox":[33.315407,34.953933,33.392367,35.054309],"inferred_type":"city"}
{"name":"Agioi Vavatsinias","other_names":{"name:en":"Agioi Vavatsinias"},"display_name":"Agioi Vavatsinias, Επαρχία Λάρνακας, Κύπρος, Κύπρος - Kıbrıs","address":{"city":"Agioi Vavatsinias","state_district":"Επαρχία Λάρνακας","ISO3166-2-lvl5":"CY-03","state":"Κύπρος","country":"Κύπρος - Kıbrıs","country_code":"cy"},"osm_type":"relation","osm_id":15018467,"type":"administrative","location":[33.191518620785345,34.88952705],"bbox":[33.1679992,34.8641695,33.2214077,34.9149047],"inferred_type":"city"}
{"name":"Agios Amvrosios Lemesou","other_names":{"name:en":"Agios Amvrosios Lemesou"},"display_name":"Agios Amvrosios Lemesou, Επαρχία Λεμεσού, Κύπρος, Κύπρος - Kıbrıs","address":{"city":"Agios Amvrosios Lemesou","state_district":"Επαρχία Λεμεσού","ISO3166-2-lvl5":"CY-02","state":"Κύπρος","country":"Κύπρος - Kıbrıs","country_code":"cy"},"osm_type":"relation","osm_id":14996343,"type":"administrative","location":[32.816661580374216,34.75389505],"bbox":[32.7938352,34.7183441,32.8374045,34.7891438],"inferred_type":"city"}
{"name":"Agios Epifanios","other_names":{"name:en":"Agios Epifanios"},"display_name":"Agios Epifanios, Επαρχία Λευκωσίας, Κύπρος, Κύπρος - Kıbrıs","address":{"city":"Agios Epifanios","state_district":"Επαρχία Λευκωσίας","ISO3166-2-lvl5":"CY-01","state":"Κύπρος","country":"Κύπρος - Kıbrıs","country_code":"cy"},"osm_type":"relation","osm_id":15022716,"type":"administrative","location":[33.11892420987209,34.9993615],"bbox":[33.079372,34.976705,33.147505,35.022077],"inferred_type":"city"}
{"name":"Agios Georgios Lemesou","other_names":{"name:en":"Agios Georgios Lemesou"},"display_name":"Agios Georgios Lemesou, Επαρχία Λεμεσού, Κύπρος, Κύπρος - Kıbrıs","address":{"city":"Agios Georgios Lemesou","state_district":"Επαρχία Λεμεσού","ISO3166-2-lvl5":"CY-02","state":"Κύπρος","country":"Κύπρος - Kıbrıs","country_code":"cy"},"osm_type":"relation","osm_id":14996354,"type":"administrative","location":[32.898634833703795,34.79909035],"bbox":[32.8883927,34.771015,32.9057209,34.827083],"inferred_type":"city"}
{"name":"Agios Georgios","other_names":{"name:en":"Agios Georgios"},"display_name":"Agios Georgios, Επαρχία Λευκωσίας, Κύπρος, Κύπρος - Kıbrıs","address":{"city":"Agios Georgios","state_district":"Επαρχία Λευκωσίας","ISO3166-2-lvl5":"CY-01","state":"Κύπρος","country":"Κύπρος - Kıbrıs","country_code":"cy"},"osm_type":"relation","osm_id":15022721,"type":"administrative","location":[33.0018241242515,35.034219],"bbox":[32.964355,35.00163,33.03075,35.066811],"inferred_type":"city"}
{"name":"Agios Ioannis","other_names":{"name:en":"Agios Ioannis"},"display_name":"Agios Ioannis, Επαρχία Λευκωσίας, Κύπρος, 2611, Κύπρος - Kıbrıs","address":{"city":"Agios Ioannis","state_district":"Επαρχία Λευκωσίας","ISO3166-2-lvl5":"CY-01","state":"Κύπρος","postcode":"2611","country":"Κύπρος - Kıbrıs","country_code":"cy"},"osm_type":"relation","osm_id":15022705,"type":"administrative","location":[33.178120987895156,35.074824],"bbox":[33.138465,35.054036,33.203946,35.09559],"inferred_type":"city"}
{"name":"Agios Ioannis","other_names":{"name:el":"Άγιος Ιωάννης","name:en":"Agios Ioannis","name:tr":"Ayyanni"},"display_name":"Agios Ioannis, Επαρχία Λευκωσίας, Κύπρος, Κύπρος - Kıbrıs","address":{"city":"Agios Ioannis","state_district":"Επαρχία Λευκωσίας","ISO3166-2-lvl5":"CY-01","state":"Κύπρος","country":"Κύπρος - Kıbrıs","country_code":"cy"},"osm_type":"relation","osm_id":15022773,"type":"administrative","location":[32.69673233205359,35.139828],"bbox":[32.685294,35.122503,32.711733,35.157312],"inferred_type":"city"}
{"name":"Agios Theodoros Larn","other_names":{"name:en":"Agios Theodoros Larn"},"display_name":"Agios Theodoros Larn, Επαρχία Λάρνακας, Κύπρος, Κύπρος - Kıbrıs","address":{"city":"Agios Theodoros Larn","state_district":"Επαρχία Λάρνακας","ISO3166-2-lvl5":"CY-03","state":"Κύπρος","country":"Κύπρος - Kıbrıs","country_code":"cy"},"osm_type":"relation","osm_id":15018450,"type":"administrative","location":[33.41929765765125,34.782484249999996],"bbox":[33.3632512,34.7468984,33.4642788,34.8180377],"inferred_type":"city"}
{"name":"Agios Thomas","other_names":{"name:en":"Agios Thomas"},"display_name":"Agios Thomas, Επαρχία Λεμεσού, Κύπρος, Κύπρος - Kıbrıs","address":{"city":"Agios Thomas","state_district":"Επαρχία Λεμεσού","ISO3166-2-lvl5":"CY-02","state":"Κύπρος","country":"Κύπρος - Kıbrıs","country_code":"cy"},"osm_type":"relation","osm_id":14996366,"type":"administrative","location":[32.730583948231356,34.709531999999996],"bbox":[32.7173588,34.6936973,32.7440026,34.7253088],"inferred_type":"city"}
{"name":"Aglangia","other_names":{"name:el":"Αγλαντζιά","name:en":"Aglangia"},"display_name":"Aglangia, Λευκωσία - Lefkoşa, Δήμος Λευκωσίας, Επαρχία Λευκωσίας, Κύπρος, Κύπρος - Kıbrıs","address":{"city":"Aglangia","municipality":"Λευκωσία - Lefkoşa","county":"Δήμος Λευκωσίας","state_district":"Επαρχία Λευκωσίας","ISO3166-2-lvl5":"CY-01","state":"Κύπρος","country":"Κύπρος - Kıbrıs","country_code":"cy"},"osm_type":"relation","osm_id":15022747,"type":"administrative","location":[33.40347629731992,35.1435501],"bbox":[33.3724909,35.120785,33.4409778,35.1655398],"inferred_type":"city"}
{"name":"Ammadies","other_names":{"name:el":"Αμμαδιές","name:en":"Ammadies","name:tr":"Ammadies"},"display_name":"Ammadies, Επαρχία Λευκωσίας, Κύπρος, Κύπρος - Kıbrıs","address":{"city":"Ammadies","state_district":"Επαρχία Λευκωσίας","ISO3166-2-lvl5":"CY-01","state":"Κύπρος","country":"Κύπρος - Kıbrıs","country_code":"cy"},"osm_type":"relation","osm_id":18711558,"type":"administrative","location":[32.7040142793911,35.16891175],"bbox":[32.7002317,35.153951,32.7101173,35.1846294],"inferred_type":"city"}
{"name":"Ampelikou","other_names":{"name:el":"Αμπελικού","name:en":"Ampelikou","name:tr":"Ambeligu"},"display_name":"Ampelikou, Επαρχία Λευκωσίας, Κύπρος, Κύπρος - Kıbrıs","address":{"city":"Ampelikou","state_district":"Επαρχία Λευκωσίας","ISO3166-2-lvl5":"CY-01","state":"Κύπρος","country":"Κύπρος - Kıbrıs","country_code":"cy"},"osm_type":"relation","osm_id":18711557,"type":"administrative","location":[32.79506796908853,35.092116000000004],"bbox":[32.770197,35.067698,32.8188823,35.1163471],"inferred_type":"city"}
{"name":"Anafotida","other_names":{"name:en":"Anafotida"},"display_name":"Anafotida, Επαρχία Λάρνακας, Κύπρος, Κύπρος - Kıbrıs","address":{"city":"Anafotida","state_district":"Επαρχία Λάρνακας","ISO3166-2-lvl5":"CY-03","state":"Κύπρος","country":"Κύπρος - Kıbrıs","country_code":"cy"},"osm_type":"relation","osm_id":15018441,"type":"administrative","location":[33.46309269314502,34.809974600000004],"bbox":[33.4364274,34.7831246,33.4793121,34.836895],"inferred_type":"city"}
{"name":"Angolemi","other_names":{"name:el":"Αγγολέμι","name:en":"Angolemi","name:tr":"Angolem"},"display_name":"Angolemi, Επαρχία Λευκωσίας, Κύπρος, Κύπρος - Kıbrıs","address":{"city":"Angolemi","state_district":"Επαρχία Λευκωσίας","ISO3166-2-lvl5":"CY-01","state":"Κύπρος","country":"Κύπρος - Kıbrıs","country_code":"cy"},"osm_type":"relation","osm_id":18711551,"type":"administrative","location":[32.947174844354834,35.0986275],"bbox":[32.9274444,35.093027,32.9552099,35.1041357],"inferred_type":"city"}
{"name":"Apliki Oreinis","other_names":{"name:en":"Apliki Oreinis"},"display_name":"Apliki Oreinis, Επαρχία Λευκωσίας, Κύπρος, Κύπρος - Kıbrıs","address":{"city":"Apliki Oreinis","state_district":"Επαρχία Λευκωσίας","ISO3166-2-lvl5":"CY-01","state":"Κύπρος","country":"Κύπρος - Kıbrıs","country_code":"cy"},"osm_type":"relation","osm_id":15022732,"type":"administrative","location":[33.11358133468944,34.9187845],"bbox":[33.104627,34.903388,33.126867,34.934152],"inferred_type":"city"}
{"name":"Arsos Lemesou","other_names":{"name:en":"Arsos Lemesou"},"display_name":"Arsos Lemesou, Επαρχία Λεμεσού, Κύπρος, 4770, Κύπρος - Kıbrıs","address":{"city":"Arsos Lemesou","state_district":"Επαρχία Λεμεσού","ISO3166-2-lvl5":"CY-02","state":"Κύπρος","postcode":"4770","country":"Κύπρος - Kıbrıs","country_code":"cy"},"osm_type":"relation","osm_id":14996349,"type":"administrative","location":[32.76274889968634,34.84015065],"bbox":[32.7453244,34.8163426,32.7827114,34.8638982],"inferred_type":"city"}
{"name":"Fyllia","other_names":{"name:el":"Φυλλιά","name:en":"Fyllia","name:tr":"Filya"},"display_name":"Fyllia, Επαρχία Λευκωσίας, Κύπρος, Κύπρος - Kıbrıs","address":{"city":"Fyllia","state_district":"Επαρχία Λευκωσίας","ISO3166-2-lvl5":"CY-01","state":"Κύπρος","country":"Κύπρος - Kıbrıs","country_code":"cy"},"osm_type":"relation","osm_id":18711546,"type":"administrative","location":[33.13047576428946,35.17811585],"bbox":[33.1273514,35.175893,33.1315289,35.1801458],"inferred_type":"city"}
{"name":"Gazimağusa","other_names":{"name:ar":"الماغوصة","name:ca":"Famagusta","name:da":"Famagusta","name:de":"Famagusta","name:el":"Αμμόχωστος","name:en":"Famagusta","name:es":"Famagusta","name:et":"Famagusta","name:eu":"Famagusta","name:fr":"Famagouste","name:he":"פמגוסטה","name:hu":"Famagusta","name:hy":"Ֆամագուստա","name:it":"Famagosta","name:ml":"ഫാമഗുസ്ത","name:nl":"Famagusta","name:oc":"Famagosta","name:pl":"Famagusta","name:ru":"Фамагуста","name:tr":"Gazimağusa","name:uk":"Фамагуста","int_name":"Famagusta","name:ota":"ماغوسه","old_name":"Ammochostos","alt_name:ar":"فاماغوستا","alt_name:tr":"Mağusa"},"display_name":"Gazimağusa, Gazimağusa Belediyesi, Gazimağusa ilçesi, Kuzey Kıbrıs, Κύπρος - Kıbrıs","address":{"city":"Gazimağusa","municipality":"Gazimağusa Belediyesi","state_district":"Gazimağusa ilçesi","country":"Kuzey Kıbrıs","country_code":"cy"},"population":42526,"osm_type":"node","osm_id":306213529,"type":"city","location":[33.9387919,35.1205261],"bbox":[33.7787919,34.9605261,34.0987919,35.2805261],"border":{"name":"Gazimağusa","other_names":{"name:ar":"الماغوصة","name:ca":"Famagusta","name:da":"Famagusta","name:de":"Famagusta","name:el":"Αμμόχωστος","name:en":"Famagusta","name:es":"Famagusta","name:et":"Famagusta","name:eu":"Famagusta","name:fr":"Famagouste","name:he":"פמגוסטה","name:hu":"Famagusta","name:hy":"Ֆամագուստա","name:it":"Famagosta","name:ml":"ഫാമഗുസ്ത","name:nl":"Famagusta","name:oc":"Famagosta","name:pl":"Famagusta","name:ru":"Фамагуста","name:tr":"Gazimağusa","name:uk":"Фамагуста","int_name":"Famagusta","name:ota":"ماغوسه","old_name":"Ammochostos","alt_name:ar":"فاماغوستا","alt_name:tr":"Mağusa"},"display_name":"Gazimağusa, Gazimağusa Belediyesi, Gazimağusa ilçesi, Kuzey Kıbrıs, Κύπρος - Kıbrıs","address":{"city":"Gazimağusa","municipality":"Gazimağusa Belediyesi","state_district":"Gazimağusa ilçesi","country":"Kuzey Kıbrıs","country_code":"cy"},"population":42526,"osm_type":"relation","osm_id":16301096,"type":"administrative","location":[33.9387919,35.1205261],"bbox":[33.8821485,35.0782109,33.9829997,35.1604793]}}
{"name":"Girne","other_names":{"name:ar":"غرنة","name:de":"Kyrenia","name:el":"Κερύνεια","name:en":"Kyrenia","name:et":"Kyrenia","name:eu":"Kirenia","name:fi":"Kyrenia","name:fr":"Kyrenia","name:hu":"Girne","name:hy":"Կիրենիա","name:ml":"കുറേന്യ","name:ru":"Кирения","name:tr":"Girne","name:uk":"Кіренія","int_name":"Kyrenia","name:ota":"گیرنه","alt_name:de":"Keryneia","alt_name:el":"Τζεύνεια","alt_name:tr":"Cerinya"},"display_name":"Girne, Girne Belediyesi, Girne ilçesi, Kuzey Kıbrıs, Κύπρος - Kıbrıs","address":{"city":"Girne","municipality":"Girne Belediyesi","district":"Girne ilçesi","ISO3166-2-lvl5":"CY-06","country":"Kuzey Kıbrıs","country_code":"cy"},"population":33207,"osm_type":"node","osm_id":676672956,"type":"city","location":[33.3205287,35.3396291],"bbox":[33.1605287,35.1796291,33.4805287,35.4996291],"border":{"name":"Girne","other_names":{"name:ar":"غرنة","name:de":"Kyrenia","name:el":"Κερύνεια","name:en":"Kyrenia","name:et":"Kyrenia","name:eu":"Kirenia","name:fi":"Kyrenia","name:fr":"Kyrenia","name:hu":"Girne","name:hy":"Կիրենիա","name:ml":"കുറേന്യ","name:ru":"Кирения","name:tr":"Girne","name:uk":"Кіренія","int_name":"Kyrenia","name:ota":"گیرنه","alt_name:de":"Keryneia","alt_name:el":"Τζεύνεια","alt_name:tr":"Cerinya"},"display_name":"Girne, Girne Belediyesi, Girne ilçesi, Kuzey Kıbrıs, Κύπρος - Kıbrıs","address":{"city":"Girne","municipality":"Girne Belediyesi","district":"Girne ilçesi","ISO3166-2-lvl5":"CY-06","country":"Kuzey Kıbrıs","country_code":"cy"},"population":33207,"osm_type":"relation","osm_id":16272388,"type":"administrative","location":[33.3205287,35.3396291],"bbox":[33.2876262,35.3089108,33.3387472,35.3505616]}}
{"name":"Hlorakas","other_names":{"official_name":"Κοινότητα Χλώρακα"},"display_name":"Hlorakas, Επαρχία Πάφου, Κύπρος, Κύπρος - Kıbrıs","address":{"city":"Hlorakas","state_district":"Επαρχία Πάφου","ISO3166-2-lvl5":"CY-05","state":"Κύπρος","country":"Κύπρος - Kıbrıs","country_code":"cy"},"osm_type":"relation","osm_id":8434479,"type":"administrative","location":[32.40424736433809,34.79866175],"bbox":[32.392495,34.7843041,32.4236568,34.8129511],"inferred_type":"city"}
{"name":"Kalo Chorio Larnacas","other_names":{"name:en":"Kalo Chorio Larnacas"},"display_name":"Kalo Chorio Larnacas, Επαρχία Λάρνακας, Κύπρος, Κύπρος - Kıbrıs","address":{"city":"Kalo Chorio Larnacas","state_district":"Επαρχία Λάρνακας","ISO3166-2-lvl5":"CY-03","state":"Κύπρος","country":"Κύπρος - Kıbrıs","country_code":"cy"},"osm_type":"relation","osm_id":15018455,"type":"administrative","location":[33.53570650655237,34.9244322],"bbox":[33.4820355,34.896562,33.572513,34.9521784],"inferred_type":"city"}
{"name":"Kalo Chorio Lefkas","other_names":{"name:el":"Καλό Χωριό Λεύκας","name:en":"Kalo Chorio Lefkas","name:tr":"Çamlıköy"},"display_name":"Kalo Chorio Lefkas, Επαρχία Λευκωσίας, Κύπρος, Κύπρος - Kıbrıs","address":{"city":"Kalo Chorio Lefkas","state_district":"Επαρχία Λευκωσίας","ISO3166-2-lvl5":"CY-01","state":"Κύπρος","country":"Κύπρος - Kıbrıs","country_code":"cy"},"osm_type":"relation","osm_id":18711554,"type":"administrative","location":[32.867715639104354,35.1037071],"bbox":[32.8615233,35.1016356,32.876858,35.107109],"inferred_type":"city"}
{"name":"Katokopia","other_names":{"name:el":"Κατωκοπιά","name:en":"Katokopia","name:tr":"Katokopya"},"display_name":"Katokopia, Επαρχία Λευκωσίας, Κύπρος, Κύπρος - Kıbrıs","address":{"city":"Katokopia","state_district":"Επαρχία Λευκωσίας","ISO3166-2-lvl5":"CY-01","state":"Κύπρος","country":"Κύπρος - Kıbrıs","country_code":"cy"},"osm_type":"relation","osm_id":18711549,"type":"administrative","location":[33.056644742143405,35.1613395],"bbox":[33.0375339,35.149157,33.0819255,35.1733983],"inferred_type":"city"}
{"name":"Kosi","other_names":{"name:en":"Kosi"},"display_name":"Kosi, Δήμος Αραδίππου, Επαρχία Λάρνακας, Κύπρος, Κύπρος - Kıbrıs","address":{"city":"Kosi","county":"Δήμος Αραδίππου","state_district":"Επαρχία Λάρνακας","ISO3166-2-lvl5":"CY-03","state":"Κύπρος","country":"Κύπρος - Kıbrıs","country_code":"cy"},"osm_type":"relation","osm_id":15018460,"type":"administrative","location":[33.513601525060466,34.97806275],"bbox":[33.4923474,34.9496973,33.5362255,35.0066148],"inferred_type":"city"}
{"name":"Lefka","other_names":{"name:el":"Λεύκα","name:en":"Lefka","name:tr":"Lefke"},"display_name":"Lefka, Επαρχία Λευκωσίας, Κύπρος, Κύπρος - Kıbrıs","address":{"city":"Lefka","state_district":"Επαρχία Λευκωσίας","ISO3166-2-lvl5":"CY-01","state":"Κύπρος","country":"Κύπρος - Kıbrıs","country_code":"cy"},"osm_type":"relation","osm_id":18711556,"type":"administrative","location":[32.81711313726583,35.0719851],"bbox":[32.790779,35.046241,32.8615233,35.1024759],"inferred_type":"city"}
{"name":"Lefkoşa","other_names":{"name:af":"Nicosia","name:ar":"نيقوسيا","name:de":"Nikosia","name:el":"Λευκωσία","name:en":"Nicosia","name:es":"Nicosia","name:fa":"لفکوشای","name:hy":"Նիկոսիա","name:ps":"نیکوزیا","name:sv":"Nicosia","name:tr":"Lefkoşa","name:ug":"نىكوسىيە","name:uk":"Нікосія","name:ur":"نیکوسیا","name:azb":"لفکوشا","name:grc":"Λευκωσία","name:hyw":"Նիկոսիա","name:az-Arab":"لفکوشا","name:kk-Arab":"لەفكوسىييا"},"display_name":"Lefkoşa, Lefkoşa Türk Belediyesi, Lefkoşa ilçesi, Kuzey Kıbrıs, Κύπρος - Kıbrıs","address":{"city":"Lefkoşa","municipality":"Lefkoşa Türk Belediyesi","state_district":"Lefkoşa ilçesi","country":"Kuzey Kıbrıs","country_code":"cy"},"osm_type":"way","osm_id":229501573,"type":"city","location":[33.3311877599984,35.21165235],"bbox":[33.2528724,35.1783345,33.3894248,35.2450729]}
{"name":"Livadia Lefkosias","other_names":{"name:en":"Livadia Lefkosias"},"display_name":"Livadia Lefkosias, Επαρχία Λευκωσίας, Κύπρος, Κύπρος - Kıbrıs","address":{"city":"Livadia Lefkosias","state_district":"Επαρχία Λευκωσίας","ISO3166-2-lvl5":"CY-01","state":"Κύπρος","country":"Κύπρος - Kıbrıs","country_code":"cy"},"osm_type":"relation","osm_id":15022729,"type":"administrative","location":[33.01282111819333,34.952844999999996],"bbox":[32.994604,34.943553,33.02878,34.962591],"inferred_type":"city"}
{"name":"Mandria Lemesou","other_names":{"name:en":"Mandria Lemesou"},"display_name":"Mandria Lemesou, Επαρχία Λεμεσού, Κύπρος, Κύπρος - Kıbrıs","address":{"city":"Mandria Lemesou","state_district":"Επαρχία Λεμεσού","ISO3166-2-lvl5":"CY-02","state":"Κύπρος","country":"Κύπρος - Kıbrıs","country_code":"cy"},"osm_type":"relation","osm_id":14996348,"type":"administrative","location":[32.830652130899004,34.865993700000004],"bbox":[32.8074923,34.8538963,32.8592479,34.8778235],"inferred_type":"city"}
{"name":"Margo","other_names":{"name:el":"Μαργό","name:en":"Margo","name:tr":"Margo"},"display_name":"Margo, Επαρχία Λευκωσίας, Κύπρος, Κύπρος - Kıbrıs","address":{"city":"Margo","state_district":"Επαρχία Λευκωσίας","ISO3166-2-lvl5":"CY-01","state":"Κύπρος","country":"Κύπρος - Kıbrıs","country_code":"cy"},"osm_type":"relation","osm_id":18712695,"type":"administrative","location":[33.4637618946799,35.10495775],"bbox":[33.455406,35.096699,33.4689825,35.1129284],"inferred_type":"city"}
{"name":"Masari","other_names":{"name:el":"Μάσαρι","name:en":"Masari","name:fr":"Másari","name:tr":"Masari"},"display_name":"Masari, Επαρχία Λευκωσίας, Κύπρος, Κύπρος - Kıbrıs","address":{"city":"Masari","state_district":"Επαρχία Λευκωσίας","ISO3166-2-lvl5":"CY-01","state":"Κύπρος","country":"Κύπρος - Kıbrıs","country_code":"cy"},"osm_type":"relation","osm_id":18711547,"type":"administrative","location":[33.08322523844443,35.1696467],"bbox":[33.0814734,35.167607,33.0854578,35.1707716],"inferred_type":"city"}
{"name":"Menogeia","other_names":{"name:en":"Menogeia"},"display_name":"Menogeia, Επαρχία Λάρνακας, Κύπρος, Κύπρος - Kıbrıs","address":{"city":"Menogeia","state_district":"Επαρχία Λάρνακας","ISO3166-2-lvl5":"CY-03","state":"Κύπρος","country":"Κύπρος - Kıbrıs","country_code":"cy"},"osm_type":"relation","osm_id":15018442,"type":"administrative","location":[33.434812924543124,34.84495705],"bbox":[33.4170331,34.8246384,33.4490157,34.8651848],"inferred_type":"city"}
{"name":"Panaya","other_names":{"name:tr":"Panaya"},"display_name":"Panaya, Lefkoşa Türk Belediyesi, Lefkoşa ilçesi, Kuzey Kıbrıs, Κύπρος - Kıbrıs","address":{"city":"Panaya","municipality":"Lefkoşa Türk Belediyesi","state_district":"Lefkoşa ilçesi","country":"Kuzey Kıbrıs","country_code":"cy"},"osm_type":"relation","osm_id":18748079,"type":"administrative","location":[33.4151226009368,35.1668621],"bbox":[33.4111768,35.1618412,33.421312,35.1721086],"inferred_type":"city","border":{"name":"Panayia","other_names":{"name:el":"Παναγία","name:en":"Panayia","name:tr":"Panaya"},"display_name":"Panayia, Λευκωσία, Λευκωσία - Lefkoşa, Δήμος Λευκωσίας, Επαρχία Λευκωσίας, Κύπρος, Κύπρος - Kıbrıs","address":{"city_district":"Panayia","city":"Λευκωσία","municipality":"Λευκωσία - Lefkoşa","county":"Δήμος Λευκωσίας","state_district":"Επαρχία Λευκωσίας","ISO3166-2-lvl5":"CY-01","state":"Κύπρος","country":"Κύπρος - Kıbrıs","country_code":"cy"},"osm_type":"relation","osm_id":18748064,"type":"administrative","location":[33.39618950149767,35.17139165],"bbox":[33.3737089,35.1616525,33.4178694,35.1811264]}}
{"name":"Pergamos","other_names":{"name:el":"Πέργαμος","name:en":"Pergamos","name:tr":"Pergama"},"display_name":"Pergamos, Επαρχία Λάρνακας, Κύπρος, Κύπρος - Kıbrıs","address":{"city":"Pergamos","state_district":"Επαρχία Λάρνακας","ISO3166-2-lvl5":"CY-03","state":"Κύπρος","country":"Κύπρος - Kıbrıs","country_code":"cy"},"osm_type":"relation","osm_id":18712693,"type":"administrative","location":[33.66143202010842,35.034631649999994],"bbox":[33.6591997,35.0332929,33.6649123,35.0360003],"inferred_type":"city"}
{"name":"Petra","other_names":{"name:el":"Πέτρα","name:en":"Petra","name:tr":"Petre"},"display_name":"Petra, Επαρχία Λευκωσίας, Κύπρος, Κύπρος - Kıbrıs","address":{"city":"Petra","state_district":"Επαρχία Λευκωσίας","ISO3166-2-lvl5":"CY-01","state":"Κύπρος","country":"Κύπρος - Kıbrıs","country_code":"cy"},"osm_type":"relation","osm_id":18711552,"type":"administrative","location":[32.912430848049624,35.09515385],"bbox":[32.893271,35.082689,32.9345239,35.1076333],"inferred_type":"city"}
{"name":"Polystypos","other_names":{"name:en":"Polystypos"},"display_name":"Polystypos, Επαρχία Λευκωσίας, Κύπρος, Κύπρος - Kıbrıs","address":{"city":"Polystypos","state_district":"Επαρχία Λευκωσίας","ISO3166-2-lvl5":"CY-01","state":"Κύπρος","country":"Κύπρος - Kıbrıs","country_code":"cy"},"osm_type":"relation","osm_id":15022730,"type":"administrative","location":[33.01555843670778,34.9391985],"bbox":[33.002948,34.930726,33.026676,34.947832],"inferred_type":"city"}
{"name":"Prastio Avdimou","other_names":{"name:en":"Prastio Avdimou"},"display_name":"Prastio Avdimou, Επαρχία Λεμεσού, Κύπρος, Κύπρος - Kıbrıs","address":{"city":"Prastio Avdimou","state_district":"Επαρχία Λεμεσού","ISO3166-2-lvl5":"CY-02","state":"Κύπρος","country":"Κύπρος - Kıbrıs","country_code":"cy"},"osm_type":"relation","osm_id":14996365,"type":"administrative","location":[32.77401001696733,34.723832900000005],"bbox":[32.7520636,34.7030229,32.8031391,34.7447074],"inferred_type":"city"}
{"name":"Pyrga Larnacas","other_names":{"name:en":"Pyrga Larnacas"},"display_name":"Pyrga Larnacas, Επαρχία Λάρνακας, Κύπρος, 7648, Κύπρος - Kıbrıs","address":{"city":"Pyrga Larnacas","state_district":"Επαρχία Λάρνακας","ISO3166-2-lvl5":"CY-03","state":"Κύπρος","postcode":"7648","country":"Κύπρος - Kıbrıs","country_code":"cy"},"osm_type":"relation","osm_id":15018432,"type":"administrative","location":[33.448366249387945,34.9020148],"bbox":[33.4027482,34.8620191,33.4900255,34.9415976],"inferred_type":"city"}
{"name":"Vasa Koilaniou","other_names":{"name:en":"Vasa Koilaniou"},"display_name":"Vasa Koilaniou, Επαρχία Λεμεσού, Κύπρος, 4771, Κύπρος - Kıbrıs","address":{"city":"Vasa Koilaniou","state_district":"Επαρχία Λεμεσού","ISO3166-2-lvl5":"CY-02","state":"Κύπρος","postcode":"4771","country":"Κύπρος - Kıbrıs","country_code":"cy"},"osm_type":"relation","osm_id":14996359,"type":"administrative","location":[32.78626200071756,34.8399768],"bbox":[32.7733071,34.817123,32.8047882,34.8628234],"inferred_type":"city"}
{"name":"Xerovounos","other_names":{"name:el":"Ξερόβουνος","name:en":"Xerovounos","name:tr":"İkserovuno"},"display_name":"Xerovounos, Επαρχία Λευκωσίας, Κύπρος, Κύπρος - Kıbrıs","address":{"city":"Xerovounos","state_district":"Επαρχία Λευκωσίας","ISO3166-2-lvl5":"CY-01","state":"Κύπρος","country":"Κύπρος - Kıbrıs","country_code":"cy"},"osm_type":"relation","osm_id":15022774,"type":"administrative","location":[32.71511440558844,35.1100685],"bbox":[32.694931,35.078407,32.749973,35.1418415],"inferred_type":"city"}
{"name":"Αγιος Ιωάννης Αγρού","other_names":{"name:en":"Agios Ioannis"},"display_name":"Αγιος Ιωάννης Αγρού, Επαρχία Λεμεσού, Κύπρος, Κύπρος - Kıbrıs","address":{"city":"Αγιος Ιωάννης Αγρού","state_district":"Επαρχία Λεμεσού","ISO3166-2-lvl5":"CY-02","state":"Κύπρος","country":"Κύπρος - Kıbrıs","country_code":"cy"},"osm_type":"relation","osm_id":13044541,"type":"administrative","location":[33.017330776348146,34.893144050000004],"bbox":[32.9827496,34.8749374,33.0407036,34.9113393],"inferred_type":"city"}
{"name":"Αγιος Κωνσταντίνος","other_names":{"name:en":"Agios Konstantinos"},"display_name":"Αγιος Κωνσταντίνος, Επαρχία Λεμεσού, Κύπρος, Κύπρος - Kıbrıs","address":{"city":"Αγιος Κωνσταντίνος","state_district":"Επαρχία Λεμεσού","ISO3166-2-lvl5":"CY-02","state":"Κύπρος","country":"Κύπρος - Kıbrıs","country_code":"cy"},"osm_type":"relation","osm_id":13044627,"type":"administrative","location":[33.07636679688559,34.8733883],"bbox":[33.0569571,34.8544234,33.0938989,34.892334],"inferred_type":"city"}
{"name":"Βάσα Κελλακίου","other_names":{"name:en":"Vasa Kellakiou"},"display_name":"Βάσα Κελλακίου, Επαρχία Λεμεσού, Κύπρος, Κύπρος - Kıbrıs","address":{"city":"Βάσα Κελλακίου","state_district":"Επαρχία Λεμεσού","ISO3166-2-lvl5":"CY-02","state":"Κύπρος","country":"Κύπρος - Kıbrıs","country_code":"cy"},"osm_type":"relation","osm_id":13045828,"type":"administrative","location":[33.22691420120829,34.80071395],"bbox":[33.1990408,34.7697047,33.2605102,34.8317158],"inferred_type":"city"}
{"name":"Δήμος Δρομολαξιάς-Μενεού","other_names":{"name:el":"Δήμος Δρομολαξιάς-Μενεού","name:en":"Dromolaxia - Meneou Municipality"},"display_name":"Δήμος Δρομολαξιάς-Μενεού, Δήμος Δρομολαξιάς - Μενεού, Επαρχία Λάρνακας, Κύπρος, 7020, Κύπρος - Kıbrıs","address":{"city":"Δήμος Δρομολαξιάς-Μενεού","county":"Δήμος Δρομολαξιάς - Μενεού","state_district":"Επαρχία Λάρνακας","ISO3166-2-lvl5":"CY-03","state":"Κύπρος","postcode":"7020","country":"Κύπρος - Kıbrıs","country_code":"cy"},"osm_type":"relation","osm_id":13730302,"type":"administrative","location":[33.58755056361685,34.8723732],"bbox":[33.5515498,34.8387444,33.624861,34.9059415],"inferred_type":"city"}
{"name":"Κοινότητα Παλαιόμυλου","other_names":{"name:en":"Palaiomylos"},"display_name":"Κοινότητα Παλαιόμυλου, Επαρχία Λεμεσού, Κύπρος, Κύπρος - Kıbrıs","address":{"city":"Κοινότητα Παλαιόμυλου","state_district":"Επαρχία Λεμεσού","ISO3166-2-lvl5":"CY-02","state":"Κύπρος","country":"Κύπρος - Kıbrıs","country_code":"cy"},"osm_type":"relation","osm_id":13043943,"type":"administrative","location":[32.827035051503415,34.9283127],"bbox":[32.8094575,34.9150798,32.843252,34.9415769],"inferred_type":"city"}
{"name":"Κοινότητα Τρεις Ελιές","other_names":{"name:en":"Treis Elies"},"display_name":"Κοινότητα Τρεις Ελιές, Επαρχία Λεμεσού, Κύπρος, 4846, Κύπρος - Kıbrıs","address":{"city":"Κοινότητα Τρεις Ελιές","state_district":"Επαρχία Λεμεσού","ISO3166-2-lvl5":"CY-02","state":"Κύπρος","postcode":"4846","country":"Κύπρος - Kıbrıs","country_code":"cy"},"osm_type":"relation","osm_id":13043576,"type":"administrative","location":[32.799405883857176,34.9328421],"bbox":[32.7813002,34.9135691,32.8128421,34.952181],"inferred_type":"city"}
{"name":"Κοινότητα Φοινιού","other_names":{"name:en":"Foini"},"display_name":"Κοινότητα Φοινιού, Επαρχία Λεμεσού, Κύπρος, Κύπρος - Kıbrıs","address":{"city":"Κοινότητα Φοινιού","state_district":"Επαρχία Λεμεσού","ISO3166-2-lvl5":"CY-02","state":"Κύπρος","country":"Κύπρος - Kıbrıs","country_code":"cy"},"osm_type":"relation","osm_id":13044001,"type":"administrative","location":[32.82058369264983,34.90659105],"bbox":[32.7736236,34.8779865,32.8609593,34.9335274],"inferred_type":"city"}
{"name":"Λάρνακα","other_names":{"name:ar":"لارنكا","name:de":"Larnaka","name:el":"Λάρνακα","name:en":"Larnaca","name:et":"Larnaca","name:eu":"Larnaka","name:fr":"Larnaca","name:he":"לרנקה","name:hu":"Lárnaka","name:hy":"Լառնակա","name:it":"Larnaca","name:ku":"Larnaka","name:lt":"Larnaka","name:mk":"Ларнака","name:ml":"ലാർനാക്ക","name:nl":"Larnaca","name:pl":"Larnaka","name:ru":"Ларнака","name:sl":"Larnaka","name:tr":"Larnaka","name:uk":"Ларнака","int_name":"Larnaca","name:ckb":"لارناکا","name:ota":"الرنقه","alt_name:de":"Larnaca","old_name:de":"Larnax"},"display_name":"Λάρνακα, Δήμος Λάρνακας, Επαρχία Λάρνακας, Κύπρος, Κύπρος - Kıbrıs","address":{"city":"Λάρνακα","town":"Δήμος Λάρνακας","county":"Δήμος Λάρνακας","state_district":"Επαρχία Λάρνακας","ISO3166-2-lvl5":"CY-03","state":"Κύπρος","country":"Κύπρος - Kıbrıs","country_code":"cy"},"population":51468,"osm_type":"node","osm_id":1939509422,"type":"city","location":[33.6236184,34.9236095],"bbox":[33.4636184,34.7636095,33.7836184,35.0836095],"border":{"name":"Δήμος Λάρνακας","other_names":{"name:ar":"لارنكا","name:el":"Δήμος Λάρνακας","name:en":"Larnaca","name:fr":"Larnaca","name:he":"לרנקה","name:it":"Larnaca","name:ku":"Larnaka","name:lt":"Larnaka","name:mk":"Ларнака","name:pl":"Larnaka","name:ru":"муниципалитет Ларнака","name:sl":"Larnaka","name:tr":"Larnaka","name:uk":"Ларнака","int_name":"Larnaca","name:ckb":"لارناکا","name:ota":"الرنقه","name:de":"Larnaka","name:et":"Larnaca","name:eu":"Larnaka","name:hu":"Lárnaka","name:hy":"Լառնակա","name:ml":"ലാർനാക്ക","name:nl":"Larnaca","official_name:en":"Larnaca Municipality","alt_name:de":"Larnaca","old_name:de":"Larnax","alt":"Λάρνακα","alt:el":"Λάρνακα","alt:ru":"Ларнака"},"display_name":"Δήμος Λάρνακας, Επαρχία Λάρνακας, Κύπρος, Κύπρος - Kıbrıs","address":{"town":"Δήμος Λάρνακας","county":"Δήμος Λάρνακας","state_district":"Επαρχία Λάρνακας","ISO3166-2-lvl5":"CY-03","state":"Κύπρος","country":"Κύπρος - Kıbrıs","country_code":"cy"},"population":51468,"osm_type":"relation","osm_id":533154,"type":"administrative","location":[33.6236184,34.9236095],"bbox":[33.5836106,34.8454354,33.654336,34.9571395]}}
{"name":"Λεμεσός","other_names":{"name:ar":"ليماسول","name:de":"Limassol","name:el":"Λεμεσός","name:en":"Limassol","name:es":"Limasol","name:et":"Limassol","name:eu":"Limasol","name:fr":"Limassol","name:he":"לימסול","name:hu":"Limassol","name:hy":"Լիմասոլ","name:it":"Limisso","name:mk":"Лимасол","name:ml":"ലിമസ്സോൾ","name:nl":"Limassol","name:nn":"Lemesós","name:no":"Lemesós","name:ru":"Лимасол","name:tr":"Limasol","name:uk":"Лімасол","name:zh":"利马索尔/利馬索爾","alt_name":"Lemesos","int_name":"Limassol","name:ota":"لیمه‌سون","name:yue":"利馬索爾","alt_name:de":"Lemesos","alt_name:it":"Limassol","alt_name:nl":"Limasol","alt_name:ru":"Лемесос","alt_name:tr":"Leymosun","name:zh-Hans":"利马索尔","name:zh-Hant":"利馬索爾"},"display_name":"Λεμεσός, Δήμος Λεμεσού, Επαρχία Λεμεσού, Κύπρος, Κύπρος - Kıbrıs","address":{"city":"Λεμεσός","county":"Δήμος Λεμεσού","state_district":"Επαρχία Λεμεσού","ISO3166-2-lvl5":"CY-02","state":"Κύπρος","country":"Κύπρος - Kıbrıs","country_code":"cy"},"population":101000,"osm_type":"node","osm_id":9331795,"type":"city","location":[33.0332657,34.6852901],"bbox":[32.8732657,34.5252901,33.1932657,34.8452901],"border":{"name":"Λεμεσός","other_names":{"name:ar":"ليماسول","name:el":"Λεμεσός","name:en":"Limassol","name:fr":"Limassol","name:hy":"Լիմասոլ","name:it":"Limisso","name:ru":"муниципалитет Лимасол","name:tr":"Limasol","alt_name":"Lemesos","int_name":"Limassol","name:ota":"لیمه‌سون","alt_name:it":"Limassol","alt_name:ru":"Лемессос","alt_name:tr":"Leymosun","name:de":"Limassol","name:es":"Limasol","name:et":"Limassol","name:eu":"Limasol","name:he":"לימסול","name:hu":"Limassol","name:mk":"Лимасол","name:ml":"ലിമസ്സോൾ","name:nl":"Limassol","name:nn":"Lemesós","name:no":"Lemesós","name:uk":"Лімасол","name:zh":"利马索尔/利馬索爾","name:yue":"利馬索爾","alt_name:de":"Lemesos","alt_name:nl":"Limasol","_place_alt_name:ru":"Лемесос","name:zh-Hans":"利马索尔","name:zh-Hant":"利馬索爾","alt:ru":"Лимасол"},"display_name":"Λεμεσός, Δήμος Λεμεσού, Επαρχία Λεμεσού, Κύπρος, Κύπρος - Kıbrıs","address":{"city":"Λεμεσός","county":"Δήμος Λεμεσού","state_district":"Επαρχία Λεμεσού","ISO3166-2-lvl5":"CY-02","state":"Κύπρος","country":"Κύπρος - Kıbrıs","country_code":"cy"},"population":101000,"osm_type":"relation","osm_id":3263730,"type":"administrative","location":[33.0332657,34.6852901],"bbox":[32.9859758,34.6431912,33.0708607,34.7402647]}}
{"name":"Λευκωσία - Lefkoşa","other_names":{"name:af":"Nicosia","name:am":"ሌፍኮዚያ","name:an":"Nicosia","name:ar":"نيقوسيا","name:az":"Nikosiya","name:be":"Нікасія","name:bg":"Никозия","name:bn":"নিকোসিয়া","name:bo":"ནེ་ཁོ་ཤི་ཡ།","name:br":"Nikozia","name:bs":"Nikozija","name:ca":"Nicòsia","name:cs":"Nikósie","name:cy":"Nicosia","name:da":"Nicosia","name:de":"Nikosia","name:el":"Λευκωσία","name:en":"Nicosia","name:eo":"Nikozio","name:es":"Nicosia","name:et":"Nikosia","name:eu":"Nikosia","name:fa":"لفکوشای","name:fr":"Nicosie","name:ga":"An Leafcóis","name:gd":"Nicosia","name:gl":"Nicosia","name:gv":"Lefkosia","name:he":"ניקוסיה","name:hi":"निकोसिया","name:hr":"Nikozija","name:ht":"Nikozi","name:hu":"Nicosia","name:hy":"Նիկոսիա","name:is":"Nikósía","name:it":"Nicosia","name:ja":"ニコシア","name:ka":"ნიქოზია","name:kk":"Никосия","name:kl":"Nicosia","name:kn":"ನಿಕೋಸಿಯ","name:ko":"니코시아","name:ky":"Лефкоша","name:la":"Nicosia","name:lt":"Nikosija","name:lv":"Nikosija","name:mi":"Nicosia","name:mk":"Левкозија","name:ml":"നിക്കോഷ്യ","name:mr":"निकोसिया","name:ms":"Nicosia","name:nl":"Nicosia","name:oc":"Nicosia","name:os":"Никоси","name:pl":"Nikozja","name:ps":"نیکوزیا","name:pt":"Nicósia","name:ro":"Nicosia","name:ru":"Никосия","name:rw":"Nikosiya","name:sh":"Nikozija","name:sk":"Nikózia","name:sl":"Nikozija","name:sq":"Nicosia","name:sr":"Никозија","name:sv":"Nicosia","name:ta":"நிக்கோசியா","name:tg":"Никосия","name:th":"นิโคเซีย","name:tl":"Nicosia","name:tr":"Lefkoşa","name:tt":"Никосия","name:ug":"نىكوسىيە","name:uk":"Нікосія","name:ur":"نیکوسیا","name:vi":"Nicosia","name:yi":"ניקאסיע","name:yo":"Nicosia","name:zh":"尼科西亚","name:arz":"نيكوسيا","name:azb":"لفکوشا","name:ckb":"نیکۆسیا","name:crh":"Lefkoşa","name:gag":"Lefkoşa","name:grc":"Λευκωσία","name:hyw":"Նիկոսիա","name:kaa":"Arqa Nikosiya","name:kab":"Niqusya","name:lad":"Nikosiya","name:lij":"Nicosia","name:lmo":"Nicoséa","name:mdf":"Никосия","name:mzn":"نیکوزیا","name:nah":"Nicosia","name:nan":"Nicosia","name:nap":"Nicosìa","name:ota":"لفقوشه","name:pms":"Nicosìa","name:pnb":"نیکوسیا","name:pnt":"Λευκωσίαν","name:sah":"Никосия","name:sco":"Nicosia","name:stq":"Nicosia","name:udm":"Никосия","name:vep":"Nikosii","name:war":"Nicosia","alt_name:ar":"الأفقوسية","alt_name:ru":"Левкосия","old_name:ar":"الأفقوسية","alt_name:grc":"Λήδρα;Καλληνίκησις;Λευκοθέον","name:az-Arab":"لفکوشا","name:kk-Arab":"لەفكوسىييا"},"display_name":"Λευκωσία - Lefkoşa, Λευκωσία, Λευκωσία - Lefkoşa, Δήμος Λευκωσίας, Επαρχία Λευκωσίας, Κύπρος, Κύπρος - Kıbrıs","address":{"city":"Λευκωσία - Lefkoşa","municipality":"Λευκωσία - Lefkoşa","county":"Δήμος Λευκωσίας","state_district":"Επαρχία Λευκωσίας","ISO3166-2-lvl5":"CY-01","state":"Κύπρος","country":"Κύπρος - Kıbrıs","country_code":"cy"},"population":310355,"osm_type":"node","osm_id":1893015330,"type":"city","location":[33.3638783,35.1746503],"bbox":[33.2038783,35.0146503,33.5238783,35.3346503],"border":[{"name":"Λευκωσία - Lefkoşa","other_names":{"name:af":"Nicosia","name:am":"ሌፍኮዚያ","name:an":"Nicosia","name:ar":"نيقوسيا","name:az":"Nikosiya","name:be":"Нікасія","name:bg":"Никозия","name:bn":"নিকোসিয়া","name:bo":"ནེ་ཁོ་ཤི་ཡ།","name:br":"Nikozia","name:bs":"Nikozija","name:ca":"Nicòsia","name:cs":"Nikósie","name:cy":"Nicosia","name:da":"Nicosia","name:de":"Nikosia","name:el":"Λευκωσία","name:en":"Nicosia","name:eo":"Nikozio","name:es":"Nicosia","name:fa":"لفکوشای","name:fr":"Nicosie","name:ga":"An Leafcóis","name:gd":"Nicosia","name:gl":"Nicosia","name:gv":"Lefkosia","name:he":"ניקוסיה","name:hi":"निकोसिया","name:hr":"Nikozija","name:ht":"Nikozi","name:hu":"Nicosia","name:hy":"Նիկոսիա","name:is":"Nikósía","name:it":"Nicosia","name:ja":"ニコシア","name:ka":"ნიქოზია","name:kk":"Никосия","name:kl":"Nicosia","name:ko":"니코시아","name:ky":"Лефкоша","name:la":"Nicosia","name:lt":"Nikosija","name:lv":"Nikosija","name:mi":"Nicosia","name:mk":"Левкозија","name:mr":"निकोसिया","name:ms":"Nicosia","name:nl":"Nicosia","name:oc":"Nicosia","name:os":"Никоси","name:pl":"Nikozja","name:ps":"نیکوزیا","name:pt":"Nicósia","name:ro":"Nicosia","name:ru":"Никосия","name:rw":"Nikosiya","name:sh":"Nikozija","name:sk":"Nikózia","name:sl":"Nikozija","name:sq":"Nicosia","name:sr":"Никозија","name:sv":"Nicosia","name:ta":"நிக்கோசியா","name:tg":"Никосия","name:th":"นิโคเซีย","name:tl":"Nicosia","name:tr":"Lefkoşa","name:tt":"Никосия","name:ug":"نىكوسىيە","name:uk":"Нікосія","name:ur":"نیکوسیا","name:vi":"Nicosia","name:yi":"ניקאסיע","name:yo":"Nicosia","name:zh":"尼科西亚","int_name":"Nicosia","name:arz":"نيكوسيا","name:azb":"لفکوشا","name:ckb":"نیکۆسیا","name:crh":"Lefkoşa","name:gag":"Lefkoşa","name:grc":"Λευκωσία","name:hyw":"Նիկոսիա","name:kaa":"Arqa Nikosiya","name:lad":"Nikosiya","name:lij":"Nicosia","name:lmo":"Nicoséa","name:mdf":"Никосия","name:mzn":"نیکوزیا","name:nah":"Nicosia","name:nan":"Nicosia","name:nap":"Nicosìa","name:pms":"Nicosìa","name:pnb":"نیکوسیا","name:pnt":"Λευκωσίαν","name:sah":"Никосия","name:sco":"Nicosia","name:stq":"Nicosia","name:udm":"Никосия","name:vep":"Nikosii","name:war":"Nicosia","alt_name:ar":"الأفقوسية","alt_name:ru":"Левкосия","old_name:ar":"الأفقوسية","alt_name:grc":"Λήδρα;Καλληνίκησις;Λευκοθέον","name:az-Arab":"لفکوشا","name:kk-Arab":"لەفكوسىييا"},"display_name":"Λευκωσία - Lefkoşa, Δήμος Στροβόλου, Επαρχία Λευκωσίας, Κύπρος, Κύπρος - Kıbrıs","address":{"municipality":"Λευκωσία - Lefkoşa","county":"Δήμος Στροβόλου","state_district":"Επαρχία Λευκωσίας","ISO3166-2-lvl5":"CY-01","state":"Κύπρος","country":"Κύπρος - Kıbrıs","country_code":"cy"},"osm_type":"relation","osm_id":2628520,"type":"administrative","location":[33.35522913707338,35.1354615],"bbox":[33.26978,35.0691785,33.4409778,35.2017784]},{"name":"Λευκωσία","other_names":{"name:af":"Nicosia","name:am":"ሌፍኮዚያ","name:an":"Nicosia","name:ar":"نيقوسيا","name:az":"Nikosiya","name:be":"Нікасія","name:bg":"Никозия","name:bn":"নিকোসিয়া","name:bo":"ནེ་ཁོ་ཤི་ཡ།","name:br":"Nikozia","name:bs":"Nikozija","name:ca":"Nicòsia","name:cs":"Nikósie","name:cy":"Nicosia","name:da":"Nicosia","name:de":"Nikosia","name:el":"Λευκωσία","name:en":"Nicosia","name:eo":"Nikozio","name:es":"Nicosia","name:fa":"نیکوزیا","name:fr":"Nicosie","name:ga":"An Leafcóis","name:gd":"Nicosia","name:gl":"Nicosia","name:gv":"Lefkosia","name:he":"ניקוסיה","name:hi":"निकोसिया","name:hr":"Nikozija","name:ht":"Nikozi","name:hu":"Nicosia","name:hy":"Նիկոսիա","name:is":"Nikósía","name:it":"Nicosia","name:ja":"ニコシア","name:ka":"ნიქოზია","name:kk":"Никосия","name:kl":"Nicosia","name:ko":"니코시아","name:ky":"Лефкоша","name:la":"Nicosia","name:lt":"Nikosija","name:lv":"Nikosija","name:mi":"Nicosia","name:mk":"Левкозија","name:mr":"निकोसिया","name:ms":"Nicosia","name:nl":"Nicosia","name:oc":"Nicosia","name:os":"Никоси","name:pl":"Nikozja","name:pt":"Nicósia","name:ro":"Nicosia","name:ru":"муниципалитет Никосия","name:rw":"Nikosiya","name:sh":"Nikozija","name:sk":"Nikózia","name:sl":"Nikozija","name:sq":"Nicosia","name:sr":"Никозија","name:sv":"Nicosia","name:ta":"நிக்கோசியா","name:tg":"Никосия","name:th":"นิโคเซีย","name:tl":"Nicosia","name:tr":"Lefkoşa","name:tt":"Никосия","name:ug":"نىكوسىيە","name:uk":"Нікосія","name:ur":"نیکوسیا","name:vi":"Nicosia","name:yi":"ניקאסיע","name:yo":"Nicosia","name:zh":"尼科西亚","name:arz":"نيكوسيا","name:ckb":"نیکۆسیا","name:crh":"Lefkoşa","name:gag":"Lefkoşa","name:grc":"Λευκωσία","name:kaa":"Nikosiya","name:lad":"Nikosiya","name:lij":"Nicosia","name:lmo":"Nicoséa","name:mdf":"Никосия","name:mzn":"نیکوزیا","name:nah":"Nicosia","name:nan":"Nicosia","name:nap":"Nicosìa","name:pms":"Nicosìa","name:pnb":"نیکوسیا","name:pnt":"Λευκωσίαν","name:sah":"Никосия","name:sco":"Nicosia","name:stq":"Nicosia","name:udm":"Никосия","name:vep":"Nikosii","name:war":"Nicosia","alt_name:ar":"الأفقوسية","alt_name:ru":"Левкосия","old_name:ar":"الأفقوسية","alt_name:grc":"Λήδρα;Καλληνίκησις;Λευκοθέον","official_name":"Δήμος Λευκωσίας - Lefkoşa Belediyesi","name:et":"Nikosia","name:eu":"Nikosia","name:kn":"ನಿಕೋಸಿಯ","name:ml":"നിക്കോഷ്യ","name:ps":"نیکوزیا","name:azb":"لفکوشا","name:hyw":"Նիկոսիա","name:kab":"Niqusya","name:ota":"لفقوشه","official_name:el":"Δήμος Λευκωσίας","official_name:en":"Nicosia Municipality","official_name:tr":"Lefkoşa Belediyesi","name:az-Arab":"لفکوشا","name:kk-Arab":"لەفكوسىييا","alt":"Λευκωσία - Lefkoşa","alt:fa":"لفکوشای","alt:ru":"Никосия","alt:kaa":"Arqa Nikosiya"},"display_name":"Λευκωσία, Λευκωσία - Lefkoşa, Δήμος Λευκωσίας, Επαρχία Λευκωσίας, Κύπρος, Κύπρος - Kıbrıs","address":{"city":"Λευκωσία","municipality":"Λευκωσία - Lefkoşa","county":"Δήμος Λευκωσίας","state_district":"Επαρχία Λευκωσίας","ISO3166-2-lvl5":"CY-01","state":"Κύπρος","country":"Κύπρος - Kıbrıs","country_code":"cy"},"population":310355,"osm_type":"relation","osm_id":2628521,"type":"administrative","location":[33.3638783,35.1746503],"bbox":[33.3358797,35.1521717,33.4182382,35.2017784]},{"name":"Lefkoşa","display_name":"Lefkoşa, Lefkoşa Türk Belediyesi, Lefkoşa ilçesi, Kuzey Kıbrıs, Κύπρος - Kıbrıs","address":{"city":"Lefkoşa","municipality":"Lefkoşa Türk Belediyesi","state_district":"Lefkoşa ilçesi","country":"Kuzey Kıbrıs","country_code":"cy"},"osm_type":"relation","osm_id":16283715,"type":"administrative","location":[33.36101354863826,35.18537725],"bbox":[33.3433127,35.1739486,33.3723459,35.1967689]}]}
{"name":"Πάφος","other_names":{"name:ar":"بافوس","name:de":"Paphos","name:el":"Πάφος","name:en":"Paphos","name:es":"Pafos","name:et":"Paphos","name:eu":"Pafos","name:fr":"Paphos","name:hu":"Páfosz","name:hy":"Պաֆոս","name:it":"Pafo","name:ml":"പാഫോസ്","name:nl":"Paphos","name:ru":"Пафос","name:tr":"Baf","name:uk":"Пафос","int_name":"Pafos","name:ota":"باف"},"display_name":"Πάφος, Δήμος Πάφου, Επαρχία Πάφου, Κύπρος, Κύπρος - Kıbrıs","address":{"city":"Πάφος","state_district":"Επαρχία Πάφου","ISO3166-2-lvl5":"CY-05","state":"Κύπρος","country":"Κύπρος - Kıbrıs","country_code":"cy"},"population":32892,"osm_type":"node","osm_id":5614350943,"type":"city","location":[32.4231586,34.7743988],"bbox":[32.2631586,34.6143988,32.5831586,34.9343988],"border":{"name":"Δήμος Πάφου","other_names":{"name:ar":"بافوس","name:de":"Paphos","name:el":"Δήμος Πάφου","name:en":"Paphos Municipality","name:he":"פאפוס","name:it":"Pafo","name:pl":"Pafos","name:ru":"муниципалитет Пафос","name:tr":"Baf","name:uk":"Пафос","name:es":"Pafos","name:et":"Paphos","name:eu":"Pafos","name:fr":"Paphos","name:hu":"Páfosz","name:hy":"Պաֆոս","name:ml":"പാഫോസ്","name:nl":"Paphos","int_name":"Pafos","name:ota":"باف","alt":"Πάφος","alt:el":"Πάφος","alt:en":"Paphos","alt:ru":"Пафос"},"display_name":"Δήμος Πάφου, Επαρχία Πάφου, Κύπρος, Κύπρος - Kıbrıs","address":{"city":"Δήμος Πάφου","state_district":"Επαρχία Πάφου","ISO3166-2-lvl5":"CY-05","state":"Κύπρος","country":"Κύπρος - Kıbrıs","country_code":"cy"},"population":32892,"osm_type":"relation","osm_id":533386,"type":"administrative","location":[32.4231586,34.7743988],"bbox":[32.3998041,34.7431938,32.4657489,34.8017495]}}
{"name":"Τραχώνι","other_names":{"name:en":"Trachoni"},"display_name":"Τραχώνι, Δήμος Κουρίου, Επαρχία Λεμεσού, Κύπρος, 4651, Κύπρος - Kıbrıs","address":{"city":"Τραχώνι","county":"Δήμος Κουρίου","state_district":"Επαρχία Λεμεσού","ISO3166-2-lvl5":"CY-02","state":"Κύπρος","postcode":"4651","country":"Κύπρος - Kıbrıs","country_code":"cy"},"osm_type":"relation","osm_id":12940228,"type":"administrative","location":[32.963968864767665,34.6521288],"bbox":[32.9527163,34.6458095,32.9750145,34.6585366],"inferred_type":"city"}
