{"name":"Bařice-Velké Těšany","other_names":{"ref":"CZ0721588300","name:cs":"Bařice-Velké Těšany"},"display_name":"Bařice-Velké Těšany, okres Kroměříž, Zlínský kraj, Střední Morava, Česko","address":{"city":"Bařice-Velké Těšany","municipality":"okres Kroměříž","ISO3166-2-lvl7":"CZ-721","county":"Zlínský kraj","ISO3166-2-lvl6":"CZ-72","state":"Střední Morava","country":"Česko","country_code":"cz"},"population":452,"osm_type":"relation","osm_id":437010,"type":"administrative","location":[17.40968402017584,49.244808750000004],"bbox":[17.3843514,49.2324025,17.4362382,49.2572166],"inferred_type":"city"}
{"name":"Bohdalice-Pavlovice","other_names":{"ref":"CZ0646592901","name:cs":"Bohdalice-Pavlovice"},"display_name":"Bohdalice-Pavlovice, okres Vyškov, Jihomoravský kraj, Jihovýchod, Česko","address":{"city":"Bohdalice-Pavlovice","municipality":"okres Vyškov","ISO3166-2-lvl7":"CZ-646","county":"Jihomoravský kraj","ISO3166-2-lvl6":"CZ-64","state":"Jihovýchod","country":"Česko","country_code":"cz"},"population":843,"osm_type":"relation","osm_id":436900,"type":"administrative","location":[17.06515882397355,49.2161981],"bbox":[17.0091272,49.2037628,17.0915282,49.2375021],"inferred_type":"city"}
{"name":"Brada-Rybníček","other_names":{"ref":"CZ0522549100","name:cs":"Brada-Rybníček"},"display_name":"Brada-Rybníček, okres Jičín, Královéhradecký kraj, Severovýchod, Česko","address":{"city":"Brada-Rybníček","municipality":"okres Jičín","ISO3166-2-lvl7":"CZ-522","county":"Královéhradecký kraj","ISO3166-2-lvl6":"CZ-52","state":"Severovýchod","country":"Česko","country_code":"cz"},"population":130,"osm_type":"relation","osm_id":436795,"type":"administrative","location":[15.335019029880966,50.462365950000006],"bbox":[15.3234078,50.4501454,15.3450868,50.4746816],"inferred_type":"city"}
{"name":"Brno","other_names":{"name:am":"ብርኖ","name:ar":"برنو","name:be":"Брно","name:bg":"Бърно","name:ce":"Брно","name:cs":"Brno","name:de":"Brünn","name:el":"Μπρνο","name:fa":"برنو","name:he":"ברנו","name:hu":"Brno","name:hy":"Բռնո","name:ja":"ブルノ","name:ka":"ბრნო","name:kk":"Брно","name:kn":"ಬೃನೋ","name:ko":"브르노","name:kv":"Брно","name:ky":"Брно","name:la":"Bruna","name:lt":"Brno","name:mk":"Брно","name:mn":"Брно","name:mr":"ब्रनो","name:os":"Брно","name:ps":"برنو","name:ru":"Брно","name:sk":"Brno","name:sq":"Bërno","name:sr":"Брно","name:ta":"பிர்னோ","name:tg":"Брно","name:th":"เบอร์โน","name:tt":"Брно","name:uk":"Брно","name:ur":"برنو","name:yi":"ברין","name:zh":"布爾諾","old_name:hu":"Berén"},"display_name":"Brno, okres Brno-město, Jihomoravský kraj, Jihovýchod, Česko","address":{"city":"Brno","municipality":"okres Brno-město","ISO3166-2-lvl7":"CZ-642","county":"Jihomoravský kraj","ISO3166-2-lvl6":"CZ-64","state":"Jihovýchod","country":"Česko","country_code":"cz"},"population":379466,"osm_type":"node","osm_id":1601566699,"type":"city","location":[16.6113382,49.1922443],"bbox":[16.4513382,49.0322443,16.7713382,49.3522443],"border":{"name":"Brno","other_names":{"ref":"CZ0642582786","name:be":"Брно","name:cs":"Brno","name:de":"Brünn","name:hu":"Brünn","name:lt":"Brno","name:ru":"Брно","name:zh":"布爾諾","old_name:cs":"Brnen","old_name:hu":"Berén","name:am":"ብርኖ","name:ar":"برنو","name:bg":"Бърно","name:ce":"Брно","name:el":"Μπρνο","name:fa":"برنو","name:he":"ברנו","name:hy":"Բռնո","name:ja":"ブルノ","name:ka":"ბრნო","name:kk":"Брно","name:kn":"ಬೃನೋ","name:ko":"브르노","name:kv":"Брно","name:ky":"Брно","name:la":"Bruna","name:mk":"Брно","name:mn":"Брно","name:mr":"ब्रनो","name:os":"Брно","name:ps":"برنو","name:sk":"Brno","name:sq":"Bërno","name:sr":"Брно","name:ta":"பிர்னோ","name:tg":"Брно","name:th":"เบอร์โน","name:tt":"Брно","name:uk":"Брно","name:ur":"برنو","name:yi":"ברין","alt:hu":"Brno"},"display_name":"Brno, okres Brno-město, Jihomoravský kraj, Jihovýchod, Česko","address":{"city":"Brno","municipality":"okres Brno-město","ISO3166-2-lvl7":"CZ-642","county":"Jihomoravský kraj","ISO3166-2-lvl6":"CZ-64","state":"Jihovýchod","country":"Česko","country_code":"cz"},"population":380127,"osm_type":"relation","osm_id":438171,"type":"administrative","location":[16.6113382,49.1922443],"bbox":[16.4279898,49.1098796,16.7278346,49.2943708]}}
{"name":"České Budějovice","other_names":{"name:ar":"تشيسكي بوديوفيتسه","name:ba":"Ческе-Будеёвице","name:be":"Чэске-Будзеёвіцы","name:bg":"Ческе Будейовице","name:bn":"চেস্কে বুদেজোভিসে","name:ce":"Ческе-Будеёвице","name:cs":"České Budějovice","name:de":"Budweis","name:el":"Τσέσκε Μπουντεγιόβιτσε","name:en":"České Budějovice","name:es":"České Budějovice","name:fa":"چسکه بودیوویتسه","name:fr":"České Budějovice","name:he":"צ'סקה בודייוביצה","name:hr":"České Budějovice","name:hu":"České Budějovice","name:hy":"Չեսկե Բուդեյովիցե","name:ja":"チェスケー・ブジェヨヴィツェ","name:ka":"ჩესკე-ბუდეიოვიცე","name:kk":"Ческе-Будеёвице","name:ko":"체스케부데요비체","name:la":"Budovicium","name:lt":"Česke Budejovicai","name:lv":"Česke Budejovice","name:mk":"Ческе Будјејовице","name:os":"Ческе-Будеёвице","name:pl":"Czeskie Budziejowice","name:ru":"Ческе-Будеёвице","name:sk":"České Budějovice","name:sl":"Češke Budejovice","name:sr":"Чешке Будјејовице","name:tg":"Ческе-Будейовитсе","name:th":"แช็สแกบูแยโยวิตแซ","name:tt":"Ческе-Будеёвице","name:uk":"Чеські Будейовиці","name:ur":"چسکے بودییوویتسے","name:uz":"Cheskebudeyovitse","name:zh":"捷克布杰约维采","short_name":"Č. Budějovice","alt_name:de":"Böhmisch Budweis"},"display_name":"České Budějovice, okres České Budějovice, Jihočeský kraj, Jihozápad, 37001, Česko","address":{"city":"České Budějovice","municipality":"okres České Budějovice","ISO3166-2-lvl7":"CZ-311","county":"Jihočeský kraj","ISO3166-2-lvl6":"CZ-31","state":"Jihozápad","postcode":"37001","country":"Česko","country_code":"cz"},"population":93426,"osm_type":"node","osm_id":1599120629,"type":"city","location":[14.474285,48.9747357],"bbox":[14.314285,48.8147357,14.634285,49.1347357],"border":{"name":"České Budějovice","other_names":{"ref":"CZ0311544256","name:ar":"تشيسكي بوديوفيتسه","name:be":"Чэске-Будзеёвіцы","name:cs":"České Budějovice","name:de":"Budweis","name:fa":"چسکه بودیوویتسه","name:pl":"Czeskie Budziejowice","name:ru":"Ческе-Будеевице","name:ur":"چسکے بودییوویتسے","alt_name:de":"Böhmisch Budweis","name:ba":"Ческе-Будеёвице","name:bg":"Ческе Будейовице","name:bn":"চেস্কে বুদেজোভিসে","name:ce":"Ческе-Будеёвице","name:el":"Τσέσκε Μπουντεγιόβιτσε","name:en":"České Budějovice","name:es":"České Budějovice","name:fr":"České Budějovice","name:he":"צ'סקה בודייוביצה","name:hr":"České Budějovice","name:hu":"České Budějovice","name:hy":"Չեսկե Բուդեյովիցե","name:ja":"チェスケー・ブジェヨヴィツェ","name:ka":"ჩესკე-ბუდეიოვიცე","name:kk":"Ческе-Будеёвице","name:ko":"체스케부데요비체","name:la":"Budovicium","name:lt":"Česke Budejovicai","name:lv":"Česke Budejovice","name:mk":"Ческе Будјејовице","name:os":"Ческе-Будеёвице","name:sk":"České Budějovice","name:sl":"Češke Budejovice","name:sr":"Чешке Будјејовице","name:tg":"Ческе-Будейовитсе","name:th":"แช็สแกบูแยโยวิตแซ","name:tt":"Ческе-Будеёвице","name:uk":"Чеські Будейовиці","name:uz":"Cheskebudeyovitse","name:zh":"捷克布杰约维采","short_name":"Č. Budějovice","alt:ru":"Ческе-Будеёвице"},"display_name":"České Budějovice, okres České Budějovice, Jihočeský kraj, Jihozápad, Česko","address":{"city":"České Budějovice","municipality":"okres České Budějovice","ISO3166-2-lvl7":"CZ-311","county":"Jihočeský kraj","ISO3166-2-lvl6":"CZ-31","state":"Jihozápad","country":"Česko","country_code":"cz"},"population":94100,"osm_type":"relation","osm_id":437861,"type":"administrative","location":[14.474285,48.9747357],"bbox":[14.3869152,48.9334343,14.5951911,49.0198566]}}
{"name":"Doupovské Hradiště","other_names":{"ref":"CZ0412500127","name:cs":"Doupovské Hradiště"},"display_name":"Doupovské Hradiště, okres Karlovy Vary, Karlovarský kraj, Severozápad, Česko","address":{"city":"Doupovské Hradiště","municipality":"okres Karlovy Vary","ISO3166-2-lvl7":"CZ-412","county":"Karlovarský kraj","ISO3166-2-lvl6":"CZ-41","state":"Severozápad","country":"Česko","country_code":"cz"},"population":158,"osm_type":"relation","osm_id":5834253,"type":"administrative","location":[13.010823094106003,50.23544205],"bbox":[12.9724581,50.194871,13.0399371,50.2759854],"inferred_type":"city","border":{"name":"Doupovské Hradiště","other_names":{"ref":"917940","name:cs":"Doupovské Hradiště"},"display_name":"Doupovské Hradiště, okres Karlovy Vary, Karlovarský kraj, Severozápad, Česko","address":{"suburb":"Doupovské Hradiště","city":"Doupovské Hradiště","municipality":"okres Karlovy Vary","ISO3166-2-lvl7":"CZ-412","county":"Karlovarský kraj","ISO3166-2-lvl6":"CZ-41","state":"Severozápad","country":"Česko","country_code":"cz"},"osm_type":"relation","osm_id":3132437,"type":"administrative","location":[13.010823094106003,50.23544205],"bbox":[12.9724581,50.194871,13.0399371,50.2759854]}}
{"name":"Hradec Králové","other_names":{"name:ar":"هرادتس كرالوفه","name:cs":"Hradec Králové","name:de":"Königgrätz","name:el":"Χράντεκ Κράλοβε","name:fa":"هرادتس کرالووه","name:fr":"Hradec Králové","name:hr":"Hradec Králové","name:hu":"Hradec Králové","name:it":"Hradec Kralovė","name:ja":"フラデツ・クラーロヴェー","name:la":"Reginogradecium","name:lt":"Hradec Kralovė","name:pl":"Hradec Králové","name:ru":"Градец-Кралове","name:sk":"Hradec Kralové","name:sr":"Храдец Кралове","name:uk":"Градець-Кралове","name:ur":"ہرادیتس کرالوے","name:zh":"赫拉德茨-克拉洛韦","alt_name:hu":"Királyvárad","old_name:hr":"Kraljičin Gradac"},"display_name":"Hradec Králové, okres Hradec Králové, Královéhradecký kraj, Severovýchod, Česko","address":{"city":"Hradec Králové","municipality":"okres Hradec Králové","ISO3166-2-lvl7":"CZ-521","county":"Královéhradecký kraj","ISO3166-2-lvl6":"CZ-52","state":"Severovýchod","country":"Česko","country_code":"cz"},"population":90596,"osm_type":"node","osm_id":1586377542,"type":"city","location":[15.8327512,50.2092113],"bbox":[15.6727512,50.0492113,15.9927512,50.3692113],"border":[{"name":"Hradec Králové","other_names":{"ref":"CZ0521569810","name:ar":"هرادتس كرالوفه","name:be":"Градзец-Кралавэ","name:cs":"Hradec Králové","name:de":"Königgrätz","name:fa":"هرادتس کرالووه","name:ru":"Градец-Кралове","name:sk":"Hradec Kralové","name:ur":"ہرادیتس کرالوے","name:el":"Χράντεκ Κράλοβε","name:fr":"Hradec Králové","name:hr":"Hradec Králové","name:hu":"Hradec Králové","name:it":"Hradec Kralovė","name:ja":"フラデツ・クラーロヴェー","name:la":"Reginogradecium","name:lt":"Hradec Kralovė","name:pl":"Hradec Králové","name:sr":"Храдец Кралове","name:uk":"Градець-Кралове","name:zh":"赫拉德茨-克拉洛韦","alt_name:hu":"Királyvárad","old_name:hr":"Kraljičin Gradac"},"display_name":"Hradec Králové, okres Hradec Králové, Královéhradecký kraj, Severovýchod, Česko","address":{"city":"Hradec Králové","municipality":"okres Hradec Králové","ISO3166-2-lvl7":"CZ-521","county":"Královéhradecký kraj","ISO3166-2-lvl6":"CZ-52","state":"Severovýchod","country":"Česko","country_code":"cz"},"population":90457,"osm_type":"relation","osm_id":439071,"type":"administrative","location":[15.8327512,50.2092113],"bbox":[15.7467677,50.1599871,15.9350339,50.2673626]},{"name":"Hradec Králové","other_names":{"ref":"646873","name:cs":"Hradec Králové","name:de":"Altstadt"},"display_name":"Hradec Králové, okres Hradec Králové, Královéhradecký kraj, Severovýchod, Česko","address":{"suburb":"Hradec Králové","city":"Hradec Králové","municipality":"okres Hradec Králové","ISO3166-2-lvl7":"CZ-521","county":"Královéhradecký kraj","ISO3166-2-lvl6":"CZ-52","state":"Severovýchod","country":"Česko","country_code":"cz"},"osm_type":"relation","osm_id":433368,"type":"administrative","location":[15.833324420152948,50.21055935],"bbox":[15.8145239,50.1999113,15.851479,50.2214061]}]}
{"name":"Hradiště","other_names":{"ref":"CZ0412555177","name:cs":"Hradiště","name:de":"Höfen","name:he":"הרי הארץ"},"display_name":"Hradiště, okres Karlovy Vary, Karlovarský kraj, Severozápad, Česko","address":{"city":"Hradiště","municipality":"okres Karlovy Vary","ISO3166-2-lvl7":"CZ-412","county":"Karlovarský kraj","ISO3166-2-lvl6":"CZ-41","state":"Severozápad","country":"Česko","country_code":"cz"},"population":0,"osm_type":"relation","osm_id":439469,"type":"administrative","location":[13.130000092623396,50.2622398],"bbox":[13.0044854,50.1629011,13.255485,50.3614953],"inferred_type":"city"}
{"name":"Hřibiny-Ledská","other_names":{"ref":"CZ0524548642","name:cs":"Hřibiny-Ledská"},"display_name":"Hřibiny-Ledská, okres Rychnov nad Kněžnou, Královéhradecký kraj, Severovýchod, Česko","address":{"city":"Hřibiny-Ledská","municipality":"okres Rychnov nad Kněžnou","ISO3166-2-lvl7":"CZ-524","county":"Královéhradecký kraj","ISO3166-2-lvl6":"CZ-52","state":"Severovýchod","country":"Česko","country_code":"cz"},"population":341,"osm_type":"relation","osm_id":436787,"type":"administrative","location":[16.17788772867145,50.1545584],"bbox":[16.1603184,50.1364479,16.1928571,50.1725393],"inferred_type":"city"}
{"name":"Hvězdlice","other_names":{"ref":"CZ0646593087","name:cs":"Hvězdlice"},"display_name":"Hvězdlice, okres Vyškov, Jihomoravský kraj, Jihovýchod, 683 41, Česko","address":{"city":"Hvězdlice","municipality":"okres Vyškov","ISO3166-2-lvl7":"CZ-646","county":"Jihomoravský kraj","ISO3166-2-lvl6":"CZ-64","state":"Jihovýchod","postcode":"683 41","country":"Česko","country_code":"cz"},"population":597,"osm_type":"relation","osm_id":436878,"type":"administrative","location":[17.081638520073994,49.2002368],"bbox":[17.0417276,49.1822861,17.1142629,49.2180526],"inferred_type":"city"}
{"name":"Jihlava","other_names":{"name:ar":"يهلافا","name:cs":"Jihlava","name:de":"Iglau","name:el":"Γίχλαβα","name:fa":"ییهلاوا","name:hu":"Jihlava","name:la":"Iglavia","name:pl":"Igława","name:ru":"Йиглава","name:uk":"Їглава","name:ur":"ییہلاوا"},"display_name":"Jihlava, okres Jihlava, Kraj Vysočina, Jihovýchod, Česko","address":{"city":"Jihlava","municipality":"okres Jihlava","ISO3166-2-lvl7":"CZ-632","county":"Kraj Vysočina","ISO3166-2-lvl6":"CZ-63","state":"Jihovýchod","country":"Česko","country_code":"cz"},"population":50108,"osm_type":"node","osm_id":21562694,"type":"city","location":[15.5903065,49.396064],"bbox":[15.4303065,49.236064,15.7503065,49.556064],"border":[{"name":"Jihlava","other_names":{"ref":"CZ0632586846","name:ar":"يهلافا","name:cs":"Jihlava","name:de":"Iglau","name:fa":"ییهلاوا","name:ru":"Йиглава","name:ur":"ییہلاوا","old_name:cs":"Gyglaua","name:el":"Γίχλαβα","name:hu":"Jihlava","name:la":"Iglavia","name:pl":"Igława","name:uk":"Їглава"},"display_name":"Jihlava, okres Jihlava, Kraj Vysočina, Jihovýchod, Česko","address":{"city":"Jihlava","municipality":"okres Jihlava","ISO3166-2-lvl7":"CZ-632","county":"Kraj Vysočina","ISO3166-2-lvl6":"CZ-63","state":"Jihovýchod","country":"Česko","country_code":"cz"},"population":50132,"osm_type":"relation","osm_id":440427,"type":"administrative","location":[15.5903065,49.396064],"bbox":[15.4983126,49.3339378,15.6623498,49.4759228]},{"name":"Jihlava","other_names":{"ref":"659673","name:ar":"يهلافا","name:cs":"Jihlava","name:fa":"ییهلاوا","name:ur":"ییہلاوا"},"display_name":"Jihlava, okres Jihlava, Kraj Vysočina, Jihovýchod, Česko","address":{"suburb":"Jihlava","city":"Jihlava","municipality":"okres Jihlava","ISO3166-2-lvl7":"CZ-632","county":"Kraj Vysočina","ISO3166-2-lvl6":"CZ-63","state":"Jihovýchod","country":"Česko","country_code":"cz"},"osm_type":"relation","osm_id":427436,"type":"administrative","location":[15.590350240383003,49.40218405],"bbox":[15.5358453,49.3716423,15.6150869,49.4327241]}]}
{"name":"Karlovy Vary","other_names":{"name:ar":"كارلوفي فاري","name:az":"Karlovı Varı","name:ba":"Карловы Вары","name:be":"Карлавы Вары","name:bg":"Карлови Вари","name:ce":"Карловы Вары","name:cs":"Karlovy Vary","name:de":"Karlsbad","name:el":"Κάρλοβυ Βάρυ","name:en":"Karlovy Vary","name:fa":"کارلووی واری","name:fr":"Carlsbad","name:he":"קרלובי וארי","name:hy":"Կառլովի Վարի","name:ja":"カルロヴィ・ヴァリ","name:ka":"კარლოვი-ვარი","name:ko":"카를로비바리","name:la":"Thermae Carolinae","name:lt":"Karlovi Varai","name:lv":"Karlovi Vari","name:mk":"Карлови Вари","name:nl":"Karlsbad","name:os":"Карловы Вары","name:pl":"Karlowe Wary","name:ps":"کارلوی واری","name:ru":"Карловы Вары","name:sk":"Karlove Vary","name:sl":"Karlovi Vari","name:sr":"Карлове Вари","name:tg":"Карлови Вари","name:th":"การ์โลวีวารี","name:tt":"Карловы-Вары","name:uk":"Карлові Вари","name:ur":"کارلووی واری","name:zh":"卡罗维发利","alt_name":"Carlsbad","int_name":"Karlovy Vary","alt_name:he":"קרלסבאד"},"display_name":"Karlovy Vary, okres Karlovy Vary, Karlovarský kraj, Severozápad, Česko","address":{"city":"Karlovy Vary","municipality":"okres Karlovy Vary","ISO3166-2-lvl7":"CZ-412","county":"Karlovarský kraj","ISO3166-2-lvl6":"CZ-41","state":"Severozápad","country":"Česko","country_code":"cz"},"population":49353,"osm_type":"node","osm_id":1599050315,"type":"city","location":[12.8701437,50.2306216],"bbox":[12.7101437,50.0706216,13.0301437,50.3906216],"border":[{"name":"Karlovy Vary","other_names":{"ref":"CZ0412554961","name:ar":"كارلوفي فاري","name:be":"Карлавы Вары","name:cs":"Karlovy Vary","name:de":"Karlsbad","name:fa":"کارلووی واری","name:fr":"Carlsbad","name:ko":"카를로비바리","name:nl":"Karlsbad","name:ur":"کارلووی واری","name:zh":"卡罗维发利","name:az":"Karlovı Varı","name:ba":"Карловы Вары","name:bg":"Карлови Вари","name:ce":"Карловы Вары","name:el":"Κάρλοβυ Βάρυ","name:en":"Karlovy Vary","name:he":"קרלובי וארי","name:hy":"Կառլովի Վարի","name:ja":"カルロヴィ・ヴァリ","name:ka":"კარლოვი-ვარი","name:la":"Thermae Carolinae","name:lt":"Karlovi Varai","name:lv":"Karlovi Vari","name:mk":"Карлови Вари","name:os":"Карловы Вары","name:pl":"Karlowe Wary","name:ps":"کارلوی واری","name:ru":"Карловы Вары","name:sk":"Karlove Vary","name:sl":"Karlovi Vari","name:sr":"Карлове Вари","name:tg":"Карлови Вари","name:th":"การ์โลวีวารี","name:tt":"Карловы-Вары","name:uk":"Карлові Вари","alt_name":"Carlsbad","int_name":"Karlovy Vary","alt_name:he":"קרלסבאד"},"display_name":"Karlovy Vary, okres Karlovy Vary, Karlovarský kraj, Severozápad, Česko","address":{"city":"Karlovy Vary","municipality":"okres Karlovy Vary","ISO3166-2-lvl7":"CZ-412","county":"Karlovarský kraj","ISO3166-2-lvl6":"CZ-41","state":"Severozápad","country":"Česko","country_code":"cz"},"population":52065,"osm_type":"relation","osm_id":439482,"type":"administrative","location":[12.8701437,50.2306216],"bbox":[12.784855,50.1669377,12.9439763,50.266775]},{"name":"Karlovy Vary","other_names":{"ref":"663433","name:cs":"Karlovy Vary","name:de":"Karlsbad","name:fr":"Carlsbad"},"display_name":"Karlovy Vary, okres Karlovy Vary, Karlovarský kraj, Severozápad, Česko","address":{"suburb":"Karlovy Vary","city":"Karlovy Vary","municipality":"okres Karlovy Vary","ISO3166-2-lvl7":"CZ-412","county":"Karlovarský kraj","ISO3166-2-lvl6":"CZ-41","state":"Severozápad","country":"Česko","country_code":"cz"},"osm_type":"relation","osm_id":425779,"type":"administrative","location":[12.86982384303787,50.2185446],"bbox":[12.8303231,50.1956765,12.9296561,50.2413762]}]}
{"name":"Krhová","other_names":{"ref":"CZ0723500062","name:cs":"Krhová"},"display_name":"Krhová, okres Vsetín, Zlínský kraj, Střední Morava, 756 63, Česko","address":{"city":"Krhová","municipality":"okres Vsetín","ISO3166-2-lvl7":"CZ-723","county":"Zlínský kraj","ISO3166-2-lvl6":"CZ-72","state":"Střední Morava","postcode":"756 63","country":"Česko","country_code":"cz"},"population":1994,"osm_type":"relation","osm_id":2980517,"type":"administrative","location":[18.007677211032245,49.49406925],"bbox":[17.9864072,49.4764243,18.0341032,49.5117069],"inferred_type":"city","border":{"name":"Krhová","other_names":{"ref":"776505","name:cs":"Krhová"},"display_name":"Krhová, okres Vsetín, Zlínský kraj, Střední Morava, 756 63, Česko","address":{"suburb":"Krhová","city":"Krhová","municipality":"okres Vsetín","ISO3166-2-lvl7":"CZ-723","county":"Zlínský kraj","ISO3166-2-lvl6":"CZ-72","state":"Střední Morava","postcode":"756 63","country":"Česko","country_code":"cz"},"osm_type":"relation","osm_id":431469,"type":"administrative","location":[17.993791,49.4842989],"bbox":[17.9864072,49.4764243,18.0341032,49.5117069]}}
{"name":"Liberec","other_names":{"name:ar":"ليبيريتس","name:cs":"Liberec","name:de":"Reichenberg","name:el":"Λίμπερετς","name:fa":"لیبرتس","name:he":"ליברץ","name:la":"Libercum","name:lt":"Liberecas","name:ru":"Либерец","name:sr":"Либерец","name:uk":"Ліберець","name:ur":"لیبرتس","name:hsb":"Liberec","old_name:la":"Reichenberga"},"display_name":"Liberec, okres Liberec, Liberecký kraj, Severovýchod, Česko","address":{"city":"Liberec","municipality":"okres Liberec","ISO3166-2-lvl7":"CZ-513","county":"Liberecký kraj","ISO3166-2-lvl6":"CZ-51","state":"Severovýchod","country":"Česko","country_code":"cz"},"population":102951,"osm_type":"node","osm_id":1587363366,"type":"city","location":[15.0583947,50.7702648],"bbox":[14.8983947,50.6102648,15.2183947,50.9302648],"border":[{"name":"Liberec","other_names":{"ref":"CZ0513563889","name:ar":"ليبيريتس","name:be":"Ліберац","name:cs":"Liberec","name:de":"Reichenberg","name:fa":"لیبرتس","name:ru":"Либерец","name:ur":"لیبرتس","name:el":"Λίμπερετς","name:he":"ליברץ","name:la":"Libercum","name:lt":"Liberecas","name:sr":"Либерец","name:uk":"Ліберець","name:hsb":"Liberec","old_name:la":"Reichenberga"},"display_name":"Liberec, okres Liberec, Liberecký kraj, Severovýchod, Česko","address":{"city":"Liberec","municipality":"okres Liberec","ISO3166-2-lvl7":"CZ-513","county":"Liberecký kraj","ISO3166-2-lvl6":"CZ-51","state":"Severovýchod","country":"Česko","country_code":"cz"},"population":103415,"osm_type":"relation","osm_id":439073,"type":"administrative","location":[15.0583947,50.7702648],"bbox":[14.9529697,50.7079791,15.1468816,50.8243417]},{"name":"Liberec","other_names":{"ref":"682039","name:cs":"Liberec"},"display_name":"Liberec, okres Liberec, Liberecký kraj, Severovýchod, Česko","address":{"suburb":"Liberec","city":"Liberec","municipality":"okres Liberec","ISO3166-2-lvl7":"CZ-513","county":"Liberecký kraj","ISO3166-2-lvl6":"CZ-51","state":"Severovýchod","country":"Česko","country_code":"cz"},"osm_type":"relation","osm_id":430491,"type":"administrative","location":[15.064300336724564,50.7681847],"bbox":[15.029089,50.7540579,15.0862443,50.7823093]}]}
{"name":"Olomouc","other_names":{"name:ar":"أولوموتس","name:cs":"Olomouc","name:de":"Olmütz","name:el":"Όλομουτς","name:fa":"اولوموتس","name:hu":"Alamóc","name:ko":"올로모우츠","name:la":"Olomucium","name:lt":"Olomoucas","name:ml":"ഒലോമുട്ട്സ്","name:pl":"Ołomuniec","name:ru":"Оломоуц","name:sr":"Оломоуц","name:uk":"Оломоуц","name:ur":"اولوموتس","alt_name:hr":"Olmic","alt_name:sr":"Олмиц"},"display_name":"Olomouc, okres Olomouc, Olomoucký kraj, Střední Morava, Česko","address":{"city":"Olomouc","municipality":"okres Olomouc","ISO3166-2-lvl7":"CZ-712","county":"Olomoucký kraj","ISO3166-2-lvl6":"CZ-71","state":"Střední Morava","country":"Česko","country_code":"cz"},"population":99496,"osm_type":"node","osm_id":1599305717,"type":"city","location":[17.251143,49.5940567],"bbox":[17.091143,49.4340567,17.411143,49.7540567],"border":{"name":"Olomouc","other_names":{"ref":"CZ0712500496","name:ar":"أولوموتس","name:be":"Оламаўц","name:cs":"Olomouc","name:de":"Olmütz","name:fa":"اولوموتس","name:hu":"Alamóc","name:ru":"Оломоуц","name:ur":"اولوموتس","name:szl":"Olmic","name:el":"Όλομουτς","name:ko":"올로모우츠","name:la":"Olomucium","name:lt":"Olomoucas","name:ml":"ഒലോമുട്ട്സ്","name:pl":"Ołomuniec","name:sr":"Оломоуц","name:uk":"Оломоуц","alt_name:hr":"Olmic","alt_name:sr":"Олмиц"},"display_name":"Olomouc, okres Olomouc, Olomoucký kraj, Střední Morava, Česko","address":{"city":"Olomouc","municipality":"okres Olomouc","ISO3166-2-lvl7":"CZ-712","county":"Olomoucký kraj","ISO3166-2-lvl6":"CZ-71","state":"Střední Morava","country":"Česko","country_code":"cz"},"population":99604,"osm_type":"relation","osm_id":437057,"type":"administrative","location":[17.251143,49.5940567],"bbox":[17.1621222,49.5346988,17.396068,49.6619655]}}
{"name":"Ostrava","other_names":{"name:ar":"أوسترافا","name:cs":"Ostrava","name:de":"Ostrau","name:el":"Οστράβα","name:fa":"استراوا","name:la":"Ostravia","name:ml":"ഒസ്ട്രാവ","name:pl":"Ostrawa","name:ru":"Острава","name:sr":"Острава","name:uk":"Острава","name:ur":"اوستراوا"},"display_name":"Ostrava, okres Ostrava-město, Moravskoslezský kraj, Moravskoslezsko, Česko","address":{"city":"Ostrava","municipality":"okres Ostrava-město","ISO3166-2-lvl7":"CZ-806","county":"Moravskoslezský kraj","ISO3166-2-lvl6":"CZ-80","state":"Moravskoslezsko","country":"Česko","country_code":"cz"},"population":279791,"osm_type":"node","osm_id":1601523251,"type":"city","location":[18.2820084,49.8349139],"bbox":[18.1220084,49.6749139,18.4420084,49.9949139],"border":{"name":"Ostrava","other_names":{"ref":"CZ0806554821","name:ar":"أوسترافا","name:be":"Острава","name:bg":"Острава","name:ce":"Острава","name:cs":"Ostrava","name:de":"Ostrau","name:el":"Οστράβα","name:fa":"استراوا","name:he":"אוסטרבה","name:ja":"オストラヴァ","name:ka":"ოსტრავა","name:kk":"Острава","name:ko":"오스트라바","name:la":"Ostravia","name:mk":"Острава","name:mr":"ओस्त्राव्हा","name:pl":"Ostrawa","name:ps":"اوستراوا","name:ru":"Острава","name:sr":"Острава","name:tg":"Острава","name:th":"ออสตราวา","name:uk":"Острава","name:ur":"اوستراوا","name:zh":"俄斯特拉发","name:szl":"Ôstrawa","name:ml":"ഒസ്ട്രാവ"},"display_name":"Ostrava, okres Ostrava-město, Moravskoslezský kraj, Moravskoslezsko, Česko","address":{"city":"Ostrava","municipality":"okres Ostrava-město","ISO3166-2-lvl7":"CZ-806","county":"Moravskoslezský kraj","ISO3166-2-lvl6":"CZ-80","state":"Moravskoslezsko","country":"Česko","country_code":"cz"},"population":304880,"osm_type":"relation","osm_id":437354,"type":"administrative","location":[18.2820084,49.8349139],"bbox":[18.098411,49.7257571,18.3762911,49.9137759]}}
{"name":"Ostrovec-Lhotka","other_names":{"ref":"CZ0326566993","name:cs":"Ostrovec-Lhotka","name:de":"Wostrowetz-Lhotka"},"display_name":"Ostrovec-Lhotka, okres Rokycany, Plzeňský kraj, Jihozápad, Česko","address":{"city":"Ostrovec-Lhotka","municipality":"okres Rokycany","ISO3166-2-lvl7":"CZ-326","county":"Plzeňský kraj","ISO3166-2-lvl6":"CZ-32","state":"Jihozápad","country":"Česko","country_code":"cz"},"population":108,"osm_type":"relation","osm_id":436633,"type":"administrative","location":[13.751806684241885,49.9206578],"bbox":[13.7039775,49.8978212,13.8089759,49.9435481],"inferred_type":"city"}
{"name":"Pardubice","other_names":{"name:ar":"باردوبيتسه","name:cs":"Pardubice","name:de":"Pardubitz","name:el":"Παρντουμπίτσε","name:fa":"پاردوبیتسه","name:he":"פרדוביצה","name:la":"Pardibus","name:lt":"Pardubicės","name:ru":"Пардубице","name:sr":"Пардубице","name:uk":"Пардубіце","name:ur":"پاردوبیتسے"},"display_name":"Pardubice, okres Pardubice, Pardubický kraj, Severovýchod, Česko","address":{"city":"Pardubice","municipality":"okres Pardubice","ISO3166-2-lvl7":"CZ-532","county":"Pardubický kraj","ISO3166-2-lvl6":"CZ-53","state":"Severovýchod","country":"Česko","country_code":"cz"},"population":88520,"osm_type":"node","osm_id":1585113445,"type":"city","location":[15.7791356,50.0385812],"bbox":[15.6191356,49.8785812,15.9391356,50.1985812],"border":[{"name":"Pardubice","other_names":{"ref":"CZ0532555134","name:ar":"باردوبيتسه","name:cs":"Pardubice","name:de":"Pardubitz","name:fa":"پاردوبیتسه","name:ru":"Пардубице","name:ur":"پاردوبیتسے","name:el":"Παρντουμπίτσε","name:he":"פרדוביצה","name:la":"Pardibus","name:lt":"Pardubicės","name:sr":"Пардубице","name:uk":"Пардубіце"},"display_name":"Pardubice, okres Pardubice, Pardubický kraj, Severovýchod, Česko","address":{"city":"Pardubice","municipality":"okres Pardubice","ISO3166-2-lvl7":"CZ-532","county":"Pardubický kraj","ISO3166-2-lvl6":"CZ-53","state":"Severovýchod","country":"Česko","country_code":"cz"},"population":87625,"osm_type":"relation","osm_id":440145,"type":"administrative","location":[15.7791356,50.0385812],"bbox":[15.6249984,49.9924553,15.8917673,50.0774041]},{"name":"Pardubice","other_names":{"ref":"717657","name:cs":"Pardubice","name:de":"Pardubitz"},"display_name":"Pardubice, okres Pardubice, Pardubický kraj, Severovýchod, Česko","address":{"suburb":"Pardubice","city":"Pardubice","municipality":"okres Pardubice","ISO3166-2-lvl7":"CZ-532","county":"Pardubický kraj","ISO3166-2-lvl6":"CZ-53","state":"Severovýchod","country":"Česko","country_code":"cz"},"osm_type":"relation","osm_id":432827,"type":"administrative","location":[15.772175133599298,50.038673],"bbox":[15.7380432,50.013995,15.8419713,50.0633445]}]}
{"name":"Paseky nad Jizerou","other_names":{"ref":"CZ0514547476","name:cs":"Paseky nad Jizerou"},"display_name":"Paseky nad Jizerou, okres Semily, Liberecký kraj, Severovýchod, 512 47, Česko","address":{"city":"Paseky nad Jizerou","municipality":"okres Semily","ISO3166-2-lvl7":"CZ-514","county":"Liberecký kraj","ISO3166-2-lvl6":"CZ-51","state":"Severovýchod","postcode":"512 47","country":"Česko","country_code":"cz"},"population":244,"osm_type":"relation","osm_id":438969,"type":"administrative","location":[15.393650608939103,50.7392156],"bbox":[15.3668489,50.7168323,15.4226146,50.7617829],"inferred_type":"city","border":{"name":"Paseky nad Jizerou","other_names":{"ref":"718203","name:cs":"Paseky nad Jizerou"},"display_name":"Paseky nad Jizerou, okres Semily, Liberecký kraj, Severovýchod, 512 47, Česko","address":{"suburb":"Paseky nad Jizerou","city":"Paseky nad Jizerou","municipality":"okres Semily","ISO3166-2-lvl7":"CZ-514","county":"Liberecký kraj","ISO3166-2-lvl6":"CZ-51","state":"Severovýchod","postcode":"512 47","country":"Česko","country_code":"cz"},"population":256,"osm_type":"relation","osm_id":430530,"type":"administrative","location":[15.3996026,50.7251192],"bbox":[15.3668489,50.7168323,15.4226146,50.7617829]}}
{"name":"Plzeň","other_names":{"name:af":"Pilsen","name:ar":"بلزن","name:az":"Plzen","name:ba":"Пльзень","name:be":"Пльзень","name:bg":"Пилзен","name:ce":"Пльзень","name:cs":"Plzeň","name:cy":"Pilsen","name:de":"Pilsen","name:el":"Πίλζεν","name:en":"Pilsen","name:eo":"Pilzeno","name:es":"Pilsen","name:eu":"Pilsen","name:fa":"پلزن","name:fr":"Pilsen","name:fy":"Pilsen","name:he":"פלזן","name:hu":"Pilzen","name:hy":"Պլզեն","name:ja":"プルゼニ","name:jv":"Pilzno","name:ka":"პლზენი","name:kk":"Пльзен","name:ko":"플젠","name:ky":"Пльзень","name:la":"Pilsna","name:lt":"Pilzenas","name:lv":"Plzeņa","name:mk":"П’лзењ","name:mr":"पेलजाईन","name:nl":"Pilsen","name:os":"Пльзень","name:pl":"Pilzno","name:ps":"پلزېن","name:ru":"Пльзень","name:sl":"Plzen","name:sr":"Плзењ","name:tg":"Плзен","name:th":"เปิลแซ็ญ","name:tr":"Pilsen","name:tt":"Пльзень","name:uk":"Пльзень","name:ur":"پلزین","name:yi":"פילזען","name:zh":"比尔森","int_name":"Pilsen","name:hsb":"Pilzeń","nat_name":"Plzeň","alt_name:la":"Pilsenum;Pilsena"},"display_name":"Plzeň, okres Plzeň-město, Plzeňský kraj, Jihozápad, 30100, Česko","address":{"city":"Plzeň","municipality":"okres Plzeň-město","ISO3166-2-lvl7":"CZ-323","county":"Plzeňský kraj","ISO3166-2-lvl6":"CZ-32","state":"Jihozápad","postcode":"30100","country":"Česko","country_code":"cz"},"population":185599,"osm_type":"node","osm_id":32666229,"type":"city","location":[13.3775249,49.7477415],"bbox":[13.2175249,49.5877415,13.5375249,49.9077415],"border":[{"name":"Plzeň","other_names":{"ref":"CZ0323554791","name:ar":"بلزن","name:be":"Пльзень","name:cs":"Plzeň","name:de":"Pilsen","name:es":"Pilsen","name:fa":"پلزن","name:fr":"Pilsen","name:nl":"Pilsen","name:pl":"Pilzno","name:ur":"پلزین","name:af":"Pilsen","name:az":"Plzen","name:ba":"Пльзень","name:bg":"Пилзен","name:ce":"Пльзень","name:cy":"Pilsen","name:el":"Πίλζεν","name:en":"Pilsen","name:eo":"Pilzeno","name:eu":"Pilsen","name:fy":"Pilsen","name:he":"פלזן","name:hu":"Pilzen","name:hy":"Պլզեն","name:ja":"プルゼニ","name:jv":"Pilzno","name:ka":"პლზენი","name:kk":"Пльзен","name:ko":"플젠","name:ky":"Пльзень","name:la":"Pilsna","name:lt":"Pilzenas","name:lv":"Plzeņa","name:mk":"П’лзењ","name:mr":"पेलजाईन","name:os":"Пльзень","name:ps":"پلزېن","name:ru":"Пльзень","name:sl":"Plzen","name:sr":"Плзењ","name:tg":"Плзен","name:th":"เปิลแซ็ญ","name:tr":"Pilsen","name:tt":"Пльзень","name:uk":"Пльзень","name:yi":"פילזען","name:zh":"比尔森","int_name":"Pilsen","name:hsb":"Pilzeń","nat_name":"Plzeň","alt_name:la":"Pilsenum;Pilsena"},"display_name":"Plzeň, okres Plzeň-město, Plzeňský kraj, Jihozápad, Česko","address":{"city":"Plzeň","municipality":"okres Plzeň-město","ISO3166-2-lvl7":"CZ-323","county":"Plzeňský kraj","ISO3166-2-lvl6":"CZ-32","state":"Jihozápad","country":"Česko","country_code":"cz"},"population":168951,"osm_type":"relation","osm_id":438344,"type":"administrative","location":[13.3775249,49.7477415],"bbox":[13.2679878,49.6776013,13.4758418,49.8057641]},{"name":"Plzeň","other_names":{"ref":"721981","name:ar":"بلزن","name:cs":"Plzeň","name:de":"Pilsen"},"display_name":"Plzeň, Plzeň 3, Plzeň, okres Plzeň-město, Plzeňský kraj, Jihozápad, Česko","address":{"suburb":"Plzeň","city_district":"Plzeň 3","city":"Plzeň","municipality":"okres Plzeň-město","ISO3166-2-lvl7":"CZ-323","county":"Plzeňský kraj","ISO3166-2-lvl6":"CZ-32","state":"Jihozápad","country":"Česko","country_code":"cz"},"osm_type":"relation","osm_id":424270,"type":"administrative","location":[13.378013301889663,49.74633155],"bbox":[13.3327373,49.7171633,13.4182487,49.7754621]}]}
{"name":"Podlesí","other_names":{"ref":"CZ020B564486","name:cs":"Podlesí"},"display_name":"Podlesí, okres Příbram, Střední Čechy, Česko","address":{"city":"Podlesí","municipality":"okres Příbram","ISO3166-2-lvl7":"CZ-20B","state":"Střední Čechy","ISO3166-2-lvl4":"CZ-20","country":"Česko","country_code":"cz"},"population":1050,"osm_type":"relation","osm_id":436682,"type":"administrative","location":[13.969971424776585,49.69503095],"bbox":[13.9484424,49.6798636,13.9846611,49.7099189],"inferred_type":"city"}
{"name":"Praha","other_names":{"name:af":"Praag","name:ak":"Prague","name:am":"ፕራግ","name:an":"Praga","name:ar":"براغ","name:as":"প্ৰাগ","name:av":"Прага","name:az":"Praqa","name:ba":"Прага","name:be":"Прага","name:bg":"Прага","name:bi":"Prague","name:bn":"প্রাগ","name:bo":"པུ་ལ་ཁེ།","name:br":"Praha","name:bs":"Prag","name:ca":"Praga","name:ce":"Прага","name:ch":"Praga","name:co":"Praga","name:cs":"Praha","name:cu":"Прага","name:cv":"Прага","name:cy":"Prag","name:da":"Prag","name:de":"Prag","name:ee":"Prague","name:el":"Πράγα","name:en":"Prague","name:eo":"Prago","name:es":"Praga","name:et":"Praha","name:eu":"Praga","name:fa":"پراگ","name:ff":"Prague","name:fi":"Praha","name:fo":"Prag","name:fr":"Prague","name:fy":"Praach","name:ga":"Prág","name:gd":"Pràg","name:gl":"Praga","name:gn":"Praga","name:gv":"Praag","name:ha":"Prag","name:he":"פראג","name:hi":"प्राग","name:hr":"Prag","name:ht":"Prag","name:hu":"Prága","name:hy":"Պրահա","name:ia":"Praga","name:id":"Praha","name:ie":"Praha","name:io":"Praha","name:is":"Prag","name:it":"Praga","name:ja":"プラハ","name:jv":"Praha","name:ka":"პრაღა","name:kg":"Prague","name:kk":"Прага","name:kl":"Praha","name:km":"ទីក្រុងប្រាក","name:kn":"ಪ್ರಾಗ","name:ko":"프라하","name:ku":"Prag","name:kv":"Прага","name:kw":"Praha","name:ky":"Прага","name:la":"Praga","name:lb":"Prag","name:li":"Praag","name:ln":"Prag","name:lo":"ປຣາກ","name:lt":"Praha","name:lv":"Prāga","name:mg":"Prague","name:mi":"Prague","name:mk":"Прага","name:ml":"പ്രാഗ്","name:mn":"Прага","name:mr":"प्राग","name:ms":"Praha","name:mt":"Praga","name:my":"ပရက်ဂ်မြို့","name:na":"Praha","name:ne":"प्राग","name:nl":"Praag","name:nn":"Praha","name:no":"Praha","name:nv":"Tóʼnaa Habitiin","name:oc":"Praga","name:os":"Прагæ","name:pa":"ਪਰਾਗ","name:pl":"Praga","name:ps":"پراګ","name:pt":"Praga","name:qu":"Praha","name:rm":"Prag","name:ro":"Praga","name:ru":"Прага","name:sc":"Praga","name:sd":"پراگ","name:se":"Praha","name:sh":"Prag","name:sk":"Praha","name:sl":"Praga","name:sn":"Prague","name:sq":"Praga","name:sr":"Праг","name:sv":"Prag","name:sw":"Praha","name:ta":"பிராகா","name:te":"ప్రాగ్","name:tg":"Прага","name:th":"ปราก","name:tl":"Praga","name:tr":"Prag","name:tt":"Праһа","name:ug":"پراگا","name:uk":"Прага","name:ur":"پراگ","name:uz":"Praga","name:vi":"Praha","name:wo":"Prag","name:yi":"פראג","name:yo":"Prague","name:zh":"布拉格","name:zu":"IPraha","name:arc":"ܦܪܐܓ","name:arz":"براج","name:ast":"Praga","name:ckb":"پراگ","name:csb":"Praga","name:dsb":"Praha","name:ext":"Praga","name:gag":"Praga","name:hif":"Prague","name:hsb":"Praha","name:jbo":"pragas","name:kab":"Prag","name:krc":"Прага","name:lad":"Praga","name:lij":"Praga","name:lmo":"Praga","name:mdf":"Прага","name:mhr":"Прага","name:mzn":"پراگ","name:nah":"Praha","name:nan":"Praha","name:nap":"Praga","name:nds":"Prag","name:nov":"Praha","name:nrm":"Prague","name:pam":"Prague","name:pcd":"Prague","name:pms":"Praga","name:pnb":"پراگ","name:rmy":"Praga","name:sah":"Прага","name:sco":"Prague","name:stq":"Praag","name:szl":"Praga","name:tzl":"Praha","name:udm":"Прага","name:vec":"Praga","name:vro":"Praha","name:war":"Praga","name:yue":"布拉格","ISO3166-2":"CZ-PR","name:nds-nl":"Praag","name:bat-smg":"Praha","name:roa-rup":"Praga","name:sr-Latn":"Prag","name:roa-tara":"Praghe","name:be-tarask":"Прага"},"display_name":"Praha, Hlavní město Praha, Praha, Česko","address":{"city":"Praha","ISO3166-2-lvl2":"CZ-PR","ISO3166-2-lvl6":"CZ-10","state":"Praha","country":"Česko","country_code":"cz"},"population":1275406,"osm_type":"node","osm_id":1601837931,"type":"city","location":[14.4212535,50.0874654],"bbox":[14.2612535,49.9274654,14.5812535,50.2474654],"border":[{"name":"Hlavní město Praha","other_names":{"ref":"PR","name:cs":"Hlavní město Praha","name:da":"Hovedstaden Prag","name:de":"Hauptstadt Prag","name:en":"Capital City of Prague","name:eo":"Ĉefurba regiono Prago","name:fr":"Capitale de Prague","name:hu":"Prága főváros","name:pl":"Miasto Stołeczne Praga","name:ru":"Столица Прага","name:sk":"Hlavné mesto Praha","ISO3166-2":"CZ-10","name:af":"Praag","name:ak":"Prague","name:am":"ፕራግ","name:an":"Praga","name:ar":"براغ","name:as":"প্ৰাগ","name:av":"Прага","name:az":"Praqa","name:ba":"Прага","name:be":"Прага","name:bg":"Прага","name:bi":"Prague","name:bn":"প্রাগ","name:bo":"པུ་ལ་ཁེ།","name:br":"Praha","name:bs":"Prag","name:ca":"Praga","name:ce":"Прага","name:ch":"Praga","name:co":"Praga","name:cu":"Прага","name:cv":"Прага","name:cy":"Prag","name:ee":"Prague","name:el":"Πράγα","name:es":"Praga","name:et":"Praha","name:eu":"Praga","name:fa":"پراگ","name:ff":"Prague","name:fi":"Praha","name:fo":"Prag","name:fy":"Praach","name:ga":"Prág","name:gd":"Pràg","name:gl":"Praga","name:gn":"Praga","name:gv":"Praag","name:ha":"Prag","name:he":"פראג","name:hi":"प्राग","name:hr":"Prag","name:ht":"Prag","name:hy":"Պրահա","name:ia":"Praga","name:id":"Praha","name:ie":"Praha","name:io":"Praha","name:is":"Prag","name:it":"Praga","name:ja":"プラハ","name:jv":"Praha","name:ka":"პრაღა","name:kg":"Prague","name:kk":"Прага","name:kl":"Praha","name:km":"ទីក្រុងប្រាក","name:kn":"ಪ್ರಾಗ","name:ko":"프라하","name:ku":"Prag","name:kv":"Прага","name:kw":"Praha","name:ky":"Прага","name:la":"Praga","name:lb":"Prag","name:li":"Praag","name:ln":"Prag","name:lo":"ປຣາກ","name:lt":"Praha","name:lv":"Prāga","name:mg":"Prague","name:mi":"Prague","name:mk":"Прага","name:ml":"പ്രാഗ്","name:mn":"Прага","name:mr":"प्राग","name:ms":"Praha","name:mt":"Praga","name:my":"ပရက်ဂ်မြို့","name:na":"Praha","name:ne":"प्राग","name:nl":"Praag","name:nn":"Praha","name:no":"Praha","name:nv":"Tóʼnaa Habitiin","name:oc":"Praga","name:os":"Прагæ","name:pa":"ਪਰਾਗ","name:ps":"پراګ","name:pt":"Praga","name:qu":"Praha","name:rm":"Prag","name:ro":"Praga","name:sc":"Praga","name:sd":"پراگ","name:se":"Praha","name:sh":"Prag","name:sl":"Praga","name:sn":"Prague","name:sq":"Praga","name:sr":"Праг","name:sv":"Prag","name:sw":"Praha","name:ta":"பிராகா","name:te":"ప్రాగ్","name:tg":"Прага","name:th":"ปราก","name:tl":"Praga","name:tr":"Prag","name:tt":"Праһа","name:ug":"پراگا","name:uk":"Прага","name:ur":"پراگ","name:uz":"Praga","name:vi":"Praha","name:wo":"Prag","name:yi":"פראג","name:yo":"Prague","name:zh":"布拉格","name:zu":"IPraha","name:arc":"ܦܪܐܓ","name:arz":"براج","name:ast":"Praga","name:ckb":"پراگ","name:csb":"Praga","name:dsb":"Praha","name:ext":"Praga","name:gag":"Praga","name:hif":"Prague","name:hsb":"Praha","name:jbo":"pragas","name:kab":"Prag","name:krc":"Прага","name:lad":"Praga","name:lij":"Praga","name:lmo":"Praga","name:mdf":"Прага","name:mhr":"Прага","name:mzn":"پراگ","name:nah":"Praha","name:nan":"Praha","name:nap":"Praga","name:nds":"Prag","name:nov":"Praha","name:nrm":"Prague","name:pam":"Prague","name:pcd":"Prague","name:pms":"Praga","name:pnb":"پراگ","name:rmy":"Praga","name:sah":"Прага","name:sco":"Prague","name:stq":"Praag","name:szl":"Praga","name:tzl":"Praha","name:udm":"Прага","name:vec":"Praga","name:vro":"Praha","name:war":"Praga","name:yue":"布拉格","_place_ISO3166-2":"CZ-PR","name:nds-nl":"Praag","name:bat-smg":"Praha","name:roa-rup":"Praga","name:sr-Latn":"Prag","name:roa-tara":"Praghe","name:be-tarask":"Прага","alt":"Praha","alt:cs":"Praha","alt:da":"Prag","alt:de":"Prag","alt:en":"Prague","alt:eo":"Prago","alt:fr":"Prague","alt:hu":"Prága","alt:pl":"Praga","alt:ru":"Прага","alt:sk":"Praha"},"display_name":"Hlavní město Praha, Praha, Česko","address":{"city":"Hlavní město Praha","ISO3166-2-lvl6":"CZ-10","state":"Praha","country":"Česko","country_code":"cz"},"population":1301432,"osm_type":"relation","osm_id":435514,"type":"administrative","location":[14.4212535,50.0874654],"bbox":[14.2244355,49.9419006,14.7067867,50.1774301]},{"name":"okres Hlavní město Praha","other_names":{"ref":"CZ0100","name:cs":"okres Hlavní město Praha","name:da":"Prags Hovedstadsdistrikt","name:de":"Bezirk Hauptstadt Prag","name:fr":"District de la Capitale de Prague","name:ru":"Прага"},"display_name":"okres Hlavní město Praha, Praha, Česko","address":{"administrative":"okres Hlavní město Praha","state":"Praha","country":"Česko","country_code":"cz"},"population":1251933,"osm_type":"relation","osm_id":439841,"type":"administrative","location":[14.446459273258009,50.0596288],"bbox":[14.2244355,49.9419006,14.7067867,50.1774301]},{"name":"Praha","other_names":{"ref":"CZ0100554782","name:ar":"براغ","name:cs":"Praha","name:da":"Prag","name:de":"Prag","name:en":"Prague","name:eo":"Prago","name:es":"Praga","name:fa":"پراگ","name:fr":"Prague","name:fy":"Praach","name:ko":"프라하","name:nl":"Praag","name:pl":"Praga","name:ru":"Прага","name:sk":"Praha","name:tr":"Prag","name:ur":"پراگ","name:fur":"Praghe","name:jbo":"pragas","name:szl":"Praga","name:tzl":"Praha"},"display_name":"Praha, obvod Praha 4, Hlavní město Praha, Praha, Česko","address":{"suburb":"Praha","city_district":"obvod Praha 4","city":"Hlavní město Praha","ISO3166-2-lvl6":"CZ-10","state":"Praha","country":"Česko","country_code":"cz"},"population":1251933,"osm_type":"relation","osm_id":439840,"type":"administrative","location":[14.446459273258009,50.0596288],"bbox":[14.2244355,49.9419006,14.7067867,50.1774301]}]}
{"name":"Račice-Pístovice","other_names":{"ref":"CZ0646593516","name:cs":"Račice-Pístovice"},"display_name":"Račice-Pístovice, okres Vyškov, Jihomoravský kraj, Jihovýchod, 683 05, Česko","address":{"city":"Račice-Pístovice","municipality":"okres Vyškov","ISO3166-2-lvl7":"CZ-646","county":"Jihomoravský kraj","ISO3166-2-lvl6":"CZ-64","state":"Jihovýchod","postcode":"683 05","country":"Česko","country_code":"cz"},"population":1088,"osm_type":"relation","osm_id":436906,"type":"administrative","location":[16.883314458616695,49.2815959],"bbox":[16.8229613,49.2569086,16.9298109,49.3061538],"inferred_type":"city"}
{"name":"Svatobořice-Mistřín","other_names":{"ref":"CZ0645586625","name:cs":"Svatobořice-Mistřín","name:de":"Swatoborschitz-Mistrzin"},"display_name":"Svatobořice-Mistřín, okres Hodonín, Jihomoravský kraj, Jihovýchod, 696 04, Česko","address":{"city":"Svatobořice-Mistřín","municipality":"okres Hodonín","ISO3166-2-lvl7":"CZ-645","county":"Jihomoravský kraj","ISO3166-2-lvl6":"CZ-64","state":"Jihovýchod","postcode":"696 04","country":"Česko","country_code":"cz"},"population":3559,"osm_type":"relation","osm_id":436908,"type":"administrative","location":[17.09153675327446,48.97776805],"bbox":[17.0507272,48.9514659,17.1306705,49.0040795],"inferred_type":"city"}
{"name":"Synkov-Slemeno","other_names":{"ref":"CZ0524576816","name:cs":"Synkov-Slemeno"},"display_name":"Synkov-Slemeno, okres Rychnov nad Kněžnou, Královéhradecký kraj, Severovýchod, Česko","address":{"city":"Synkov-Slemeno","municipality":"okres Rychnov nad Kněžnou","ISO3166-2-lvl7":"CZ-524","county":"Královéhradecký kraj","ISO3166-2-lvl6":"CZ-52","state":"Severovýchod","country":"Česko","country_code":"cz"},"population":380,"osm_type":"relation","osm_id":436523,"type":"administrative","location":[16.22544102383341,50.148261250000004],"bbox":[16.194496,50.1350731,16.2738989,50.1614379],"inferred_type":"city"}
{"name":"Ústí nad Labem","other_names":{"name:ar":"أوستي ناد لابم","name:cs":"Ústí nad Labem","name:de":"Aussig","name:el":"Ούστι ναντ Λάμπεμ","name:fa":"اوستی ناد لابم","name:hr":"Ústí na Labi","name:la":"Ustia apud Albim","name:pl":"Uście nad Łabą","name:ru":"Усти-над-Лабем","name:sr":"Усти над Лабом","name:uk":"Усті-над-Лабем","name:ur":"اوستی ناد لاہم","name:hsb":"Wusće nad Łobjom","name:zh-Hans":"拉贝河畔乌斯季","name:zh-Hant":"拉貝河畔烏斯季"},"display_name":"Ústí nad Labem, okres Ústí nad Labem, Ústecký kraj, Severozápad, Česko","address":{"city":"Ústí nad Labem","municipality":"okres Ústí nad Labem","ISO3166-2-lvl7":"CZ-427","county":"Ústecký kraj","ISO3166-2-lvl6":"CZ-42","state":"Severozápad","country":"Česko","country_code":"cz"},"population":90378,"osm_type":"node","osm_id":1598391587,"type":"city","location":[14.0381357,50.6603327],"bbox":[13.8781357,50.5003327,14.1981357,50.8203327],"border":[{"name":"Ústí nad Labem","other_names":{"ref":"CZ0427554804","name:ar":"أوستي ناد لابم","name:cs":"Ústí nad Labem","name:de":"Aussig","name:fa":"اوستی ناد لابم","name:ru":"Усти-над-Лабой","name:ur":"اوستی ناد لاہم","name:el":"Ούστι ναντ Λάμπεμ","name:hr":"Ústí na Labi","name:la":"Ustia apud Albim","name:pl":"Uście nad Łabą","name:sr":"Усти над Лабом","name:uk":"Усті-над-Лабем","name:hsb":"Wusće nad Łobjom","name:zh-Hans":"拉贝河畔乌斯季","name:zh-Hant":"拉貝河畔烏斯季","alt:ru":"Усти-над-Лабем"},"display_name":"Ústí nad Labem, okres Ústí nad Labem, Ústecký kraj, Severozápad, Česko","address":{"city":"Ústí nad Labem","municipality":"okres Ústí nad Labem","ISO3166-2-lvl7":"CZ-427","county":"Ústecký kraj","ISO3166-2-lvl6":"CZ-42","state":"Severozápad","country":"Česko","country_code":"cz"},"population":96150,"osm_type":"relation","osm_id":440166,"type":"administrative","location":[14.0381357,50.6603327],"bbox":[13.9415599,50.5805554,14.1410494,50.7217996]},{"name":"Ústí nad Labem","other_names":{"ref":"774871","name:cs":"Ústí nad Labem","name:de":"Aussig"},"display_name":"Ústí nad Labem, okres Ústí nad Labem, Ústecký kraj, Severozápad, Česko","address":{"suburb":"Ústí nad Labem","city":"Ústí nad Labem","municipality":"okres Ústí nad Labem","ISO3166-2-lvl7":"CZ-427","county":"Ústecký kraj","ISO3166-2-lvl6":"CZ-42","state":"Severozápad","country":"Česko","country_code":"cz"},"osm_type":"relation","osm_id":434262,"type":"administrative","location":[14.038626769863043,50.661707050000004],"bbox":[14.0000062,50.6348477,14.0586709,50.6885486]}]}
{"name":"Vysočina","other_names":{"ref":"CZ0531572551","name:cs":"Vysočina"},"display_name":"Vysočina, okres Chrudim, Pardubický kraj, Severovýchod, Česko","address":{"city":"Vysočina","municipality":"okres Chrudim","ISO3166-2-lvl7":"CZ-531","county":"Pardubický kraj","ISO3166-2-lvl6":"CZ-53","state":"Severovýchod","country":"Česko","country_code":"cz"},"population":703,"osm_type":"relation","osm_id":436534,"type":"administrative","location":[15.856673712163683,49.7800227],"bbox":[15.7728161,49.7525486,15.8702472,49.8074162],"inferred_type":"city"}
{"name":"Zlatníky-Hodkovice","other_names":{"ref":"CZ020A539881","name:cs":"Zlatníky-Hodkovice"},"display_name":"Zlatníky-Hodkovice, okres Praha-západ, Střední Čechy, 252 41, Česko","address":{"city":"Zlatníky-Hodkovice","municipality":"okres Praha-západ","ISO3166-2-lvl7":"CZ-20A","state":"Střední Čechy","ISO3166-2-lvl4":"CZ-20","postcode":"252 41","country":"Česko","country_code":"cz"},"population":1217,"osm_type":"relation","osm_id":436149,"type":"administrative","location":[14.483826948656935,49.964244],"bbox":[14.4539087,49.9427339,14.4990241,49.9856871],"inferred_type":"city"}
{"name":"Zlín","other_names":{"name:ar":"زلين","name:be":"Злін","name:cs":"Zlín","name:de":"Zlin","name:el":"Ζλιν","name:fa":"زلین","name:ja":"ズリーン","name:la":"Zlín","name:ru":"Злин","name:uk":"Злін","name:ur":"زلین","old_name":"Gottwaldov"},"display_name":"Zlín, okres Zlín, Zlínský kraj, Střední Morava, Česko","address":{"city":"Zlín","municipality":"okres Zlín","ISO3166-2-lvl7":"CZ-724","county":"Zlínský kraj","ISO3166-2-lvl6":"CZ-72","state":"Střední Morava","country":"Česko","country_code":"cz"},"population":72973,"osm_type":"node","osm_id":1598988152,"type":"city","location":[17.6667415,49.226766],"bbox":[17.5067415,49.066766,17.8267415,49.386766],"border":[{"name":"Zlín","other_names":{"ref":"CZ0724585068","name:ar":"زلين","name:cs":"Zlín","name:fa":"زلین","name:ru":"Злин","name:ur":"زلین","old_name":"Gottwaldov","name:be":"Злін","name:de":"Zlin","name:el":"Ζλιν","name:ja":"ズリーン","name:la":"Zlín","name:uk":"Злін"},"display_name":"Zlín, okres Zlín, Zlínský kraj, Střední Morava, Česko","address":{"city":"Zlín","municipality":"okres Zlín","ISO3166-2-lvl7":"CZ-724","county":"Zlínský kraj","ISO3166-2-lvl6":"CZ-72","state":"Střední Morava","country":"Česko","country_code":"cz"},"population":75870,"osm_type":"relation","osm_id":440910,"type":"administrative","location":[17.6667415,49.226766],"bbox":[17.55981,49.1642532,17.7866203,49.2997873]},{"name":"Zlín","other_names":{"ref":"635561","name:cs":"Zlín"},"display_name":"Zlín, okres Zlín, Zlínský kraj, Střední Morava, Česko","address":{"suburb":"Zlín","city":"Zlín","municipality":"okres Zlín","ISO3166-2-lvl7":"CZ-724","county":"Zlínský kraj","ISO3166-2-lvl6":"CZ-72","state":"Střední Morava","country":"Česko","country_code":"cz"},"osm_type":"relation","osm_id":430824,"type":"administrative","location":[17.67220179600917,49.22461485],"bbox":[17.6315722,49.1946649,17.7037335,49.2549324]}]}
