{"name":"Aalborg","other_names":{"name:ar":"آلبورغ","name:bg":"Олбор","name:da":"Aalborg","name:el":"Άλμποργκ","name:et":"Ålborg","name:fa":"آلبورگ","name:fr":"Aalborg","name:he":"אולבורג","name:hu":"Aalborg","name:hy":"Օլբորգ","name:is":"Álaborg","name:ja":"オールボー","name:ka":"ოლბორგი","name:kk":"Ольборг","name:ko":"올보르","name:lt":"Olborgas","name:lv":"Olborga","name:mk":"Аалборг","name:os":"Ольборг","name:ru":"Ольборг","name:sr":"Олборг","name:sv":"Ålborg","name:th":"ออลบอร์","name:uk":"Ольборг","name:zh":"奥尔堡","alt_name":"Ålborg","name:gsw":"Àlborg","name:lmo":"Ålborg","name:pnb":"آلبرگ"},"display_name":"Aalborg, Aalborg Kommune, Region Nordjylland, 9000, Danmark","address":{"city":"Aalborg","municipality":"Aalborg Kommune","state":"Region Nordjylland","ISO3166-2-lvl4":"DK-81","postcode":"9000","country":"Danmark","country_code":"dk"},"population":114194,"osm_type":"node","osm_id":2247730880,"type":"city","location":[9.9215263,57.0462626],"bbox":[9.7615263,56.8862626,10.0815263,57.2062626]}
{"name":"Aarhus","other_names":{"name:ar":"آرهوس","name:be":"Орхус","name:bg":"Орхус","name:da":"Aarhus","name:de":"Aarhus","name:el":"Ώρχους","name:eo":"Arhuzo","name:et":"Århus","name:fa":"آرهوس","name:he":"אורהוס","name:hu":"Aarhus","name:hy":"Օրհուս","name:is":"Árósar","name:ja":"オーフス","name:ka":"ორჰუსი","name:ko":"오르후스","name:la":"Arhusa","name:lt":"Orhusas","name:lv":"Orhūsa","name:mk":"Орхус","name:mn":"Орхус","name:mr":"आर्हुस","name:os":"Орхус","name:ru":"Орхус","name:sr":"Орхус","name:sv":"Århus","name:th":"ออร์ฮูส","name:uk":"Орхус","name:zh":"奥胡斯","name:pnb":"آرہس","old_name":"Århus;Aarhus;Aros","alt_name:la":"Aarhusium","name:nds-nl":"Oarhoes","old_name:de":"Arenhusen","name:be-tarask":"Оргус"},"display_name":"Aarhus, Aarhus Kommune, Region Midtjylland, 8000, Danmark","address":{"city":"Aarhus","municipality":"Aarhus Kommune","state":"Region Midtjylland","ISO3166-2-lvl4":"DK-82","postcode":"8000","country":"Danmark","country_code":"dk"},"population":273077,"osm_type":"node","osm_id":26559213,"type":"city","location":[10.2134046,56.1496278],"bbox":[10.0534046,55.9896278,10.3734046,56.3096278]}
{"name":"Esbjerg","other_names":{"name:ar":"إسبيرغ","name:da":"Esbjerg","name:de":"Esberg","name:hu":"Esbjerg","name:lt":"Esbjergas","name:ru":"Эсбьерг","name:zh":"埃斯比约"},"display_name":"Esbjerg, Esbjerg Kommune, Region Syddanmark, 6700, Danmark","address":{"city":"Esbjerg","municipality":"Esbjerg Kommune","state":"Region Syddanmark","ISO3166-2-lvl4":"DK-83","postcode":"6700","country":"Danmark","country_code":"dk"},"population":72398,"osm_type":"node","osm_id":21040360,"type":"city","location":[8.4520751,55.4664892],"bbox":[8.2920751,55.3064892,8.6120751,55.6264892]}
{"name":"Horsens","other_names":{"name:da":"Horsens","name:lt":"Horsensas","name:ru":"Хорсенс","name:uk":"Хорсенс"},"display_name":"Horsens, Horsens Kommune, Region Midtjylland, 8700, Danmark","address":{"city":"Horsens","municipality":"Horsens Kommune","state":"Region Midtjylland","ISO3166-2-lvl4":"DK-82","postcode":"8700","country":"Danmark","country_code":"dk"},"population":58646,"osm_type":"node","osm_id":1368129781,"type":"city","location":[9.8444774,55.8611696],"bbox":[9.6844774,55.7011696,10.0044774,56.0211696]}
{"name":"København","other_names":{"name:af":"Kopenhagen","name:am":"ኮፐንሀገን","name:an":"Copenaguen","name:ar":"كوبنهاغن","name:ay":"Kobenhavn","name:az":"Kopenhagen","name:ba":"Копенгаген","name:be":"Капенгаген","name:bg":"Копенхаген","name:bi":"Copenhagen","name:bn":"কোপেনহেগেন","name:bo":"ཁོ་ཕེན་ཧ་ཀེན།","name:br":"Kopenhagen","name:bs":"Kopenhagen","name:ca":"Copenhaguen","name:ce":"Копенгаген","name:co":"Copenaghen","name:cs":"Kodaň","name:cu":"Кобєнхавнъ","name:cv":"Копенгаген","name:cy":"Copenhagen","name:da":"København","name:de":"Kopenhagen","name:ee":"Copenhagen","name:el":"Κοπεγχάγη","name:en":"Copenhagen","name:eo":"Kopenhago","name:es":"Copenhague","name:et":"Kopenhaagen","name:eu":"Kopenhage","name:fa":"کپنهاگ","name:fi":"Kööpenhamina","name:fo":"Keypmannahavn","name:fr":"Copenhague","name:fy":"Kopenhagen","name:ga":"Cóbanhávan","name:gd":"Copenhagen","name:gl":"Copenhaguen","name:gn":"Kopenihage","name:gv":"København","name:ha":"Kwapanhagan","name:he":"קופנהגן","name:hi":"कोपनहेगन","name:hr":"Kopenhagen","name:ht":"Kopènag","name:hu":"Koppenhága","name:hy":"Կոպենհագեն","name:ia":"Copenhagen","name:id":"Kopenhagen","name:ie":"Köbenhavn","name:io":"København","name:is":"Kaupmannahöfn","name:it":"Copenaghen","name:ja":"コペンハーゲン","name:jv":"Kopenhagen","name:ka":"კოპენჰაგენი","name:kk":"Копенгаген","name:kl":"København","name:kn":"ಕೋಪನ್ಹಾಗೆನ್","name:ko":"코펜하겐","name:ku":"Kopenhag","name:kv":"Копенгаген","name:kw":"Kopenhavn","name:ky":"Копенгаген","name:la":"Hafnia","name:lb":"Kopenhagen","name:li":"Koupenhage","name:lt":"Kopenhaga","name:lv":"Kopenhāgena","name:mg":"Kaopenagy","name:mi":"Copenhagen","name:mk":"Копенхаген","name:ml":"കോപ്പൻഹേഗൻ","name:mn":"Копенхаген","name:mr":"कोपनहेगन","name:ms":"Copenhagen","name:mt":"Kopenħagen","name:my":"ကိုပင်ဟေဂင်မြို့","name:ne":"कोपनहेगन","name:nl":"Kopenhagen","name:nn":"København","name:no":"København","name:oc":"Copenaga","name:os":"Копенгаген","name:pa":"ਕੋਪਨਹੈਗਨ","name:pl":"Kopenhaga","name:ps":"کوپنهاګن","name:pt":"Copenhaga","name:qu":"København","name:rm":"Copenhagen","name:ro":"Copenhaga","name:ru":"Копенгаген","name:sa":"कोपनहागन","name:sc":"Copenaghen","name:sd":"ڪوپن هيگن","name:se":"Københápman","name:sk":"Kodaň","name:sl":"København","name:sn":"Copenhagen","name:so":"Kobanhaygan","name:sq":"Kopenhageni","name:sr":"Копенхаген","name:st":"Copenhagen","name:sv":"Köpenhamn","name:sw":"Kopenhagen","name:ta":"கோபனாவன்","name:te":"కోపెన్‌హాగన్","name:tg":"Копенҳаген","name:th":"โคเปนเฮเกน","name:tl":"Copenhagen","name:tr":"Kopenhag","name:tt":"Копенгаген","name:ug":"Kopénhagén","name:uk":"Копенгаген","name:ur":"کوپن ہیگن","name:uz":"Kopengagen","name:vi":"Copenhagen","name:vo":"København","name:wa":"Copenhågue","name:wo":"Kopenagen","name:yi":"קאפנהאגן","name:yo":"Copenhagen","name:zh":"哥本哈根","name:ang":"Cēapmannhæfen","name:arc":"ܩܘܦܢܗܐܓܢ","name:arz":"كوبينهاجين","name:ast":"Conpenḥague","name:ckb":"کۆپنھاگن","name:csb":"Kòpenhaga","name:diq":"Kopenhag","name:ext":"Copenagui","name:frr":"Kopenhuuwen","name:gsw":"Kopenhàge","name:hif":"Copenhagen","name:ilo":"Copenhagen","name:kab":"Kopenhagen","name:lij":"Copenaghen","name:lmo":"Cupenaghen","name:ltg":"Kopenhaga","name:nah":"Copenague","name:nan":"Copenhagen","name:nap":"Copenaghen","name:nds":"Kopenhagen","name:nov":"København","name:pms":"Copenàghen","name:pnb":"کوپن ہیگن","name:sah":"Копенһаген","name:scn":"Copenaghen","name:sco":"Copenhagen","name:szl":"Kopynhaga","name:tzl":"Cjövnahaun","name:udm":"Копенгаген","name:vec":"Copenaghen","name:vep":"Kopengagen","name:vro":"Kopõnhaagõn","name:war":"Copenhagen","name:xmf":"კოპენჰაგენი","name:yue":"哥本哈根","name:pt-BR":"Copenhague","short_name":"cph;kbh","alt_name:fi":"Köpis","alt_name:gl":"Copenhague","name:simple":"Copenhagen","name:bat-smg":"Kuopenhaga","name:roa-rup":"Copenhagen","name:be-tarask":"Капэнгаген"},"display_name":"København, Københavns Kommune, Region Hovedstaden, 1357, Danmark","address":{"city":"København","municipality":"Københavns Kommune","state":"Region Hovedstaden","ISO3166-2-lvl4":"DK-84","postcode":"1357","country":"Danmark","country_code":"dk"},"population":613288,"osm_type":"node","osm_id":13707878,"type":"city","location":[12.5700724,55.6867243],"bbox":[12.4100724,55.5267243,12.7300724,55.8467243],"border":{"name":"Københavns Kommune","other_names":{"ref":"101","name:ca":"Municipi de Copenhaguen","name:da":"Københavns Kommune","name:de":"Kopenhagen","name:en":"Copenhagen Municipality","name:es":"Municipio de Copenhague","name:fi":"Kööpenhaminan kunta","name:fr":"Commune de Copenhague","name:gl":"Concello de Copenhaguen","name:hu":"Koppenhága község","name:id":"Munisipalitas Copenhagen","name:ms":"Munisipaliti Copenhagen","name:nn":"København kommune","name:no":"Københavns kommune","name:pt":"Comuna de Copenhaga","name:sv":"Köpenhamns kommun","name:frr":"Kopenhuuwen Komuun","name:nds":"Kommun Kopenhagen","name:pt-BR":"Comuna de Copenhague","alt_name:gl":"Concello de Copenhague"},"display_name":"Københavns Kommune, Region Hovedstaden, Danmark","address":{"municipality":"Københavns Kommune","state":"Region Hovedstaden","ISO3166-2-lvl4":"DK-84","country":"Danmark","country_code":"dk"},"population":591481,"osm_type":"relation","osm_id":2192363,"type":"administrative","location":[12.602551845387605,55.66243815],"bbox":[12.4529977,55.6128612,12.7342464,55.7327114]}}
{"name":"Kolding","other_names":{"name:da":"Kolding","name:hu":"Kolding","name:lt":"Koldingas","name:ru":"Колдинг","name:uk":"Кольдинг"},"display_name":"Kolding, Kolding Kommune, Region Syddanmark, 6000, Danmark","address":{"city":"Kolding","municipality":"Kolding Kommune","state":"Region Syddanmark","ISO3166-2-lvl4":"DK-83","postcode":"6000","country":"Danmark","country_code":"dk"},"population":60508,"osm_type":"node","osm_id":26559170,"type":"city","location":[9.47905,55.4894999],"bbox":[9.31905,55.3294999,9.63905,55.6494999]}
{"name":"Odense","other_names":{"name:ar":"أودنسه","name:be":"Одэнсэ","name:bg":"Оденсе","name:ce":"Оденсе","name:da":"Odense","name:el":"Οντένσε","name:fa":"ادنسه","name:he":"אודנזה","name:hu":"Odense","name:hy":"Օդենսե","name:is":"Óðinsvé","name:ja":"オーデンセ","name:ka":"ოდენსე","name:ko":"오덴세","name:la":"Othania","name:lt":"Odensė","name:mk":"Оденсе","name:os":"Оденсе","name:ru":"Оденсе","name:sr":"Оденсе","name:th":"โอเดนเซ","name:uk":"Оденсе","name:zh":"欧登塞","name:pms":"Odensa","name:pnb":"اوڈینس","old_name:de":"Ottensee","name:be-tarask":"Одэнсэ"},"display_name":"Odense, Odense Kommune, Region Syddanmark, 5000, Danmark","address":{"city":"Odense","municipality":"Odense Kommune","state":"Region Syddanmark","ISO3166-2-lvl4":"DK-83","postcode":"5000","country":"Danmark","country_code":"dk"},"population":178210,"osm_type":"node","osm_id":26559274,"type":"city","location":[10.3852104,55.3997225],"bbox":[10.2252104,55.2397225,10.5452104,55.5597225]}
{"name":"Randers","other_names":{"name:da":"Randers","name:de":"Randers","name:hu":"Randers","name:lt":"Randersas","name:lv":"Ranersa","name:ru":"Раннерс","name:uk":"Раннерс"},"display_name":"Randers, Randers Kommune, Region Midtjylland, 8900, Danmark","address":{"city":"Randers","municipality":"Randers Kommune","state":"Region Midtjylland","ISO3166-2-lvl4":"DK-82","postcode":"8900","country":"Danmark","country_code":"dk"},"population":62687,"osm_type":"node","osm_id":26559154,"type":"city","location":[10.0371476,56.4617545],"bbox":[9.8771476,56.3017545,10.1971476,56.6217545]}
{"name":"Roskilde","other_names":{"name:cv":"Роскильде","name:da":"Roskilde","name:is":"Hróarskelda","name:ja":"ロスキレ","name:ka":"როსკილე","name:ko":"로스킬레","name:lt":"Roskildė","name:mk":"Роскилде","name:ru":"Роскилле","name:sr":"Роскилде","name:th":"รอสกิลด์","name:uk":"Роскілле","name:zh":"罗斯基勒"},"display_name":"Roskilde, Roskilde Kommune, Region Sjælland, 4000, Danmark","address":{"city":"Roskilde","municipality":"Roskilde Kommune","state":"Region Sjælland","ISO3166-2-lvl4":"DK-85","postcode":"4000","country":"Danmark","country_code":"dk"},"population":50781,"osm_type":"node","osm_id":21040334,"type":"city","location":[12.0819247,55.6433478],"bbox":[11.9219247,55.4833478,12.2419247,55.8033478]}
{"name":"Vejle","other_names":{"name:bg":"Вайле","name:da":"Vejle","name:fa":"وایله","name:ja":"ヴァイレ","name:ka":"ვაილე","name:ko":"바일레","name:lt":"Vailė","name:mk":"Вајле","name:ru":"Вайле","name:sr":"Вејле","name:th":"ไวเล","name:zh":"瓦埃勒","old_name:de":"Weile"},"display_name":"Vejle, Vejle Kommune, Region Syddanmark, 7100, Danmark","address":{"city":"Vejle","municipality":"Vejle Kommune","state":"Region Syddanmark","ISO3166-2-lvl4":"DK-83","postcode":"7100","country":"Danmark","country_code":"dk"},"population":56567,"osm_type":"node","osm_id":26559198,"type":"city","location":[9.5329419,55.707931],"bbox":[9.3729419,55.547931,9.6929419,55.867931]}
