{"name":"Asikkala","other_names":{"ref":"016","name:fi":"Asikkala","name:ru":"Асиккала"},"display_name":"Asikkala, Lahden seutukunta, Päijät-Häme, Manner-Suomi, Suomi / Finland","address":{"city":"Asikkala","municipality":"Lahden seutukunta","state":"Päijät-Häme","ISO3166-2-lvl4":"FI-16","region":"Manner-Suomi","country":"Suomi / Finland","country_code":"fi"},"osm_type":"relation","osm_id":2509098,"type":"administrative","location":[25.552879094033575,61.23322975],"bbox":[25.1997624,61.0962837,25.9273238,61.364631],"inferred_type":"city"}
{"name":"Espoo","other_names":{"name:cs":"Espoo","name:en":"Espoo","name:fi":"Espoo","name:fr":"Espoo","name:hu":"Espoo","name:la":"Espo","name:lt":"Espas","name:lv":"Espo","name:ru":"Эспоо","name:sv":"Esbo","name:uk":"Еспоо","name:gsw":"Espoo"},"display_name":"Espoo, Helsingin seutukunta, Uusimaa, Manner-Suomi, Suomi / Finland","address":{"city":"Espoo","municipality":"Helsingin seutukunta","state":"Uusimaa","ISO3166-2-lvl4":"FI-18","region":"Manner-Suomi","country":"Suomi / Finland","country_code":"fi"},"population":321,"osm_type":"node","osm_id":25963545,"type":"city","location":[24.6559808,60.2049651],"bbox":[24.4959808,60.0449651,24.8159808,60.3649651],"border":{"name":"Espoo","other_names":{"ref":"049","name:eo":"Espoo","name:fi":"Espoo","name:fr":"Espoo","name:lt":"Espas","name:ru":"Эспоо","name:sv":"Esbo","alt_name":"Epsoo;Spoo;Esbobo;Esboo;Esbou;Esbuu;Espuu;Espöö","name:gsw":"Espoo","name:cs":"Espoo","name:en":"Espoo","name:hu":"Espoo","name:la":"Espo","name:lv":"Espo","name:uk":"Еспоо"},"display_name":"Espoo, Helsingin seutukunta, Uusimaa, Manner-Suomi, Suomi / Finland","address":{"city":"Espoo","municipality":"Helsingin seutukunta","state":"Uusimaa","ISO3166-2-lvl4":"FI-18","region":"Manner-Suomi","country":"Suomi / Finland","country_code":"fi"},"population":321,"osm_type":"relation","osm_id":36097,"type":"administrative","location":[24.6559808,60.2049651],"bbox":[24.4992905,59.9010905,24.9423061,60.3639149]}}
{"name":"Hämeenlinna","other_names":{"name:fi":"Hämeenlinna","name:ru":"Хямеэнлинна","name:sv":"Tavastehus","name:uk":"Гямеенлінна"},"display_name":"Hämeenlinna, Hämeenlinnan seutukunta, Kanta-Häme, Manner-Suomi, Suomi / Finland","address":{"city":"Hämeenlinna","municipality":"Hämeenlinnan seutukunta","state":"Kanta-Häme","ISO3166-2-lvl4":"FI-06","region":"Manner-Suomi","country":"Suomi / Finland","country_code":"fi"},"population":68376,"osm_type":"node","osm_id":30969538,"type":"city","location":[24.465141,60.9966192],"bbox":[24.305141,60.8366192,24.625141,61.1566192],"border":[{"name":"Hämeenlinna","other_names":{"ref":"109","name:da":"Tavastehus","name:fi":"Hämeenlinna","name:no":"Tavastehus","name:ru":"Хямеэнлинна","name:sv":"Tavastehus","name:uk":"Гямеенлінна"},"display_name":"Hämeenlinna, Hämeenlinnan seutukunta, Kanta-Häme, Manner-Suomi, Suomi / Finland","address":{"city":"Hämeenlinna","municipality":"Hämeenlinnan seutukunta","state":"Kanta-Häme","ISO3166-2-lvl4":"FI-06","region":"Manner-Suomi","country":"Suomi / Finland","country_code":"fi"},"population":68376,"osm_type":"relation","osm_id":2388843,"type":"administrative","location":[24.465141,60.9966192],"bbox":[23.7567971,60.753945,25.26907,61.32485]},{"name":"Hämeenlinna","display_name":"Hämeenlinna, Hämeenlinnan seutukunta, Kanta-Häme, Manner-Suomi, Suomi / Finland","address":{"city_district":"Hämeenlinna","city":"Hämeenlinna","municipality":"Hämeenlinnan seutukunta","state":"Kanta-Häme","ISO3166-2-lvl4":"FI-06","region":"Manner-Suomi","country":"Suomi / Finland","country_code":"fi"},"osm_type":"relation","osm_id":304195,"type":"administrative","location":[24.458264065685047,60.9810913],"bbox":[24.2922869,60.902824,24.7154254,61.0611922]}]}
{"name":"Helsinki","other_names":{"name:ab":"Ҳельсинки","name:af":"Helsinki","name:am":"ሄልሲንኪ","name:ar":"هلسنكي","name:av":"Хельсинки","name:ba":"Хельсинки","name:be":"Хельсінкі","name:bg":"Хелзинки","name:bh":"हेलसिंकी","name:bn":"হেলসিঙ্কি","name:bo":"ཧེལ་སིན་ཀི།","name:br":"Helsinki","name:ca":"Hèlsinki","name:ce":"Хельсинки","name:cs":"Helsinky","name:cu":"Хєлсинки","name:cv":"Хелҫинки","name:de":"Helsinki","name:el":"Ελσίνκι","name:en":"Helsinki","name:eo":"Helsinko","name:es":"Helsinki","name:et":"Helsingi","name:eu":"Helsinki","name:fa":"هلسینکی","name:fi":"Helsinki","name:fr":"Helsinki","name:fy":"Helsinky","name:ga":"Heilsincí","name:gl":"Helsinqui","name:he":"הלסינקי","name:hi":"हेलसिंकी","name:ht":"Èlzinki","name:hu":"Helsinki","name:hy":"Հելսինկի","name:is":"Helsinki","name:it":"Helsinki","name:iu":"ᕼᐃᐅᓪᓯᓂᑭ","name:ja":"ヘルシンキ","name:ka":"ჰელსინკი","name:kk":"Хельсинки","name:kn":"ಹೆಲ್ಸಿಂಕಿ","name:ko":"헬싱키","name:ku":"Helsînkî","name:kv":"Хельсинки","name:la":"Helsingia","name:lo":"ເຮວຊິນກິ","name:lt":"Helsinkis","name:mi":"Herehingiki","name:mk":"Хелсинки","name:ml":"ഹെൽസിങ്കി","name:mn":"Хельсинки","name:mr":"हेलसिंकी","name:mt":"Ħelsinki","name:my":"ဟယ်လ်ဆင်ကီမြို့","name:nb":"Helsingfors","name:ne":"हेल्सिन्कि","name:nn":"Helsingfors","name:no":"Helsingfors","name:nv":"Tótsʼózí Adahiilíní","name:oc":"Helsinki","name:or":"ହେଲସିଙ୍କି","name:os":"Хельсинки","name:pa":"ਹੈਲਸਿੰਕੀ","name:pi":"हेलसिंकी","name:pl":"Helsinki","name:ps":"هلسينکي","name:pt":"Helsínquia","name:ro":"Helsinki","name:ru":"Хельсинки","name:sd":"هلسنڪي","name:se":"Helsset","name:sk":"Helsinki","name:sr":"Хелсинки","name:su":"Hélsinki","name:sv":"Helsingfors","name:ta":"எல்சிங்கி","name:te":"హెల్సింకి","name:tg":"Ҳелсинкӣ","name:th":"เฮลซิงกิ","name:tl":"Lungsod ng Helsinki","name:to":"Helesingikī","name:tr":"Helsinki","name:tt":"Һелсинки","name:ug":"Xélsinki","name:uk":"Гельсінкі","name:ur":"ہلسنکی","name:wo":"Elsinki","name:xh":"I-Helsinki","name:yi":"העלסינקי","name:zh":"赫爾辛基","loc_name":"Stadi;Hesa","name:ace":"Hèlsinki","name:arc":"ܗܠܣܢܩܝ","name:arz":"هيلسينكى","name:ast":"Ḥelsinki","name:azb":"هلسینکی","name:ckb":"ھێلسینکی","name:grc":"Ἑλσίγκιον","name:gsw":"Helsinki","name:hyw":"Հելսինքի","name:koi":"Хельсинки","name:lzh":"赫爾辛基","name:mdf":"Хельсинки","name:mhr":"Хельсинки","name:mrj":"Хельсинки","name:myv":"Хельсинки ош","name:nah":"Helsinqui","name:pnb":"ہیلسنکی","name:sah":"Хельсинки","name:smn":"Helsig","name:syc":"ܗܠܣܢܩܝ","name:udm":"Хельсинки","name:vep":"Hel'sinki","name:vro":"Helsingi","name:yue":"赫爾辛基","alt_name:gl":"Helsinki","alt_name:grc":"Ἑλσιγκία","name:bat-smg":"Helsėnkis","name:zh-Hans":"赫尔辛基","name:be-tarask":"Хэльсынкі"},"display_name":"Helsinki, Helsingin seutukunta, Uusimaa, Manner-Suomi, Suomi / Finland","address":{"city":"Helsinki","municipality":"Helsingin seutukunta","state":"Uusimaa","ISO3166-2-lvl4":"FI-18","region":"Manner-Suomi","country":"Suomi / Finland","country_code":"fi"},"population":684589,"osm_type":"node","osm_id":1372477580,"type":"city","location":[24.9427473,60.1674881],"bbox":[24.7827473,60.0074881,25.1027473,60.3274881],"border":{"name":"Helsinki","other_names":{"ref":"091","name:af":"Helsinki","name:ar":"هلسنكي","name:ca":"Hèlsinki","name:da":"Helsingfors","name:de":"Helsinki","name:en":"Helsinki","name:es":"Helsinki","name:fa":"هلسینکی","name:fi":"Helsinki","name:fr":"Helsinki","name:he":"הלסינקי","name:hy":"Հելսինկի","name:ja":"ヘルシンキ","name:ko":"헬싱키","name:nn":"Helsingfors","name:no":"Helsingfors","name:pa":"ਹੈਲਸਿੰਕੀ","name:ru":"Хельсинки","name:sr":"Хелсинки","name:sv":"Helsingfors","name:te":"హెల్సింకి","name:uk":"Гельсінкі","name:ur":"ہلسنکی","alt_name":"Hesa;Stadi","name:arc":"ܗܠܣܢܩܝ","name:azb":"هلسینکی","name:ckb":"ھێلسینکی","name:grc":"Ἑλσίγκιον","name:hyw":"Հելսինքի","name:syc":"ܗܠܣܢܩܝ","alt_name:grc":"Ἑλσιγκία","name:ja-Hira":"へるしんき","name:ja-Latn":"Herushinki","name:ab":"Ҳельсинки","name:am":"ሄልሲንኪ","name:av":"Хельсинки","name:ba":"Хельсинки","name:be":"Хельсінкі","name:bg":"Хелзинки","name:bh":"हेलसिंकी","name:bn":"হেলসিঙ্কি","name:bo":"ཧེལ་སིན་ཀི།","name:br":"Helsinki","name:ce":"Хельсинки","name:cs":"Helsinky","name:cu":"Хєлсинки","name:cv":"Хелҫинки","name:el":"Ελσίνκι","name:eo":"Helsinko","name:et":"Helsingi","name:eu":"Helsinki","name:fy":"Helsinky","name:ga":"Heilsincí","name:gl":"Helsinqui","name:hi":"हेलसिंकी","name:ht":"Èlzinki","name:hu":"Helsinki","name:is":"Helsinki","name:it":"Helsinki","name:iu":"ᕼᐃᐅᓪᓯᓂᑭ","name:ka":"ჰელსინკი","name:kk":"Хельсинки","name:kn":"ಹೆಲ್ಸಿಂಕಿ","name:ku":"Helsînkî","name:kv":"Хельсинки","name:la":"Helsingia","name:lo":"ເຮວຊິນກິ","name:lt":"Helsinkis","name:mi":"Herehingiki","name:mk":"Хелсинки","name:ml":"ഹെൽസിങ്കി","name:mn":"Хельсинки","name:mr":"हेलसिंकी","name:mt":"Ħelsinki","name:my":"ဟယ်လ်ဆင်ကီမြို့","name:nb":"Helsingfors","name:ne":"हेल्सिन्कि","name:nv":"Tótsʼózí Adahiilíní","name:oc":"Helsinki","name:or":"ହେଲସିଙ୍କି","name:os":"Хельсинки","name:pi":"हेलसिंकी","name:pl":"Helsinki","name:ps":"هلسينکي","name:pt":"Helsínquia","name:ro":"Helsinki","name:sd":"هلسنڪي","name:se":"Helsset","name:sk":"Helsinki","name:su":"Hélsinki","name:ta":"எல்சிங்கி","name:tg":"Ҳелсинкӣ","name:th":"เฮลซิงกิ","name:tl":"Lungsod ng Helsinki","name:to":"Helesingikī","name:tr":"Helsinki","name:tt":"Һелсинки","name:ug":"Xélsinki","name:wo":"Elsinki","name:xh":"I-Helsinki","name:yi":"העלסינקי","name:zh":"赫爾辛基","name:be-tarask":"Хэльсынкі","loc_name":"Stadi;Hesa","name:ace":"Hèlsinki","name:arz":"هيلسينكى","name:ast":"Ḥelsinki","name:gsw":"Helsinki","name:koi":"Хельсинки","name:lzh":"赫爾辛基","name:mdf":"Хельсинки","name:mhr":"Хельсинки","name:mrj":"Хельсинки","name:myv":"Хельсинки ош","name:nah":"Helsinqui","name:pnb":"ہیلسنکی","name:sah":"Хельсинки","name:smn":"Helsig","name:udm":"Хельсинки","name:vep":"Hel'sinki","name:vro":"Helsingi","name:yue":"赫爾辛基","alt_name:gl":"Helsinki","name:bat-smg":"Helsėnkis","name:zh-Hans":"赫尔辛基"},"display_name":"Helsinki, Helsingin seutukunta, Uusimaa, Manner-Suomi, Suomi / Finland","address":{"city":"Helsinki","municipality":"Helsingin seutukunta","state":"Uusimaa","ISO3166-2-lvl4":"FI-18","region":"Manner-Suomi","country":"Suomi / Finland","country_code":"fi"},"population":684589,"osm_type":"relation","osm_id":34914,"type":"administrative","location":[24.9427473,60.1674881],"bbox":[24.7828026,59.922486,25.2545116,60.2978497]}}
{"name":"Joensuu","other_names":{"name:fi":"Joensuu","name:lt":"Joensū","name:ru":"Йоэнсуу","name:uk":"Йоенсуу","short_name":"JNS"},"display_name":"Joensuu, Joensuun seutukunta, Pohjois-Karjala, Manner-Suomi, Suomi / Finland","address":{"city":"Joensuu","municipality":"Joensuun seutukunta","state":"Pohjois-Karjala","ISO3166-2-lvl4":"FI-13","region":"Manner-Suomi","country":"Suomi / Finland","country_code":"fi"},"population":78743,"osm_type":"node","osm_id":30969521,"type":"city","location":[29.7622128,62.6005753],"bbox":[29.6022128,62.4405753,29.9222128,62.7605753],"border":{"name":"Joensuu","other_names":{"ref":"167","name:fi":"Joensuu","name:ru":"Йоэнсу","name:lt":"Joensū","name:uk":"Йоенсуу","short_name":"JNS","alt:ru":"Йоэнсуу"},"display_name":"Joensuu, Joensuun seutukunta, Pohjois-Karjala, Manner-Suomi, Suomi / Finland","address":{"city":"Joensuu","municipality":"Joensuun seutukunta","state":"Pohjois-Karjala","ISO3166-2-lvl4":"FI-13","region":"Manner-Suomi","country":"Suomi / Finland","country_code":"fi"},"population":78743,"osm_type":"relation","osm_id":2521759,"type":"administrative","location":[29.7622128,62.6005753],"bbox":[29.6130951,62.2508037,31.0935058,63.0475887]}}
{"name":"Juupajoki","other_names":{"ref":"177","name:fi":"Juupajoki","name:ru":"Юупайоки"},"display_name":"Juupajoki, Ylä-Pirkanmaan seutukunta, Pirkanmaa, Manner-Suomi, Suomi / Finland","address":{"city":"Juupajoki","municipality":"Ylä-Pirkanmaan seutukunta","state":"Pirkanmaa","ISO3166-2-lvl4":"FI-11","region":"Manner-Suomi","country":"Suomi / Finland","country_code":"fi"},"osm_type":"relation","osm_id":2371980,"type":"administrative","location":[24.428681495507263,61.82204875],"bbox":[24.2273894,61.7155795,24.6666743,61.9284304],"inferred_type":"city"}
{"name":"Jyväskylä","other_names":{"name:fi":"Jyväskylä","name:la":"Granivicus","name:lt":"Juveskiulė","name:lv":"Jiveskile","name:ru":"Ювяскюля","name:uk":"Ювяскюля"},"display_name":"Jyväskylä, Jyväskylän seutukunta, Keski-Suomi, Manner-Suomi, Suomi / Finland","address":{"city":"Jyväskylä","municipality":"Jyväskylän seutukunta","state":"Keski-Suomi","ISO3166-2-lvl4":"FI-08","region":"Manner-Suomi","country":"Suomi / Finland","country_code":"fi"},"population":149269,"osm_type":"node","osm_id":82989938,"type":"city","location":[25.7495727,62.2417066],"bbox":[25.5895727,62.0817066,25.9095727,62.4017066],"border":{"name":"Jyväskylä","other_names":{"ref":"179","name:fi":"Jyväskylä","name:ru":"Ювяскюля","short_name":"JKL","name:la":"Granivicus","name:lt":"Juveskiulė","name:lv":"Jiveskile","name:uk":"Ювяскюля"},"display_name":"Jyväskylä, Jyväskylän seutukunta, Keski-Suomi, Manner-Suomi, Suomi / Finland","address":{"city":"Jyväskylä","municipality":"Jyväskylän seutukunta","state":"Keski-Suomi","ISO3166-2-lvl4":"FI-08","region":"Manner-Suomi","country":"Suomi / Finland","country_code":"fi"},"population":149269,"osm_type":"relation","osm_id":569407,"type":"administrative","location":[25.7495727,62.2417066],"bbox":[25.2607866,61.8392056,26.051348,62.428747]}}
{"name":"Kärkölä","other_names":{"ref":"316","name:fi":"Kärkölä","name:ru":"Кяркёля"},"display_name":"Kärkölä, Lahden seutukunta, Päijät-Häme, Manner-Suomi, Suomi / Finland","address":{"city":"Kärkölä","municipality":"Lahden seutukunta","state":"Päijät-Häme","ISO3166-2-lvl4":"FI-16","region":"Manner-Suomi","country":"Suomi / Finland","country_code":"fi"},"osm_type":"relation","osm_id":37090,"type":"administrative","location":[25.251139282110522,60.86765665],"bbox":[25.0785828,60.7519555,25.449608,60.9816746],"inferred_type":"city"}
{"name":"Kokkola","other_names":{"name:da":"Karleby","name:fi":"Kokkola","name:lt":"Kokola","name:ru":"Коккола","name:sv":"Karleby","name:uk":"Коккола","old_name:en":"Gamlekarlebi","old_name:sv":"Gamlakarleby"},"display_name":"Kokkola, Kokkolan seutukunta, Keski-Pohjanmaa, Manner-Suomi, Suomi / Finland","address":{"city":"Kokkola","municipality":"Kokkolan seutukunta","state":"Keski-Pohjanmaa","ISO3166-2-lvl4":"FI-07","region":"Manner-Suomi","country":"Suomi / Finland","country_code":"fi"},"population":48368,"osm_type":"node","osm_id":30969528,"type":"city","location":[23.1336845,63.8391421],"bbox":[22.9736845,63.6791421,23.2936845,63.9991421],"border":{"name":"Kokkola","other_names":{"ref":"272","name:fi":"Kokkola","name:ru":"Коккола","name:sv":"Karleby","name:da":"Karleby","name:lt":"Kokola","name:uk":"Коккола","old_name:en":"Gamlekarlebi","old_name:sv":"Gamlakarleby"},"display_name":"Kokkola, Kokkolan seutukunta, Keski-Pohjanmaa, Manner-Suomi, Suomi / Finland","address":{"city":"Kokkola","municipality":"Kokkolan seutukunta","state":"Keski-Pohjanmaa","ISO3166-2-lvl4":"FI-07","region":"Manner-Suomi","country":"Suomi / Finland","country_code":"fi"},"population":48368,"osm_type":"relation","osm_id":1855920,"type":"administrative","location":[23.1336845,63.8391421],"bbox":[22.287872,63.4991135,24.4927302,64.1789752]}}
{"name":"Kotka","other_names":{"name:fi":"Kotka","name:lt":"Kotka","name:ru":"Котка","name:sr":"Котка","name:uk":"Котка"},"display_name":"Kotka, Kotkan–Haminan seutukunta, Kymenlaakso, Manner-Suomi, Suomi / Finland","address":{"city":"Kotka","municipality":"Kotkan–Haminan seutukunta","state":"Kymenlaakso","ISO3166-2-lvl4":"FI-09","region":"Manner-Suomi","country":"Suomi / Finland","country_code":"fi"},"population":50210,"osm_type":"node","osm_id":30969529,"type":"city","location":[26.9450844,60.4674228],"bbox":[26.7850844,60.3074228,27.1050844,60.6274228],"border":{"name":"Kotka","other_names":{"ref":"285","name:fi":"Kotka","name:lt":"Kotka","name:ru":"Котка","name:sr":"Котка","name:uk":"Котка"},"display_name":"Kotka, Kotkan–Haminan seutukunta, Kymenlaakso, Manner-Suomi, Suomi / Finland","address":{"city":"Kotka","municipality":"Kotkan–Haminan seutukunta","state":"Kymenlaakso","ISO3166-2-lvl4":"FI-09","region":"Manner-Suomi","country":"Suomi / Finland","country_code":"fi"},"population":50210,"osm_type":"relation","osm_id":2485457,"type":"administrative","location":[26.9450844,60.4674228],"bbox":[26.7411301,60.2002026,27.3031365,60.6755736]}}
{"name":"Kouvola","other_names":{"name:fi":"Kouvola","name:lt":"Kouvola","name:ru":"Коувола","name:uk":"Коувола"},"display_name":"Kouvola, Kouvolan seutukunta, Kymenlaakso, Manner-Suomi, Suomi / Finland","address":{"city":"Kouvola","municipality":"Kouvolan seutukunta","state":"Kymenlaakso","ISO3166-2-lvl4":"FI-09","region":"Manner-Suomi","country":"Suomi / Finland","country_code":"fi"},"population":78399,"osm_type":"node","osm_id":30969530,"type":"city","location":[26.7038517,60.8680928],"bbox":[26.5438517,60.7080928,26.8638517,61.0280928],"border":{"name":"Kouvola","other_names":{"ref":"286","name:fi":"Kouvola","name:lt":"Kouvola","name:ru":"Коувола","name:uk":"Коувола"},"display_name":"Kouvola, Kouvolan seutukunta, Kymenlaakso, Manner-Suomi, Suomi / Finland","address":{"city":"Kouvola","municipality":"Kouvolan seutukunta","state":"Kymenlaakso","ISO3166-2-lvl4":"FI-09","region":"Manner-Suomi","country":"Suomi / Finland","country_code":"fi"},"population":78399,"osm_type":"relation","osm_id":2472594,"type":"administrative","location":[26.7038517,60.8680928],"bbox":[26.2353773,60.5750065,27.4283735,61.2925945]}}
{"name":"Kuopio","other_names":{"name:fi":"Kuopio","name:lt":"Kuopijas","name:ru":"Куопио","name:sr":"Куопио","name:uk":"Куопіо","alt_name":"Keskusta"},"display_name":"Kuopio, Kuopion seutukunta, Pohjois-Savo, Manner-Suomi, Suomi / Finland","address":{"city":"Kuopio","municipality":"Kuopion seutukunta","state":"Pohjois-Savo","ISO3166-2-lvl4":"FI-15","region":"Manner-Suomi","country":"Suomi / Finland","country_code":"fi"},"population":125668,"osm_type":"node","osm_id":30969492,"type":"city","location":[27.6781839,62.8924601],"bbox":[27.5181839,62.7324601,27.8381839,63.0524601],"border":{"name":"Kuopio","other_names":{"ref":"297","name:eo":"Kuopio","name:fi":"Kuopio","name:ru":"Куопио","name:lt":"Kuopijas","name:sr":"Куопио","name:uk":"Куопіо","alt_name":"Keskusta"},"display_name":"Kuopio, Kuopion seutukunta, Pohjois-Savo, Manner-Suomi, Suomi / Finland","address":{"city":"Kuopio","municipality":"Kuopion seutukunta","state":"Pohjois-Savo","ISO3166-2-lvl4":"FI-15","region":"Manner-Suomi","country":"Suomi / Finland","country_code":"fi"},"population":125668,"osm_type":"relation","osm_id":1214215,"type":"administrative","location":[27.6781839,62.8924601],"bbox":[26.890138,62.5922177,28.7624182,63.4033023]}}
{"name":"Lahti","other_names":{"name:da":"Lahtis","name:fi":"Lahti","name:is":"Lahtis","name:lt":"Lahtis","name:nn":"Lahtis","name:no":"Lahtis","name:ru":"Лахти","name:sv":"Lahtis","name:uk":"Лахті"},"display_name":"Lahti, Lahden seutukunta, Päijät-Häme, Manner-Suomi, Suomi / Finland","address":{"city":"Lahti","municipality":"Lahden seutukunta","state":"Päijät-Häme","ISO3166-2-lvl4":"FI-16","region":"Manner-Suomi","country":"Suomi / Finland","country_code":"fi"},"population":121383,"osm_type":"node","osm_id":30969494,"type":"city","location":[25.6613764,60.9826014],"bbox":[25.5013764,60.8226014,25.8213764,61.1426014],"border":{"name":"Lahti","other_names":{"ref":"398","name:eo":"Lahtio","name:fi":"Lahti","name:lt":"Lahtis","name:ru":"Лахти","name:sv":"Lahtis","name:da":"Lahtis","name:is":"Lahtis","name:nn":"Lahtis","name:no":"Lahtis","name:uk":"Лахті"},"display_name":"Lahti, Lahden seutukunta, Päijät-Häme, Manner-Suomi, Suomi / Finland","address":{"city":"Lahti","municipality":"Lahden seutukunta","state":"Päijät-Häme","ISO3166-2-lvl4":"FI-16","region":"Manner-Suomi","country":"Suomi / Finland","country_code":"fi"},"population":121383,"osm_type":"relation","osm_id":345901,"type":"administrative","location":[25.6613764,60.9826014],"bbox":[25.5403066,60.8866528,26.1689723,61.1026648]}}
{"name":"Lappeenranta","other_names":{"name:ar":"لابينرانتا","name:be":"Лапеэнранта","name:de":"Lappeenranta","name:en":"Lappeenranta","name:fi":"Lappeenranta","name:fr":"Lappeenranta","name:ja":"ラッペーンランタ","name:ko":"라펜란타","name:ml":"ലപ്പീൻറൻ്റ","name:ru":"Лаппеэнранта","name:sv":"Villmanstrand","name:uk":"Лаппеенранта","name:zh":"拉彭蘭塔","old_name:sv":"Wilmanstrand"},"display_name":"Lappeenranta, Lappeenrannan seutukunta, Etelä-Karjala, Manner-Suomi, Suomi / Finland","address":{"city":"Lappeenranta","municipality":"Lappeenrannan seutukunta","state":"Etelä-Karjala","ISO3166-2-lvl4":"FI-02","region":"Manner-Suomi","country":"Suomi / Finland","country_code":"fi"},"population":73369,"osm_type":"node","osm_id":30969531,"type":"city","location":[28.1862742,61.0583713],"bbox":[28.0262742,60.8983713,28.3462742,61.2183713],"border":{"name":"Lappeenranta","other_names":{"ref":"405","name:ar":"لابينرانتا","name:ca":"Lappeenranta","name:en":"Lappeenranta","name:fi":"Lappeenranta","name:fr":"Lappeenranta","name:ja":"ラッペーンランタ","name:ko":"라펜란타","name:ru":"Лаппеэнранта","name:sv":"Villmanstrand","name:uk":"Лаппеенранта","name:zh":"拉彭蘭塔","name:be":"Лапеэнранта","name:de":"Lappeenranta","name:ml":"ലപ്പീൻറൻ്റ","old_name:sv":"Wilmanstrand"},"display_name":"Lappeenranta, Lappeenrannan seutukunta, Etelä-Karjala, Manner-Suomi, Suomi / Finland","address":{"city":"Lappeenranta","municipality":"Lappeenrannan seutukunta","state":"Etelä-Karjala","ISO3166-2-lvl4":"FI-02","region":"Manner-Suomi","country":"Suomi / Finland","country_code":"fi"},"population":73369,"osm_type":"relation","osm_id":2273016,"type":"administrative","location":[28.1862742,61.0583713],"bbox":[27.7104527,60.6666743,28.7771684,61.2846964]}}
{"name":"Mänttä-Vilppula","other_names":{"ref":"508","name:fi":"Mänttä-Vilppula","name:sv":"Mänttä-Filpula"},"display_name":"Mänttä-Vilppula, Ylä-Pirkanmaan seutukunta, Pirkanmaa, Manner-Suomi, Suomi / Finland","address":{"city":"Mänttä-Vilppula","municipality":"Ylä-Pirkanmaan seutukunta","state":"Pirkanmaa","ISO3166-2-lvl4":"FI-11","region":"Manner-Suomi","country":"Suomi / Finland","country_code":"fi"},"osm_type":"relation","osm_id":1701738,"type":"administrative","location":[24.450432224467008,62.0826146],"bbox":[24.0354918,61.906068,24.7309152,62.2603117],"inferred_type":"city"}
{"name":"Mikkeli","other_names":{"name:fi":"Mikkeli","name:ru":"Миккели","name:sv":"S:t Michel","name:uk":"Міккелі","name:zh":"米凱利","alt_name:sv":"Sankt Michel"},"display_name":"Mikkeli, Mikkelin seutukunta, Etelä-Savo, Manner-Suomi, Suomi / Finland","address":{"city":"Mikkeli","municipality":"Mikkelin seutukunta","state":"Etelä-Savo","ISO3166-2-lvl4":"FI-04","region":"Manner-Suomi","country":"Suomi / Finland","country_code":"fi"},"population":51893,"osm_type":"node","osm_id":30969854,"type":"city","location":[27.2726569,61.6877956],"bbox":[27.1126569,61.5277956,27.4326569,61.8477956],"border":[{"name":"Mikkeli","other_names":{"ref":"491","name:fi":"Mikkeli","name:ru":"Миккели","name:sv":"S:t Michel","name:uk":"Міккелі","name:zh":"米凱利","alt_name:sv":"Sankt Michel"},"display_name":"Mikkeli, Mikkelin seutukunta, Etelä-Savo, Manner-Suomi, Suomi / Finland","address":{"city":"Mikkeli","municipality":"Mikkelin seutukunta","state":"Etelä-Savo","ISO3166-2-lvl4":"FI-04","region":"Manner-Suomi","country":"Suomi / Finland","country_code":"fi"},"population":51893,"osm_type":"relation","osm_id":2752683,"type":"administrative","location":[27.2726569,61.6877956],"bbox":[26.8266235,61.2089245,27.9003804,62.199123]},{"name":"Mikkeli","other_names":{"name:fi":"Mikkeli","name:ru":"Миккели","name:sv":"S:t Michel"},"display_name":"Mikkeli, Mikkelin seutukunta, Etelä-Savo, Manner-Suomi, Suomi / Finland","address":{"city_district":"Mikkeli","city":"Mikkeli","municipality":"Mikkelin seutukunta","state":"Etelä-Savo","ISO3166-2-lvl4":"FI-04","region":"Manner-Suomi","country":"Suomi / Finland","country_code":"fi"},"osm_type":"relation","osm_id":2522462,"type":"administrative","location":[27.1531939599619,61.83380685],"bbox":[26.8266235,61.4677013,27.9003804,62.199123]}]}
{"name":"Oulu","other_names":{"name:fi":"Oulu","name:fr":"Oulu","name:lt":"Oulu","name:ru":"Оулу","name:sr":"Оулу","name:sv":"Uleåborg","name:uk":"Оулу","name:zh":"奧盧","name:gsw":"Oùlù","old_name:en":"Ula","old_name:en:start_date":"before 1751"},"display_name":"Oulu, Oulun seutukunta, Pohjois-Pohjanmaa, Manner-Suomi, Suomi / Finland","address":{"city":"Oulu","municipality":"Oulun seutukunta","state":"Pohjois-Pohjanmaa","ISO3166-2-lvl4":"FI-14","region":"Manner-Suomi","country":"Suomi / Finland","country_code":"fi"},"population":216194,"osm_type":"node","osm_id":29064107,"type":"city","location":[25.4701983,65.0117869],"bbox":[25.3101983,64.8517869,25.6301983,65.1717869],"border":{"name":"Oulu","other_names":{"ref":"564","name:fi":"Oulu","name:lt":"Oulu","name:ru":"Оулу","name:sv":"Uleåborg","name:fr":"Oulu","name:sr":"Оулу","name:uk":"Оулу","name:zh":"奧盧","name:gsw":"Oùlù","old_name:en":"Ula","old_name:en:start_date":"before 1751"},"display_name":"Oulu, Oulun seutukunta, Pohjois-Pohjanmaa, Manner-Suomi, Suomi / Finland","address":{"city":"Oulu","municipality":"Oulun seutukunta","state":"Pohjois-Pohjanmaa","ISO3166-2-lvl4":"FI-14","region":"Manner-Suomi","country":"Suomi / Finland","country_code":"fi"},"population":216194,"osm_type":"relation","osm_id":2711874,"type":"administrative","location":[25.4701983,65.0117869],"bbox":[24.1184654,64.844412,26.7715283,65.5643522]}}
{"name":"Pedersöre","other_names":{"ref":"599","name:fi":"Pedersören kunta","name:ru":"Педерсёре","name:sv":"Pedersöre","old_name:fi":"Pietarsaaren maalaiskunta"},"display_name":"Pedersöre, Jakobstadsregionen, Österbotten, Manner-Suomi, Suomi / Finland","address":{"city":"Pedersöre","municipality":"Jakobstadsregionen","state":"Österbotten","ISO3166-2-lvl4":"FI-12","region":"Manner-Suomi","country":"Suomi / Finland","country_code":"fi"},"osm_type":"relation","osm_id":1855925,"type":"administrative","location":[23.04521116699538,63.5407579],"bbox":[22.539402,63.3473025,23.3904625,63.7359112],"inferred_type":"city"}
{"name":"Pori","other_names":{"name:be":"Поры","name:fi":"Pori","name:hu":"Pori","name:la":"Arctopolis","name:no":"Björneborg","name:ru":"Пори","name:sr":"Пори","name:sv":"Björneborg","name:uk":"Порі","old_name:de":"Bjorneborgh","name:sr-Latn":"Peri"},"display_name":"Pori, Porin seutukunta, Satakunta, Manner-Suomi, Suomi / Finland","address":{"city":"Pori","municipality":"Porin seutukunta","state":"Satakunta","ISO3166-2-lvl4":"FI-17","region":"Manner-Suomi","country":"Suomi / Finland","country_code":"fi"},"population":83316,"osm_type":"node","osm_id":21640149,"type":"city","location":[21.7972071,61.4866126],"bbox":[21.6372071,61.3266126,21.9572071,61.6466126],"border":{"name":"Pori","other_names":{"ref":"609","name:da":"Björneborg","name:fi":"Pori","name:no":"Björneborg","name:ru":"Пори","name:sv":"Björneborg","name:be":"Поры","name:hu":"Pori","name:la":"Arctopolis","name:sr":"Пори","name:uk":"Порі","old_name:de":"Bjorneborgh","name:sr-Latn":"Peri"},"display_name":"Pori, Porin seutukunta, Satakunta, Manner-Suomi, Suomi / Finland","address":{"city":"Pori","municipality":"Porin seutukunta","state":"Satakunta","ISO3166-2-lvl4":"FI-17","region":"Manner-Suomi","country":"Suomi / Finland","country_code":"fi"},"population":83316,"osm_type":"relation","osm_id":4446212,"type":"administrative","location":[21.7972071,61.4866126],"bbox":[20.8747853,61.3840243,22.7249099,61.7497009]}}
{"name":"Porvoo","other_names":{"name:fi":"Porvoo","name:ru":"Порвоо","name:sv":"Borgå","name:uk":"Порвоо"},"display_name":"Porvoo, Porvoon seutukunta, Uusimaa, Manner-Suomi, Suomi / Finland","address":{"city":"Porvoo","municipality":"Porvoon seutukunta","state":"Uusimaa","ISO3166-2-lvl4":"FI-18","region":"Manner-Suomi","country":"Suomi / Finland","country_code":"fi"},"population":51753,"osm_type":"node","osm_id":22980865,"type":"city","location":[25.6619265,60.3943748],"bbox":[25.5019265,60.2343748,25.8219265,60.5543748],"border":{"name":"Porvoo","other_names":{"ref":"638","name:fi":"Porvoo","name:ru":"Порвоо","name:sv":"Borgå","name:uk":"Порвоо"},"display_name":"Porvoo, Porvoon seutukunta, Uusimaa, Manner-Suomi, Suomi / Finland","address":{"city":"Porvoo","municipality":"Porvoon seutukunta","state":"Uusimaa","ISO3166-2-lvl4":"FI-18","region":"Manner-Suomi","country":"Suomi / Finland","country_code":"fi"},"population":51753,"osm_type":"relation","osm_id":37197,"type":"administrative","location":[25.6619265,60.3943748],"bbox":[25.3290779,59.9281997,26.2712854,60.5510037]}}
{"name":"Raseborg","other_names":{"ref":"710","name:fi":"Raasepori","name:ru":"Расеборг","name:sv":"Raseborg"},"display_name":"Raseborg, Raseborgs ekonomiska region, Uusimaa, Manner-Suomi, Suomi / Finland","address":{"city":"Raseborg","municipality":"Raseborgs ekonomiska region","state":"Uusimaa","ISO3166-2-lvl4":"FI-18","region":"Manner-Suomi","country":"Suomi / Finland","country_code":"fi"},"population":28405,"osm_type":"relation","osm_id":452116,"type":"administrative","location":[23.52192344963455,59.9285263],"bbox":[22.7883255,59.6511692,23.983413,60.2059979],"inferred_type":"city"}
{"name":"Rovaniemi","other_names":{"name:fi":"Rovaniemi","name:fr":"Rovaniemi","name:lt":"Rovaniemis","name:ru":"Рованиеми","name:se":"Roavvenjárga","name:sr":"Рованијеми","name:uk":"Рованіємі","name:zh":"羅瓦涅米","name:gsw":"Rovaniemi","name:smn":"Ruávinjargâ","name:sms":"Ruäˊvnjargg","name:sr-Latn":"Rovaniemi","name:zh-Hans":"罗瓦涅米","name:zh-Hant":"羅瓦涅米"},"display_name":"Rovaniemi, Rovaniemen seutukunta, Lappi, Manner-Suomi, Suomi / Finland","address":{"city":"Rovaniemi","municipality":"Rovaniemen seutukunta","state":"Lappi","ISO3166-2-lvl4":"FI-10","region":"Manner-Suomi","country":"Suomi / Finland","country_code":"fi"},"population":65738,"osm_type":"node","osm_id":30969539,"type":"city","location":[25.73122,66.5025657],"bbox":[25.57122,66.3425657,25.89122,66.6625657],"border":{"name":"Rovaniemi","other_names":{"ref":"698","name:fi":"Rovaniemi","name:fr":"Rovaniemi","name:ru":"Рованиеми","name:zh":"罗瓦涅米","name:gsw":"Rovaniemi","name:zh-Hans":"罗瓦涅米","name:zh-Hant":"羅瓦涅米","name:lt":"Rovaniemis","name:se":"Roavvenjárga","name:sr":"Рованијеми","name:uk":"Рованіємі","name:smn":"Ruávinjargâ","name:sms":"Ruäˊvnjargg","name:sr-Latn":"Rovaniemi","alt:zh":"羅瓦涅米"},"display_name":"Rovaniemi, Rovaniemen seutukunta, Lappi, Manner-Suomi, Suomi / Finland","address":{"city":"Rovaniemi","municipality":"Rovaniemen seutukunta","state":"Lappi","ISO3166-2-lvl4":"FI-10","region":"Manner-Suomi","country":"Suomi / Finland","country_code":"fi"},"population":65329,"osm_type":"relation","osm_id":2528474,"type":"administrative","location":[25.73122,66.5025657],"bbox":[24.73658,66.1555137,27.3266437,67.1794991]}}
{"name":"Salo","other_names":{"name:fi":"Salo","name:ru":"Сало","name:sr":"Сало","name:uk":"Сало","alt_name":"Salo"},"display_name":"Salo, Salon seutukunta, Varsinais-Suomi, Manner-Suomi, Suomi / Finland","address":{"city":"Salo","municipality":"Salon seutukunta","state":"Varsinais-Suomi","ISO3166-2-lvl4":"FI-19","region":"Manner-Suomi","country":"Suomi / Finland","country_code":"fi"},"population":50,"osm_type":"node","osm_id":30969777,"type":"city","location":[23.1286377,60.3846716],"bbox":[22.9686377,60.2246716,23.2886377,60.5446716],"border":{"name":"Salo","other_names":{"ref":"734","name:fi":"Salo","name:ru":"Сало","name:sr":"Сало","name:uk":"Сало","alt_name":"Salo"},"display_name":"Salo, Salon seutukunta, Varsinais-Suomi, Manner-Suomi, Suomi / Finland","address":{"city":"Salo","municipality":"Salon seutukunta","state":"Varsinais-Suomi","ISO3166-2-lvl4":"FI-19","region":"Manner-Suomi","country":"Suomi / Finland","country_code":"fi"},"population":50,"osm_type":"relation","osm_id":2373964,"type":"administrative","location":[23.1286377,60.3846716],"bbox":[22.7909881,59.9952099,23.7962516,60.5956771]}}
{"name":"Seinäjoki","other_names":{"name:fi":"Seinäjoki","name:ru":"Сейняйоки","name:sr":"Сејнејоки","name:uk":"Сейняйокі","name:sr-Latn":"Seinajoki"},"display_name":"Seinäjoki, Seinäjoen seutukunta, Etelä-Pohjanmaa, Manner-Suomi, Suomi / Finland","address":{"city":"Seinäjoki","municipality":"Seinäjoen seutukunta","state":"Etelä-Pohjanmaa","ISO3166-2-lvl4":"FI-03","region":"Manner-Suomi","country":"Suomi / Finland","country_code":"fi"},"population":66610,"osm_type":"node","osm_id":30969536,"type":"city","location":[22.8398019,62.7906684],"bbox":[22.6798019,62.6306684,22.9998019,62.9506684],"border":{"name":"Seinäjoki","other_names":{"ref":"743","name:fi":"Seinäjoki","name:ru":"Сейняйоки","name:sv":"Seinäjoki","old_name:sv":"Östermyra","name:sr":"Сејнејоки","name:uk":"Сейняйокі","name:sr-Latn":"Seinajoki"},"display_name":"Seinäjoki, Seinäjoen seutukunta, Etelä-Pohjanmaa, Manner-Suomi, Suomi / Finland","address":{"city":"Seinäjoki","municipality":"Seinäjoen seutukunta","state":"Etelä-Pohjanmaa","ISO3166-2-lvl4":"FI-03","region":"Manner-Suomi","country":"Suomi / Finland","country_code":"fi"},"population":66610,"osm_type":"relation","osm_id":2216875,"type":"administrative","location":[22.8398019,62.7906684],"bbox":[22.302658,62.3191816,23.3678208,63.0853741]}}
{"name":"Siikajoki","other_names":{"ref":"748","name:fi":"Siikajoki","name:ru":"Сийкайоки"},"display_name":"Siikajoki, Raahen seutukunta, Pohjois-Pohjanmaa, Manner-Suomi, Suomi / Finland","address":{"city":"Siikajoki","municipality":"Raahen seutukunta","state":"Pohjois-Pohjanmaa","ISO3166-2-lvl4":"FI-14","region":"Manner-Suomi","country":"Suomi / Finland","country_code":"fi"},"osm_type":"relation","osm_id":2525928,"type":"administrative","location":[24.978369043359493,64.71168685],"bbox":[23.943401,64.4146183,25.5292774,65.0079495],"inferred_type":"city"}
{"name":"Siikalatva","other_names":{"ref":"791","name:fi":"Siikalatva","name:ru":"Сийкалатва"},"display_name":"Siikalatva, Haapaveden-Siikalatvan seutukunta, Pohjois-Pohjanmaa, Manner-Suomi, Suomi / Finland","address":{"city":"Siikalatva","municipality":"Haapaveden-Siikalatvan seutukunta","state":"Pohjois-Pohjanmaa","ISO3166-2-lvl4":"FI-14","region":"Manner-Suomi","country":"Suomi / Finland","country_code":"fi"},"osm_type":"relation","osm_id":2525940,"type":"administrative","location":[26.07900415968809,64.3119466],"bbox":[25.3795451,63.9952338,26.7708538,64.6289463],"inferred_type":"city"}
{"name":"Tampere","other_names":{"name:ar":"تامبيري","name:be":"Тамперэ","name:el":"Τάμπερε","name:fa":"تامپری","name:fi":"Tampere","name:fr":"Tampere","name:ja":"タンペレ","name:ko":"탐페레","name:lt":"Tamperė","name:no":"Tammerfors","name:ru":"Тампере","name:sv":"Tammerfors","name:uk":"Тампере","name:zh":"坦佩雷","name:gsw":"Tampere"},"display_name":"Tampere, Tampereen seutukunta, Pirkanmaa, Manner-Suomi, Suomi / Finland","address":{"city":"Tampere","municipality":"Tampereen seutukunta","state":"Pirkanmaa","ISO3166-2-lvl4":"FI-11","region":"Manner-Suomi","country":"Suomi / Finland","country_code":"fi"},"population":260358,"osm_type":"node","osm_id":30969480,"type":"city","location":[23.7603118,61.4980214],"bbox":[23.6003118,61.3380214,23.9203118,61.6580214],"border":{"name":"Tampere","other_names":{"ref":"837","name:ar":"تامبيري","name:be":"Тамперэ","name:el":"Τάμπερε","name:fa":"تامپری","name:fi":"Tampere","name:ja":"タンペレ","name:ko":"탐페레","name:lt":"Tamperė","name:no":"Tammerfors","name:ru":"Тампере","name:sv":"Tammerfors","name:uk":"Тампере","name:zh":"坦佩雷","short_name":"TRE","name:fr":"Tampere","name:gsw":"Tampere"},"display_name":"Tampere, Tampereen seutukunta, Pirkanmaa, Manner-Suomi, Suomi / Finland","address":{"city":"Tampere","municipality":"Tampereen seutukunta","state":"Pirkanmaa","ISO3166-2-lvl4":"FI-11","region":"Manner-Suomi","country":"Suomi / Finland","country_code":"fi"},"population":260358,"osm_type":"relation","osm_id":3579531,"type":"administrative","location":[23.7603118,61.4980214],"bbox":[23.5422878,61.4233923,24.1184947,61.836614]}}
{"name":"Turku","other_names":{"name:ar":"توركو","name:be":"Турку","name:et":"Turu","name:fa":"تورکو","name:fi":"Turku","name:hu":"Turku","name:la":"Aboa","name:lt":"Turku","name:mk":"Турку","name:ru":"Турку","name:sv":"Åbo","name:uk":"Турку","name:zh":"圖爾庫"},"display_name":"Turku, Turun seutukunta, Varsinais-Suomi, Manner-Suomi, 20100, Suomi / Finland","address":{"city":"Turku","municipality":"Turun seutukunta","state":"Varsinais-Suomi","ISO3166-2-lvl4":"FI-19","region":"Manner-Suomi","postcode":"20100","country":"Suomi / Finland","country_code":"fi"},"population":206035,"osm_type":"node","osm_id":21847490,"type":"city","location":[22.2670522,60.4517531],"bbox":[22.1070522,60.2917531,22.4270522,60.6117531],"border":{"name":"Turku","other_names":{"ref":"853","name:ar":"توركو","name:et":"Turu","name:fi":"Turku","name:la":"Aboa","name:lt":"Turku","name:no":"Åbo","name:ru":"Турку","name:sv":"Åbo","old_name:ru":"Або","name:be":"Турку","name:fa":"تورکو","name:hu":"Turku","name:mk":"Турку","name:uk":"Турку","name:zh":"圖爾庫"},"display_name":"Turku, Turun seutukunta, Varsinais-Suomi, Manner-Suomi, Suomi / Finland","address":{"city":"Turku","municipality":"Turun seutukunta","state":"Varsinais-Suomi","ISO3166-2-lvl4":"FI-19","region":"Manner-Suomi","country":"Suomi / Finland","country_code":"fi"},"population":206035,"osm_type":"relation","osm_id":399906,"type":"administrative","location":[22.2670522,60.4517531],"bbox":[22.0661599,60.3335222,22.4581649,60.7372962]}}
{"name":"Vaasa","other_names":{"name:be":"Ва́са","name:fi":"Vaasa","name:fr":"Vaasa","name:lt":"Vasa","name:no":"Vasa","name:ru":"Вааса","name:sr":"Васа","name:sv":"Vasa","name:uk":"Вааса","name:gsw":"Vaasa","name:vep":"Vas"},"display_name":"Vaasa, Vaasan seutukunta, Österbotten, Manner-Suomi, 65100, Suomi / Finland","address":{"city":"Vaasa","municipality":"Vaasan seutukunta","state":"Österbotten","ISO3166-2-lvl4":"FI-12","region":"Manner-Suomi","postcode":"65100","country":"Suomi / Finland","country_code":"fi"},"population":70374,"osm_type":"node","osm_id":1637607582,"type":"city","location":[21.6159187,63.0957722],"bbox":[21.4559187,62.9357722,21.7759187,63.2557722],"border":[{"name":"Vaasa","other_names":{"ref":"905","name:da":"Vasa","name:fi":"Vaasa","name:is":"Vasa","name:nn":"Vasa","name:no":"Vasa","name:ru":"Вааса","name:sv":"Vasa","name:be":"Ва́са","name:fr":"Vaasa","name:lt":"Vasa","name:sr":"Васа","name:uk":"Вааса","name:gsw":"Vaasa","name:vep":"Vas"},"display_name":"Vaasa, Vaasan seutukunta, Österbotten, Manner-Suomi, Suomi / Finland","address":{"city":"Vaasa","municipality":"Vaasan seutukunta","state":"Österbotten","ISO3166-2-lvl4":"FI-12","region":"Manner-Suomi","country":"Suomi / Finland","country_code":"fi"},"population":70374,"osm_type":"relation","osm_id":1855926,"type":"administrative","location":[21.6159187,63.0957722],"bbox":[21.0276273,62.9594378,22.2423226,63.178854]},{"name":"Vaasa","other_names":{"ref":"905","name:fi":"Vaasa","name:ru":"Вааса","name:sv":"Vasa"},"display_name":"Vaasa, Vaasan seutukunta, Österbotten, Manner-Suomi, Suomi / Finland","address":{"city_district":"Vaasa","city":"Vaasa","municipality":"Vaasan seutukunta","state":"Österbotten","ISO3166-2-lvl4":"FI-12","region":"Manner-Suomi","country":"Suomi / Finland","country_code":"fi"},"osm_type":"relation","osm_id":2752783,"type":"administrative","location":[21.479812522296804,63.081820949999994],"bbox":[21.0276273,62.9818566,21.8288944,63.178854]}]}
{"name":"Vantaa","other_names":{"name:fi":"Vantaa","name:lt":"Vanta","name:ru":"Вантаа","name:sv":"Vanda","name:uk":"Вантаа"},"display_name":"Vantaa, Helsingin seutukunta, Uusimaa, Manner-Suomi, Suomi / Finland","address":{"city":"Vantaa","municipality":"Helsingin seutukunta","state":"Uusimaa","ISO3166-2-lvl4":"FI-18","region":"Manner-Suomi","country":"Suomi / Finland","country_code":"fi"},"population":251,"osm_type":"node","osm_id":30871749,"type":"city","location":[25.0407809,60.2933337],"bbox":[24.8807809,60.1333337,25.2007809,60.4533337],"border":{"name":"Vantaa","other_names":{"ref":"092","name:da":"Vanda","name:fi":"Vantaa","name:is":"Vanda","name:lt":"Vanta","name:nn":"Vanda","name:no":"Vanda","name:ru":"Вантаа","name:sv":"Vanda","old_name:sv":"Helsinge","name:uk":"Вантаа"},"display_name":"Vantaa, Helsingin seutukunta, Uusimaa, Manner-Suomi, Suomi / Finland","address":{"city":"Vantaa","municipality":"Helsingin seutukunta","state":"Uusimaa","ISO3166-2-lvl4":"FI-18","region":"Manner-Suomi","country":"Suomi / Finland","country_code":"fi"},"population":251,"osm_type":"relation","osm_id":34920,"type":"administrative","location":[25.0407809,60.2933337],"bbox":[24.7462404,60.2372174,25.1930674,60.4012466]}}
{"name":"Virolahti","other_names":{"ref":"935","name:fi":"Virolahti","name:ru":"Виролахти","name:sv":"Vederlax"},"display_name":"Virolahti, Kotkan–Haminan seutukunta, Kymenlaakso, Manner-Suomi, Suomi / Finland","address":{"city":"Virolahti","municipality":"Kotkan–Haminan seutukunta","state":"Kymenlaakso","ISO3166-2-lvl4":"FI-09","region":"Manner-Suomi","country":"Suomi / Finland","country_code":"fi"},"osm_type":"relation","osm_id":2502572,"type":"administrative","location":[27.58750068238396,60.509032700000006],"bbox":[27.3564543,60.3571169,27.8831612,60.6608499],"inferred_type":"city"}
