{"name":"Bjelovar","other_names":{"name:ar":"بيلوفار","name:az":"Bеlоvаr","name:be":"Б’елавар","name:bg":"Беловар","name:ce":"Беловар","name:cs":"Bělovar","name:de":"Bjelovar","name:el":"Μπιέλοβαρ","name:fa":"بیلوار","name:fr":"Bjelovar","name:he":"ביילובאר","name:hu":"Belovár","name:hy":"Բելովար","name:it":"Bellovar","name:ja":"ビェロヴァル","name:ka":"ბელოვარი","name:ko":"벨로바르","name:la":"Bellovarium","name:lt":"Bjelovaras","name:lv":"Bjelovara","name:mk":"Бјеловар","name:ru":"Бьеловар","name:sl":"Belovar","name:sr":"Бјеловар","name:th":"บีเยโลวาร์","name:uk":"Б'єловар","name:ur":"بیئلووار","name:ckb":"بیێلۆڤار","name:wuu":"别洛瓦尔","alt_name:cs":"Bělovár","alt_name:de":"Bellovar","alt_name:hr":"Belovar","alt_name:la":"Bellovarinum;Belovarinum;Bellovar","old_name:de":"Bellowar","name:zh-Hans":"别洛瓦尔","name:zh-Hant":"別洛瓦爾","alt_name:hr:1756":"Novi Varaždin","old_name:de:1756":"Neu-Warasdin"},"display_name":"Bjelovar, Grad Bjelovar, Bjelovarsko-bilogorska županija, Hrvatska","address":{"city":"Bjelovar","county":"Bjelovarsko-bilogorska županija","ISO3166-2-lvl6":"HR-07","country":"Hrvatska","country_code":"hr"},"population":24392,"osm_type":"node","osm_id":463204318,"type":"city","location":[16.8421977,45.8986869],"bbox":[16.6821977,45.7386869,17.0021977,46.0586869],"border":{"name":"Grad Bjelovar","other_names":{"name:hr":"Grad Bjelovar","name:ar":"بيلوفار","name:az":"Bеlоvаr","name:be":"Б’елавар","name:bg":"Беловар","name:ce":"Беловар","name:cs":"Bělovar","name:de":"Bjelovar","name:el":"Μπιέλοβαρ","name:fa":"بیلوار","name:fr":"Bjelovar","name:he":"ביילובאר","name:hu":"Belovár","name:hy":"Բելովար","name:it":"Bellovar","name:ja":"ビェロヴァル","name:ka":"ბელოვარი","name:ko":"벨로바르","name:la":"Bellovarium","name:lt":"Bjelovaras","name:lv":"Bjelovara","name:mk":"Бјеловар","name:ru":"Бьеловар","name:sl":"Belovar","name:sr":"Бјеловар","name:th":"บีเยโลวาร์","name:uk":"Б'єловар","name:ur":"بیئلووار","name:ckb":"بیێلۆڤار","name:wuu":"别洛瓦尔","alt_name:cs":"Bělovár","alt_name:de":"Bellovar","alt_name:hr":"Belovar","alt_name:la":"Bellovarinum;Belovarinum;Bellovar","old_name:de":"Bellowar","name:zh-Hans":"别洛瓦尔","name:zh-Hant":"別洛瓦爾","alt_name:hr:1756":"Novi Varaždin","old_name:de:1756":"Neu-Warasdin","alt":"Bjelovar"},"display_name":"Grad Bjelovar, Bjelovarsko-bilogorska županija, Hrvatska","address":{"city":"Grad Bjelovar","county":"Bjelovarsko-bilogorska županija","ISO3166-2-lvl6":"HR-07","country":"Hrvatska","country_code":"hr"},"population":36316,"osm_type":"relation","osm_id":8447842,"type":"administrative","location":[16.8421977,45.8986869],"bbox":[16.6925455,45.8184997,16.9640904,45.9638007]}}
{"name":"Dubrovnik","other_names":{"name:ar":"دوبروفنيك","name:be":"Дуброўнік","name:bg":"Дубровник","name:ce":"Дубровник","name:cs":"Dubrovník","name:cv":"Дубровник","name:el":"Ντούμπροβνικ","name:en":"Dubrovnik","name:fa":"دوبروونیک","name:ga":"Dubrovnic","name:he":"דוברובניק","name:hu":"Raguza","name:hy":"Դուբրովնիկ","name:it":"Ragusa","name:ja":"ドゥブロヴニク","name:ka":"დუბროვნიკი","name:ko":"두브로브니크","name:ky":"Дубровник","name:la":"Ragusium","name:lt":"Dubrovnikas","name:lv":"Dubrovnika","name:mk":"Дубровник","name:mr":"दुब्रोव्हनिक","name:my":"ဒူဗရော့ဗ်နစ်ခ်မြို့","name:os":"Дубровник","name:pl":"Dubrownik","name:ps":"دوبرونیک","name:ru":"Дубровник","name:sk":"Dubrovník","name:sq":"Dubrovniku","name:sr":"Дубровник","name:th":"ดูบรอฟนีก","name:tt":"Дубровник","name:uk":"Дубровник","name:ur":"دوبروونیک","name:yi":"ראגוזא","name:ckb":"دوبرۆڤنیک","name:lmo":"Ragüsa","name:sah":"Дубровник","name:vec":"Raguxa","name:wuu":"杜布罗夫尼克","name:xmf":"დუბროვნიკი","name:yue":"杜布羅夫尼克","old_name":"Ragusa","alt_name:hy":"Ռագուզա","alt_name:it":"Ragusa di Dalmazia","alt_name:ka":"რაგუზა","alt_name:la":"Ragusa","alt_name:sq":"Rush","name:sr-Latn":"Dubrovnik","name:zh-Hans":"杜布罗夫尼克","name:zh-Hant":"杜布羅夫尼克"},"display_name":"Dubrovnik, Grad Dubrovnik, Dubrovačko-neretvanska županija, Hrvatska","address":{"city":"Dubrovnik","county":"Dubrovačko-neretvanska županija","ISO3166-2-lvl6":"HR-19","country":"Hrvatska","country_code":"hr"},"population":26922,"osm_type":"node","osm_id":1583747666,"type":"city","location":[18.0939501,42.6491029],"bbox":[17.9339501,42.4891029,18.2539501,42.8091029],"border":[{"name":"Grad Dubrovnik","other_names":{"name:hr":"Grad Dubrovnik","name:it":"Città di Ragusa","name:sk":"mesto Dubrovník","name:ar":"دوبروفنيك","name:be":"Дуброўнік","name:bg":"Дубровник","name:ce":"Дубровник","name:cs":"Dubrovník","name:cv":"Дубровник","name:el":"Ντούμπροβνικ","name:en":"Dubrovnik","name:fa":"دوبروونیک","name:ga":"Dubrovnic","name:he":"דוברובניק","name:hu":"Raguza","name:hy":"Դուբրովնիկ","name:ja":"ドゥブロヴニク","name:ka":"დუბროვნიკი","name:ko":"두브로브니크","name:ky":"Дубровник","name:la":"Ragusium","name:lt":"Dubrovnikas","name:lv":"Dubrovnika","name:mk":"Дубровник","name:mr":"दुब्रोव्हनिक","name:my":"ဒူဗရော့ဗ်နစ်ခ်မြို့","name:os":"Дубровник","name:pl":"Dubrownik","name:ps":"دوبرونیک","name:ru":"Дубровник","name:sq":"Dubrovniku","name:sr":"Дубровник","name:th":"ดูบรอฟนีก","name:tt":"Дубровник","name:uk":"Дубровник","name:ur":"دوبروونیک","name:yi":"ראגוזא","name:ckb":"دوبرۆڤنیک","name:lmo":"Ragüsa","name:sah":"Дубровник","name:vec":"Raguxa","name:wuu":"杜布罗夫尼克","name:xmf":"დუბროვნიკი","name:yue":"杜布羅夫尼克","old_name":"Ragusa","alt_name:hy":"Ռագուզա","alt_name:it":"Ragusa di Dalmazia","alt_name:ka":"რაგუზა","alt_name:la":"Ragusa","alt_name:sq":"Rush","name:sr-Latn":"Dubrovnik","name:zh-Hans":"杜布罗夫尼克","name:zh-Hant":"杜布羅夫尼克","alt":"Dubrovnik","alt:it":"Ragusa","alt:sk":"Dubrovník"},"display_name":"Grad Dubrovnik, Dubrovačko-neretvanska županija, Hrvatska","address":{"city":"Grad Dubrovnik","county":"Dubrovačko-neretvanska županija","ISO3166-2-lvl6":"HR-19","country":"Hrvatska","country_code":"hr"},"population":41562,"osm_type":"relation","osm_id":8796464,"type":"administrative","location":[18.0939501,42.6491029],"bbox":[17.7655924,42.6208867,18.1581147,42.7803608]},{"name":"Dubrovnik","other_names":{"name:be":"Дуброўнік","name:cs":"Dubrovník","name:hr":"Dubrovnik","name:hu":"Raguza","name:it":"Ragusa","name:ko":"두브로브니크","name:la":"Ragusa","name:lt":"Dubrovnikas","name:pl":"Dubrownik","name:ru":"Дубровник","name:sk":"Dubrovník","name:sr":"Дубровник","old_name":"Ragusa","alt_name:it":"Ragusa di Dalmazia","name:sr-Latn":"Dubrovnik"},"display_name":"Dubrovnik, Grad Dubrovnik, Dubrovačko-neretvanska županija, Hrvatska","address":{"city_district":"Dubrovnik","city":"Grad Dubrovnik","county":"Dubrovačko-neretvanska županija","ISO3166-2-lvl6":"HR-19","country":"Hrvatska","country_code":"hr"},"population":26922,"osm_type":"relation","osm_id":13226684,"type":"administrative","location":[18.094680152605108,42.64873625],"bbox":[18.0462375,42.6208867,18.1418169,42.6705551]}]}
{"name":"Karlovac","other_names":{"name:ar":"كارلوفاتش","name:az":"Kаrlоvаç","name:be":"Карлавац","name:bg":"Карловац","name:ce":"Карловац","name:de":"Karlovac","name:el":"Κάρλοβατς","name:fa":"کارلواتس","name:he":"קרלובץ","name:hr":"Karlovac","name:hu":"Károlyváros","name:hy":"Կարլովաց","name:it":"Carlovizza","name:ja":"カルロヴァツ","name:ka":"კარლოვაცი","name:ko":"카를로바츠","name:la":"Carolostadium","name:lt":"Karlovacas","name:lv":"Karlovaca","name:mk":"Карловац","name:os":"Карловац","name:ru":"Карловац","name:si":"Karlovec","name:sk":"Karlovec","name:sl":"Karlovec","name:sr":"Карловац","name:th":"การ์ลอวัตส์","name:tt":"Карловац","name:uk":"Карловаць","name:ur":"کارلوواتس","name:ckb":"کارلۆڤاتس","name:wuu":"卡尔洛瓦茨","alt_name:la":"Bibium;Carlostadium;Carolopolis;Romula","old_name:de":"Karlstadt","name:zh-Hans":"卡尔洛瓦茨","name:zh-Hant":"卡爾洛瓦茨"},"display_name":"Karlovac, Grad Karlovac, Karlovačka županija, Hrvatska","address":{"city":"Karlovac","municipality":"Grad Karlovac","county":"Karlovačka županija","ISO3166-2-lvl6":"HR-04","country":"Hrvatska","country_code":"hr"},"population":41869,"osm_type":"node","osm_id":341465590,"type":"city","location":[15.5486303,45.4892522],"bbox":[15.3886303,45.3292522,15.7086303,45.6492522],"border":{"name":"Karlovac","other_names":{"name:hr":"Karlovac","name:sk":"Karlovec","name:ar":"كارلوفاتش","name:az":"Kаrlоvаç","name:be":"Карлавац","name:bg":"Карловац","name:ce":"Карловац","name:de":"Karlovac","name:el":"Κάρλοβατς","name:fa":"کارلواتس","name:he":"קרלובץ","name:hu":"Károlyváros","name:hy":"Կարլովաց","name:it":"Carlovizza","name:ja":"カルロヴァツ","name:ka":"კარლოვაცი","name:ko":"카를로바츠","name:la":"Carolostadium","name:lt":"Karlovacas","name:lv":"Karlovaca","name:mk":"Карловац","name:os":"Карловац","name:ru":"Карловац","name:si":"Karlovec","name:sl":"Karlovec","name:sr":"Карловац","name:th":"การ์ลอวัตส์","name:tt":"Карловац","name:uk":"Карловаць","name:ur":"کارلوواتس","name:ckb":"کارلۆڤاتس","name:wuu":"卡尔洛瓦茨","alt_name:la":"Bibium;Carlostadium;Carolopolis;Romula","old_name:de":"Karlstadt","name:zh-Hans":"卡尔洛瓦茨","name:zh-Hant":"卡爾洛瓦茨"},"display_name":"Karlovac, Grad Karlovac, Karlovačka županija, Hrvatska","address":{"city":"Karlovac","municipality":"Grad Karlovac","county":"Karlovačka županija","ISO3166-2-lvl6":"HR-04","country":"Hrvatska","country_code":"hr"},"population":41869,"osm_type":"relation","osm_id":11227312,"type":"administrative","location":[15.5486303,45.4892522],"bbox":[15.4842287,45.4198986,15.6319796,45.5646849]}}
{"name":"Kornati","display_name":"Kornati, Općina Murter-Kornati, Šibensko-kninska županija, Hrvatska","address":{"city":"Kornati","municipality":"Općina Murter-Kornati","county":"Šibensko-kninska županija","ISO3166-2-lvl6":"HR-15","country":"Hrvatska","country_code":"hr"},"population":19,"osm_type":"relation","osm_id":12700260,"type":"administrative","location":[15.322074515121667,43.805438],"bbox":[15.2068143,43.6739286,15.5589623,43.946995],"inferred_type":"city"}
{"name":"Osijek","other_names":{"name:ar":"أوسييك","name:ba":"Осиек","name:be":"Осіек","name:bg":"Осиек","name:ce":"Осиек","name:de":"Osijek","name:el":"Όσιγιεκ","name:en":"Osijek","name:es":"Osijek","name:fa":"اوسییک","name:fr":"Osijek","name:he":"אוסייק","name:hr":"Osijek","name:hu":"Eszék","name:hy":"Օսյեկ","name:it":"Essechio","name:ja":"オシエク","name:ka":"ოსიეკი","name:ko":"오시예크","name:la":"Mursa","name:lt":"Osijekas","name:lv":"Osijeka","name:mk":"Осиек","name:ml":"ഒസിയെക്ക്","name:os":"Осиек","name:ru":"Осиек","name:sr":"Осијек","name:th":"ออซิเยก","name:tt":"Осиек","name:uk":"Осієк","name:ur":"اوسیئک","name:ckb":"ئۆسیێک","name:wuu":"奥西耶克","name:xmf":"ოსიეკი","name:yue":"奧西耶克","alt_name:ba":"Осийка","alt_name:de":"Esseg","alt_name:it":"Essecchio","alt_name:la":"Mursia;Essecium;Essekinum","old_name:de":"Essegg","old_name:tr":"Ösek","name:sr-Latn":"Osijek","name:zh-Hans":"奥西耶克","name:zh-Hant":"奧西耶克"},"display_name":"Osijek, Grad Osijek, Osječko-baranjska županija, 31000, Hrvatska","address":{"city":"Osijek","municipality":"Grad Osijek","county":"Osječko-baranjska županija","ISO3166-2-lvl6":"HR-14","postcode":"31000","country":"Hrvatska","country_code":"hr"},"population":75535,"osm_type":"node","osm_id":253924853,"type":"city","location":[18.6953685,45.5548793],"bbox":[18.5353685,45.3948793,18.8553685,45.7148793],"border":[{"name":"Grad Osijek","other_names":{"name:hr":"Grad Osijek","short_name":"Osijek"},"display_name":"Grad Osijek, Osječko-baranjska županija, Hrvatska","address":{"municipality":"Grad Osijek","county":"Osječko-baranjska županija","ISO3166-2-lvl6":"HR-14","country":"Hrvatska","country_code":"hr"},"population":96313,"osm_type":"relation","osm_id":8309777,"type":"administrative","location":[18.776139147885612,45.5205],"bbox":[18.5567383,45.4447179,18.8637331,45.5964305]},{"name":"Osijek","other_names":{"name:hr":"Osijek","name:ar":"أوسييك","name:ba":"Осиек","name:be":"Осіек","name:bg":"Осиек","name:ce":"Осиек","name:de":"Osijek","name:el":"Όσιγιεκ","name:en":"Osijek","name:es":"Osijek","name:fa":"اوسییک","name:fr":"Osijek","name:he":"אוסייק","name:hu":"Eszék","name:hy":"Օսյեկ","name:it":"Essechio","name:ja":"オシエク","name:ka":"ოსიეკი","name:ko":"오시예크","name:la":"Mursa","name:lt":"Osijekas","name:lv":"Osijeka","name:mk":"Осиек","name:ml":"ഒസിയെക്ക്","name:os":"Осиек","name:ru":"Осиек","name:sr":"Осијек","name:th":"ออซิเยก","name:tt":"Осиек","name:uk":"Осієк","name:ur":"اوسیئک","name:ckb":"ئۆسیێک","name:wuu":"奥西耶克","name:xmf":"ოსიეკი","name:yue":"奧西耶克","alt_name:ba":"Осийка","alt_name:de":"Esseg","alt_name:it":"Essecchio","alt_name:la":"Mursia;Essecium;Essekinum","old_name:de":"Essegg","old_name:tr":"Ösek","name:sr-Latn":"Osijek","name:zh-Hans":"奥西耶克","name:zh-Hant":"奧西耶克"},"display_name":"Osijek, Grad Osijek, Osječko-baranjska županija, Hrvatska","address":{"city":"Osijek","municipality":"Grad Osijek","county":"Osječko-baranjska županija","ISO3166-2-lvl6":"HR-14","country":"Hrvatska","country_code":"hr"},"population":75535,"osm_type":"relation","osm_id":8436035,"type":"administrative","location":[18.6953685,45.5548793],"bbox":[18.5961968,45.5140654,18.7813567,45.5800579]}]}
{"name":"Pula","other_names":{"name:ar":"بولا","name:ba":"Пула","name:be":"Пула","name:bg":"Пула","name:de":"Pula","name:el":"Πούλα","name:es":"Pola","name:fa":"پولا","name:he":"פולה","name:hr":"Pula","name:hu":"Póla","name:hy":"Պուլա","name:it":"Pola","name:ja":"プーラ","name:ka":"პულა","name:ko":"풀라","name:la":"Pietas Iulia","name:lt":"Pola","name:mk":"Пула","name:nl":"Pula","name:os":"Пулæ","name:pl":"Pula","name:ro":"Pola","name:ru":"Пула","name:sl":"Pulj","name:sr":"Пула","name:tg":"Пула","name:tt":"Пула","name:uk":"Пула","name:ur":"پولا","name:yi":"פולא","name:zh":"普拉","name:ckb":"پولا","name:lmo":"Pola","name:vec":"Poła","name:vep":"Pul","name:xmf":"პულა","alt_name:la":"Pola;Polensis Civitas","old_name:de":"Polei","name:sr-Latn":"Pula","official_name":"Pula - Pola"},"display_name":"Pula, Grad Pula, Istarska županija, 52100, Hrvatska","address":{"city":"Pula","county":"Istarska županija","ISO3166-2-lvl6":"HR-18","postcode":"52100","country":"Hrvatska","country_code":"hr"},"population":52220,"osm_type":"node","osm_id":1830216906,"type":"city","location":[13.8455311,44.8702281],"bbox":[13.6855311,44.7102281,14.0055311,45.0302281],"border":[{"name":"Grad Pula","other_names":{"name:de":"Stadt Pola","name:hr":"Grad Pula","name:it":"Città di Pola","name:ru":"Город Пула","official_name":"Grad Pula - Pola","name:ar":"بولا","name:ba":"Пула","name:be":"Пула","name:bg":"Пула","name:el":"Πούλα","name:es":"Pola","name:fa":"پولا","name:he":"פולה","name:hu":"Póla","name:hy":"Պուլա","name:ja":"プーラ","name:ka":"პულა","name:ko":"풀라","name:la":"Pietas Iulia","name:lt":"Pola","name:mk":"Пула","name:nl":"Pula","name:os":"Пулæ","name:pl":"Pula","name:ro":"Pola","name:sl":"Pulj","name:sr":"Пула","name:tg":"Пула","name:tt":"Пула","name:uk":"Пула","name:ur":"پولا","name:yi":"פולא","name:zh":"普拉","name:ckb":"پولا","name:lmo":"Pola","name:vec":"Poła","name:vep":"Pul","name:xmf":"პულა","alt_name:la":"Pola;Polensis Civitas","old_name:de":"Polei","name:sr-Latn":"Pula","_place_official_name":"Pula - Pola","alt":"Pula","alt:de":"Pula","alt:hr":"Pula","alt:it":"Pola","alt:ru":"Пула"},"display_name":"Grad Pula, Istarska županija, Hrvatska","address":{"city":"Grad Pula","county":"Istarska županija","ISO3166-2-lvl6":"HR-18","country":"Hrvatska","country_code":"hr"},"population":52220,"osm_type":"relation","osm_id":2259875,"type":"administrative","location":[13.8455311,44.8702281],"bbox":[13.7096749,44.8261258,13.9168194,44.945372]},{"name":"Pula","other_names":{"name:ar":"بولا","name:ba":"Пула","name:be":"Пула","name:bg":"Пула","name:de":"Pula","name:el":"Πούλα","name:es":"Pola","name:fa":"پولا","name:he":"פולה","name:hr":"Pula","name:hu":"Póla","name:hy":"Պուլա","name:it":"Pola","name:ja":"プーラ","name:ka":"პულა","name:ko":"풀라","name:la":"Pietas Iulia","name:lt":"Pola","name:mk":"Пула","name:nl":"Pula","name:os":"Пулæ","name:pl":"Pula","name:ro":"Pola","name:ru":"Пула","name:sl":"Pulj","name:sr":"Пула","name:tg":"Пула","name:tt":"Пула","name:uk":"Пула","name:ur":"پولا","name:yi":"פולא","name:zh":"普拉","name:ckb":"پولا","name:lmo":"Pola","name:vec":"Poła","name:vep":"Pul","name:xmf":"პულა","name:sr-Latn":"Pula"},"display_name":"Pula, Grad Pula, Istarska županija, Hrvatska","address":{"city_district":"Pula","city":"Grad Pula","county":"Istarska županija","ISO3166-2-lvl6":"HR-18","country":"Hrvatska","country_code":"hr"},"osm_type":"relation","osm_id":15949026,"type":"administrative","location":[13.8749713146798,44.87360795],"bbox":[13.7096749,44.8261258,13.9168194,44.945372]}]}
{"name":"Rijeka","other_names":{"name:ar":"رييكا","name:az":"Riyeka","name:be":"Рыека","name:bg":"Риека","name:ce":"Риека","name:cv":"Риека","name:de":"Rijeka","name:el":"Ριέκα","name:fa":"رییکا","name:he":"רייקה","name:hr":"Rijeka","name:hu":"Fiume","name:hy":"Ռիեկա","name:it":"Fiume","name:ja":"リエカ","name:ka":"რიეკა","name:ko":"리예카","name:la":"Tarsatica","name:lt":"Rijeka","name:mk":"Риека","name:mr":"रियेका","name:os":"Риекæ","name:ru":"Риека","name:sl":"Reka","name:sr":"Ријека","name:th":"ริเยกา","name:tt":"Риека","name:uk":"Рієка","name:ur":"ریئکا","name:uz":"Riyeka","name:zh":"里耶卡","name:ckb":"ڕیێکا","name:lij":"Sciùmme","name:rue":"Риека","name:vec":"Fiume","name:vep":"Rijek","name:wuu":"里耶卡","name:xmf":"რიეკა","name:yue":"里耶卡","alt_name:el":"Φιούμε","alt_name:fa":"ریْ یِکا","alt_name:hy":"Ֆիումե","alt_name:ja":"フューメ","alt_name:la":"Tarsaticum;Tharsatica;Tharsaticum;Vitopolis;Flumen;Fanum Sancti Viti;Flumen Sancti Viti;Fanum Sancti Viti Fluminiensis;Flumaria;Tarte;Tersatica","alt_name:mk":"Фјуме","alt_name:th":"ฟียูเม","old_name:de":"Sankt Veit am Flaum","old_name:la":"Tarsatica"},"display_name":"Rijeka, Grad Rijeka, Primorsko-goranska županija, 51000, Hrvatska","address":{"city":"Rijeka","county":"Primorsko-goranska županija","ISO3166-2-lvl6":"HR-08","postcode":"51000","country":"Hrvatska","country_code":"hr"},"population":107964,"osm_type":"node","osm_id":29098860,"type":"city","location":[14.442208,45.3267976],"bbox":[14.282208,45.1667976,14.602208,45.4867976],"border":[{"name":"Grad Rijeka","other_names":{"name:hr":"Grad Rijeka","name:it":"Città di Fiume","name:ar":"رييكا","name:az":"Riyeka","name:be":"Рыека","name:bg":"Риека","name:ce":"Риека","name:cv":"Риека","name:de":"Rijeka","name:el":"Ριέκα","name:fa":"رییکا","name:he":"רייקה","name:hu":"Fiume","name:hy":"Ռիեկա","name:ja":"リエカ","name:ka":"რიეკა","name:ko":"리예카","name:la":"Tarsatica","name:lt":"Rijeka","name:mk":"Риека","name:mr":"रियेका","name:os":"Риекæ","name:ru":"Риека","name:sl":"Reka","name:sr":"Ријека","name:th":"ริเยกา","name:tt":"Риека","name:uk":"Рієка","name:ur":"ریئکا","name:uz":"Riyeka","name:zh":"里耶卡","name:ckb":"ڕیێکا","name:lij":"Sciùmme","name:rue":"Риека","name:vec":"Fiume","name:vep":"Rijek","name:wuu":"里耶卡","name:xmf":"რიეკა","name:yue":"里耶卡","alt_name:el":"Φιούμε","alt_name:fa":"ریْ یِکا","alt_name:hy":"Ֆիումե","alt_name:ja":"フューメ","alt_name:la":"Tarsaticum;Tharsatica;Tharsaticum;Vitopolis;Flumen;Fanum Sancti Viti;Flumen Sancti Viti;Fanum Sancti Viti Fluminiensis;Flumaria;Tarte;Tersatica","alt_name:mk":"Фјуме","alt_name:th":"ฟียูเม","old_name:de":"Sankt Veit am Flaum","old_name:la":"Tarsatica","alt":"Rijeka","alt:hr":"Rijeka","alt:it":"Fiume"},"display_name":"Grad Rijeka, Primorsko-goranska županija, Hrvatska","address":{"city":"Grad Rijeka","county":"Primorsko-goranska županija","ISO3166-2-lvl6":"HR-08","country":"Hrvatska","country_code":"hr"},"population":107964,"osm_type":"relation","osm_id":2260028,"type":"administrative","location":[14.442208,45.3267976],"bbox":[14.3319285,45.307442,14.5309683,45.3840477]},{"name":"Rijeka","other_names":{"name:hr":"Rijeka","name:it":"Fiume"},"display_name":"Rijeka, Grad Rijeka, Primorsko-goranska županija, Hrvatska","address":{"city_district":"Rijeka","city":"Grad Rijeka","county":"Primorsko-goranska županija","ISO3166-2-lvl6":"HR-08","country":"Hrvatska","country_code":"hr"},"population":107964,"osm_type":"relation","osm_id":16380291,"type":"administrative","location":[14.413007672576036,45.34577085],"bbox":[14.3319285,45.307442,14.5309683,45.3840477]}]}
{"name":"Šibenik","other_names":{"name:ar":"شيبينيك","name:az":"Şibenik","name:be":"Шыбенік","name:bg":"Шибеник","name:ce":"Шибеник","name:el":"Σίμπενικ","name:fa":"شیبنیک","name:he":"שיבניק","name:hu":"Szebenikó","name:hy":"Շիբենիկ","name:it":"Sebenico","name:ja":"シベニク","name:ka":"შიბენიკი","name:ko":"시베니크","name:la":"Sebenicum","name:lt":"Šibenikas","name:lv":"Šibenika","name:mk":"Шибеник","name:ml":"ഷിബെനിക്ക്","name:os":"Шибеник","name:pl":"Szybenik","name:ru":"Шибеник","name:sq":"Shibeniku","name:sr":"Шибеник","name:th":"ชิเบนีก","name:tt":"Шибеник","name:uk":"Шибеник","name:ur":"شیبینک","name:ckb":"شیبێنیک","name:lmo":"Sebenico","name:vec":"Sebenego","name:wuu":"希贝尼克","alt_name:la":"Sibenicum","old_name:de":"Sibenning","name:zh-Hans":"希贝尼克","name:zh-Hant":"希貝尼克"},"display_name":"Šibenik, Grad Šibenik, Šibensko-kninska županija, Hrvatska","address":{"city":"Šibenik","county":"Šibensko-kninska županija","ISO3166-2-lvl6":"HR-15","country":"Hrvatska","country_code":"hr"},"population":31115,"osm_type":"node","osm_id":270442378,"type":"city","location":[15.8944767,43.7340647],"bbox":[15.7344767,43.5740647,16.0544767,43.8940647],"border":[{"name":"Grad Šibenik","other_names":{"name:hr":"Grad Šibenik","name:it":"Città di Sebenico","name:nl":"Grad Šibenik","name:ar":"شيبينيك","name:az":"Şibenik","name:be":"Шыбенік","name:bg":"Шибеник","name:ce":"Шибеник","name:el":"Σίμπενικ","name:fa":"شیبنیک","name:he":"שיבניק","name:hu":"Szebenikó","name:hy":"Շիբենիկ","name:ja":"シベニク","name:ka":"შიბენიკი","name:ko":"시베니크","name:la":"Sebenicum","name:lt":"Šibenikas","name:lv":"Šibenika","name:mk":"Шибеник","name:ml":"ഷിബെനിക്ക്","name:os":"Шибеник","name:pl":"Szybenik","name:ru":"Шибеник","name:sq":"Shibeniku","name:sr":"Шибеник","name:th":"ชิเบนีก","name:tt":"Шибеник","name:uk":"Шибеник","name:ur":"شیبینک","name:ckb":"شیبێنیک","name:lmo":"Sebenico","name:vec":"Sebenego","name:wuu":"希贝尼克","alt_name:la":"Sibenicum","old_name:de":"Sibenning","name:zh-Hans":"希贝尼克","name:zh-Hant":"希貝尼克","alt":"Šibenik","alt:it":"Sebenico"},"display_name":"Grad Šibenik, Šibensko-kninska županija, Hrvatska","address":{"city":"Grad Šibenik","county":"Šibensko-kninska županija","ISO3166-2-lvl6":"HR-15","country":"Hrvatska","country_code":"hr"},"population":42599,"osm_type":"relation","osm_id":8820767,"type":"administrative","location":[15.8944767,43.7340647],"bbox":[15.5565517,43.6053678,16.1538703,43.8464676]},{"name":"Šibenik","display_name":"Šibenik, Grad Šibenik, Šibensko-kninska županija, Hrvatska","address":{"city_district":"Šibenik","city":"Grad Šibenik","county":"Šibensko-kninska županija","ISO3166-2-lvl6":"HR-15","country":"Hrvatska","country_code":"hr"},"population":34302,"osm_type":"relation","osm_id":11125446,"type":"administrative","location":[15.898507377503499,43.74117455],"bbox":[15.8264832,43.6925272,15.9447687,43.7898527]}]}
{"name":"Sisak","other_names":{"name:ar":"سيساك","name:ba":"Сисак","name:be":"Сісак","name:bg":"Сисак","name:ce":"Сисак","name:el":"Σίσακ","name:fa":"سیساک","name:he":"סיסאק","name:hu":"Sziszek","name:hy":"Սիսակ","name:it":"Siscia","name:ja":"シサク","name:ka":"სისაკი","name:ko":"시사크","name:la":"Siscia","name:lt":"Sisakas","name:mk":"Сисак","name:ru":"Сисак","name:sl":"Sisek","name:sr":"Сисак","name:tr":"Siska","name:uk":"Сисак","name:ur":"سیساک","name:ckb":"سیساک","name:pnb":"سیساک","alt_name:la":"Silacum;Sissekum","old_name:de":"Sissek","name:zh-Hans":"锡萨克","name:zh-Hant":"錫薩克"},"display_name":"Sisak, Grad Sisak, Sisačko-moslavačka županija, Hrvatska","address":{"city":"Sisak","county":"Sisačko-moslavačka županija","ISO3166-2-lvl6":"HR-03","country":"Hrvatska","country_code":"hr"},"population":27859,"osm_type":"node","osm_id":408910962,"type":"city","location":[16.374592,45.4891806],"bbox":[16.214592,45.3291806,16.534592,45.6491806],"border":[{"name":"Grad Sisak","other_names":{"name:hr":"Grad Sisak","name:ar":"سيساك","name:ba":"Сисак","name:be":"Сісак","name:bg":"Сисак","name:ce":"Сисак","name:el":"Σίσακ","name:fa":"سیساک","name:he":"סיסאק","name:hu":"Sziszek","name:hy":"Սիսակ","name:it":"Siscia","name:ja":"シサク","name:ka":"სისაკი","name:ko":"시사크","name:la":"Siscia","name:lt":"Sisakas","name:mk":"Сисак","name:ru":"Сисак","name:sl":"Sisek","name:sr":"Сисак","name:tr":"Siska","name:uk":"Сисак","name:ur":"سیساک","name:ckb":"سیساک","name:pnb":"سیساک","alt_name:la":"Silacum;Sissekum","old_name:de":"Sissek","name:zh-Hans":"锡萨克","name:zh-Hant":"錫薩克","alt":"Sisak"},"display_name":"Grad Sisak, Sisačko-moslavačka županija, Hrvatska","address":{"city":"Grad Sisak","county":"Sisačko-moslavačka županija","ISO3166-2-lvl6":"HR-03","country":"Hrvatska","country_code":"hr"},"population":40121,"osm_type":"relation","osm_id":8778895,"type":"administrative","location":[16.374592,45.4891806],"bbox":[16.2429764,45.3358007,16.781324,45.5759136]},{"name":"Sisak","display_name":"Sisak, Grad Sisak, Sisačko-moslavačka županija, Hrvatska","address":{"city_district":"Sisak","city":"Grad Sisak","county":"Sisačko-moslavačka županija","ISO3166-2-lvl6":"HR-03","country":"Hrvatska","country_code":"hr"},"osm_type":"relation","osm_id":12251024,"type":"administrative","location":[16.390818238278083,45.4740566],"bbox":[16.3491211,45.4362683,16.4320098,45.5121071]}]}
{"name":"Slavonski Brod","other_names":{"name:ar":"سلافونسكي برود","name:ba":"Славонски-Брод","name:be":"Славанскі-Брод","name:bg":"Славонски брод","name:ce":"Славонски-Брод","name:cs":"Slavonský Brod","name:de":"Slavonski Brod","name:el":"Σλαβόνσκι Μπροντ","name:en":"Slavonski Brod","name:es":"Slavonski Brod","name:fa":"اسلاونسکی برد","name:fr":"Slavonski Brod","name:he":"סלבונסקי ברוד","name:hu":"Bród","name:hy":"Սլավոնական Բրոդ","name:ja":"スラヴォンスキ・ブロド","name:ka":"სლავონსკი-ბროდი","name:ko":"슬라본스키브로드","name:la":"Marsonia","name:lt":"Slavonski Brodas","name:lv":"Slavonski Broda","name:mk":"Славонски Брод","name:ml":"സ്ലാവോൻസ്കി ബ്രോഡ്","name:ru":"Славонски-Брод","name:sq":"Sllavonski Brod","name:sr":"Славонски Брод","name:th":"สลาวอนสกีบรอด","name:uk":"Славонський Брод","name:ur":"سلاونسکی برود","name:ckb":"سلاڤۆنسکی برۆد","name:wuu":"斯拉沃尼亚布罗德","alt_name:hu":"Szlavónbród","alt_name:la":"Marsunnia;Brodium","name:zh-Hans":"斯拉沃尼亚布罗德","name:zh-Hant":"斯拉沃尼亞布羅德"},"display_name":"Slavonski Brod, Grad Slavonski Brod, Brodsko-posavska županija, Hrvatska","address":{"city":"Slavonski Brod","municipality":"Grad Slavonski Brod","county":"Brodsko-posavska županija","ISO3166-2-lvl6":"HR-12","country":"Hrvatska","country_code":"hr"},"population":45005,"osm_type":"node","osm_id":1588925812,"type":"city","location":[18.0121385,45.1665803],"bbox":[17.8521385,45.0065803,18.1721385,45.3265803],"border":{"name":"Slavonski Brod","other_names":{"name:hr":"Slavonski Brod","name:ar":"سلافونسكي برود","name:ba":"Славонски-Брод","name:be":"Славанскі-Брод","name:bg":"Славонски брод","name:ce":"Славонски-Брод","name:cs":"Slavonský Brod","name:de":"Slavonski Brod","name:el":"Σλαβόνσκι Μπροντ","name:en":"Slavonski Brod","name:es":"Slavonski Brod","name:fa":"اسلاونسکی برد","name:fr":"Slavonski Brod","name:he":"סלבונסקי ברוד","name:hu":"Bród","name:hy":"Սլավոնական Բրոդ","name:ja":"スラヴォンスキ・ブロド","name:ka":"სლავონსკი-ბროდი","name:ko":"슬라본스키브로드","name:la":"Marsonia","name:lt":"Slavonski Brodas","name:lv":"Slavonski Broda","name:mk":"Славонски Брод","name:ml":"സ്ലാവോൻസ്കി ബ്രോഡ്","name:ru":"Славонски-Брод","name:sq":"Sllavonski Brod","name:sr":"Славонски Брод","name:th":"สลาวอนสกีบรอด","name:uk":"Славонський Брод","name:ur":"سلاونسکی برود","name:ckb":"سلاڤۆنسکی برۆد","name:wuu":"斯拉沃尼亚布罗德","alt_name:hu":"Szlavónbród","alt_name:la":"Marsunnia;Brodium","name:zh-Hans":"斯拉沃尼亚布罗德","name:zh-Hant":"斯拉沃尼亞布羅德"},"display_name":"Slavonski Brod, Grad Slavonski Brod, Brodsko-posavska županija, Hrvatska","address":{"city":"Slavonski Brod","municipality":"Grad Slavonski Brod","county":"Brodsko-posavska županija","ISO3166-2-lvl6":"HR-12","country":"Hrvatska","country_code":"hr"},"population":45005,"osm_type":"relation","osm_id":9174424,"type":"administrative","location":[18.0121385,45.1665803],"bbox":[17.9365889,45.1115684,18.0607366,45.2010752]}}
{"name":"Split","other_names":{"name:ar":"سبليت","name:be":"Спліт","name:bg":"Сплит","name:bn":"স্প্লিত","name:ce":"Сплит","name:cv":"Сплит","name:de":"Split","name:el":"Σπλιτ","name:en":"Split","name:es":"Split","name:fa":"اسپلیت","name:fr":"Split","name:he":"ספליט","name:hr":"Split","name:hu":"Split","name:hy":"Սպլիտ","name:it":"Spalato","name:ja":"スプリト","name:ka":"სპლიტი","name:ko":"스플리트","name:la":"Spalatum","name:lt":"Splitas","name:lv":"Splita","name:mk":"Сплит","name:ml":"സ്പ്ലിറ്റ്","name:mr":"स्प्लिट","name:os":"Сплит","name:ru":"Сплит","name:sr":"Сплит","name:th":"สปลิต","name:uk":"Спліт","name:ur":"سپلیت","name:grc":"Ασπάλαθος","name:vec":"Spàlato","name:wuu":"色波特","name:xmf":"სპლიტი","name:yue":"施普利特","alt_name:hu":"Spalató","alt_name:la":"Aspalatus;Palatium Diocletiani;Salona Nova;Spalatium;Spalatrum","name:sr-Latn":"Split","name:zh-Hans":"斯普利特","name:zh-Hant":"史普利特"},"display_name":"Split, Grad Split, Splitsko-dalmatinska županija, 21000, Hrvatska","address":{"city":"Split","municipality":"Grad Split","county":"Splitsko-dalmatinska županija","ISO3166-2-lvl6":"HR-17","postcode":"21000","country":"Hrvatska","country_code":"hr"},"population":149830,"osm_type":"node","osm_id":1467604275,"type":"city","location":[16.4399659,43.5116383],"bbox":[16.2799659,43.3516383,16.5999659,43.6716383],"border":[{"name":"Grad Split","other_names":{"name:hr":"Grad Split","name:it":"Città di Spalato","short_name":"Split"},"display_name":"Grad Split, Splitsko-dalmatinska županija, Hrvatska","address":{"municipality":"Grad Split","county":"Splitsko-dalmatinska županija","ISO3166-2-lvl6":"HR-17","country":"Hrvatska","country_code":"hr"},"population":160577,"osm_type":"relation","osm_id":2826807,"type":"administrative","location":[16.466213993134932,43.512019699999996],"bbox":[16.3021847,43.4722309,16.6405174,43.5518514]},{"name":"Split","other_names":{"name:hr":"Split","name:ar":"سبليت","name:be":"Спліт","name:bg":"Сплит","name:bn":"স্প্লিত","name:ce":"Сплит","name:cv":"Сплит","name:de":"Split","name:el":"Σπλιτ","name:en":"Split","name:es":"Split","name:fa":"اسپلیت","name:fr":"Split","name:he":"ספליט","name:hu":"Split","name:hy":"Սպլիտ","name:it":"Spalato","name:ja":"スプリト","name:ka":"სპლიტი","name:ko":"스플리트","name:la":"Spalatum","name:lt":"Splitas","name:lv":"Splita","name:mk":"Сплит","name:ml":"സ്പ്ലിറ്റ്","name:mr":"स्प्लिट","name:os":"Сплит","name:ru":"Сплит","name:sr":"Сплит","name:th":"สปลิต","name:uk":"Спліт","name:ur":"سپلیت","name:grc":"Ασπάλαθος","name:vec":"Spàlato","name:wuu":"色波特","name:xmf":"სპლიტი","name:yue":"施普利特","alt_name:hu":"Spalató","alt_name:la":"Aspalatus;Palatium Diocletiani;Salona Nova;Spalatium;Spalatrum","name:sr-Latn":"Split","name:zh-Hans":"斯普利特","name:zh-Hant":"史普利特"},"display_name":"Split, Grad Split, Splitsko-dalmatinska županija, Hrvatska","address":{"city":"Split","municipality":"Grad Split","county":"Splitsko-dalmatinska županija","ISO3166-2-lvl6":"HR-17","country":"Hrvatska","country_code":"hr"},"population":149830,"osm_type":"relation","osm_id":11153757,"type":"administrative","location":[16.4399659,43.5116383],"bbox":[16.3877955,43.4985847,16.5303557,43.5322835]}]}
{"name":"Varaždin","other_names":{"name:ar":"فارازدين","name:az":"Vаrаjdin","name:ba":"Вараждин","name:be":"Вараждзін","name:bg":"Вараждин","name:ce":"Вараждин","name:cs":"Varaždín","name:de":"Varaždin","name:el":"Βάραζντιν","name:fa":"واراژدین","name:he":"ואראז'דין","name:hr":"Varaždin","name:hu":"Varasd","name:hy":"Վարաժդին","name:it":"Varasdino","name:ja":"ヴァラジュディン","name:ka":"ვარაჟდინი","name:ko":"바라주딘","name:la":"Varasdinum","name:lt":"Varaždinas","name:lv":"Varaždina","name:mk":"Вараждин","name:nl":"Varaždin","name:os":"Вараждин","name:ru":"Вараждин","name:sk":"Varaždín","name:sl":"Varaždin","name:sq":"Varazhdin","name:sr":"Вараждин","name:tt":"Вараждин","name:uk":"Вараждин","name:ur":"واراژدن","name:zh":"瓦拉日丁","name:ckb":"ڤاراژدین","name:lmo":"Varasdin","name:mdf":"Вараждин","name:wuu":"瓦拉日丁","alt_name:la":"Opsara;Populi","old_name:de":"Warasdin"},"display_name":"Varaždin, Grad Varaždin, Varaždinska županija, Hrvatska","address":{"city":"Varaždin","county":"Varaždinska županija","ISO3166-2-lvl6":"HR-05","country":"Hrvatska","country_code":"hr"},"population":36187,"osm_type":"node","osm_id":343645893,"type":"city","location":[16.3378198,46.3079645],"bbox":[16.1778198,46.1479645,16.4978198,46.4679645],"border":[{"name":"Grad Varaždin","other_names":{"name:en":"City of Varaždin","name:hr":"Grad Varaždin","name:sk":"mesto Varaždín","name:ar":"فارازدين","name:az":"Vаrаjdin","name:ba":"Вараждин","name:be":"Вараждзін","name:bg":"Вараждин","name:ce":"Вараждин","name:cs":"Varaždín","name:de":"Varaždin","name:el":"Βάραζντιν","name:fa":"واراژدین","name:he":"ואראז'דין","name:hu":"Varasd","name:hy":"Վարաժդին","name:it":"Varasdino","name:ja":"ヴァラジュディン","name:ka":"ვარაჟდინი","name:ko":"바라주딘","name:la":"Varasdinum","name:lt":"Varaždinas","name:lv":"Varaždina","name:mk":"Вараждин","name:nl":"Varaždin","name:os":"Вараждин","name:ru":"Вараждин","name:sl":"Varaždin","name:sq":"Varazhdin","name:sr":"Вараждин","name:tt":"Вараждин","name:uk":"Вараждин","name:ur":"واراژدن","name:zh":"瓦拉日丁","name:ckb":"ڤاراژدین","name:lmo":"Varasdin","name:mdf":"Вараждин","name:wuu":"瓦拉日丁","alt_name:la":"Opsara;Populi","old_name:de":"Warasdin","alt":"Varaždin","alt:hr":"Varaždin","alt:sk":"Varaždín"},"display_name":"Grad Varaždin, Varaždinska županija, Hrvatska","address":{"city":"Grad Varaždin","county":"Varaždinska županija","ISO3166-2-lvl6":"HR-05","country":"Hrvatska","country_code":"hr"},"population":43782,"osm_type":"relation","osm_id":8427892,"type":"administrative","location":[16.3378198,46.3079645],"bbox":[16.2851023,46.2571152,16.4442425,46.3573635]},{"name":"Varaždin","other_names":{"name:hr":"Varaždin","name:sk":"Varaždín"},"display_name":"Varaždin, Grad Varaždin, Varaždinska županija, Hrvatska","address":{"city_district":"Varaždin","city":"Grad Varaždin","county":"Varaždinska županija","ISO3166-2-lvl6":"HR-05","country":"Hrvatska","country_code":"hr"},"population":36187,"osm_type":"relation","osm_id":13206965,"type":"administrative","location":[16.34261219443033,46.3125721],"bbox":[16.2899951,46.2682654,16.3951298,46.3573635]}]}
{"name":"Vinkovci","other_names":{"name:ar":"فينكوفسي","name:be":"Вінкаўцы","name:bg":"Винковци","name:de":"Vinkovci","name:en":"Vinkovci","name:fa":"وینکوتسی","name:he":"וינקובצי","name:hu":"Vinkovce","name:ja":"ヴィンコヴツィ","name:ko":"빈코브치","name:la":"Cibalae","name:lt":"Vinkovcai","name:mk":"Винковци","name:ml":"വിൻകോവ്ച്ചി","name:ru":"Винковци","name:sr":"Винковци","name:uk":"Вінковці","name:ur":"وینکووتسی","name:ckb":"ڤینکۆڤتسی","name:rue":"Винковци","old_name":"Vinkovce","alt_name:la":"Colonia Aurelia Cibalae;Cibalis;Ad Labores","old_name:de":"Winkowitz","old_name:hu":"Szentillye","name:zh-Hans":"温科夫齐","name:zh-Hant":"溫科夫齊"},"display_name":"Vinkovci, Grad Vinkovci, Vukovarsko-srijemska županija, Hrvatska","address":{"city":"Vinkovci","county":"Vukovarsko-srijemska županija","ISO3166-2-lvl6":"HR-16","country":"Hrvatska","country_code":"hr"},"population":28111,"osm_type":"node","osm_id":1588972606,"type":"city","location":[18.8045248,45.2883771],"bbox":[18.6445248,45.1283771,18.9645248,45.4483771],"border":[{"name":"Grad Vinkovci","other_names":{"name:hr":"Grad Vinkovci","short_name":"Vinkovci","name:ar":"فينكوفسي","name:be":"Вінкаўцы","name:bg":"Винковци","name:de":"Vinkovci","name:en":"Vinkovci","name:fa":"وینکوتسی","name:he":"וינקובצי","name:hu":"Vinkovce","name:ja":"ヴィンコヴツィ","name:ko":"빈코브치","name:la":"Cibalae","name:lt":"Vinkovcai","name:mk":"Винковци","name:ml":"വിൻകോവ്ച്ചി","name:ru":"Винковци","name:sr":"Винковци","name:uk":"Вінковці","name:ur":"وینکووتسی","name:ckb":"ڤینکۆڤتسی","name:rue":"Винковци","old_name":"Vinkovce","alt_name:la":"Colonia Aurelia Cibalae;Cibalis;Ad Labores","old_name:de":"Winkowitz","old_name:hu":"Szentillye","name:zh-Hans":"温科夫齐","name:zh-Hant":"溫科夫齊","alt":"Vinkovci"},"display_name":"Grad Vinkovci, Vukovarsko-srijemska županija, Hrvatska","address":{"city":"Grad Vinkovci","county":"Vukovarsko-srijemska županija","ISO3166-2-lvl6":"HR-16","country":"Hrvatska","country_code":"hr"},"population":30842,"osm_type":"relation","osm_id":8827949,"type":"administrative","location":[18.8045248,45.2883771],"bbox":[18.7349309,45.2027881,18.8756705,45.3265079]},{"name":"Vinkovci","display_name":"Vinkovci, Grad Vinkovci, Vukovarsko-srijemska županija, Hrvatska","address":{"city_district":"Vinkovci","city":"Grad Vinkovci","county":"Vukovarsko-srijemska županija","ISO3166-2-lvl6":"HR-16","country":"Hrvatska","country_code":"hr"},"population":28111,"osm_type":"relation","osm_id":15469716,"type":"administrative","location":[18.780945677253627,45.2648516],"bbox":[18.7349309,45.2027881,18.8472649,45.3265079]}]}
{"name":"Zadar","other_names":{"name:am":"ዛዳር","name:an":"Chadra","name:ar":"زادار","name:be":"Задар","name:bg":"Задар","name:ce":"Задар","name:cu":"Ꙁадъръ","name:de":"Zadar","name:el":"Ζάνταρ","name:fa":"زادار","name:he":"זאדאר","name:hr":"Zadar","name:hu":"Zára","name:hy":"Զադար","name:it":"Zara","name:ja":"ザダル","name:ka":"ზადარი","name:ko":"자다르","name:la":"Iader","name:lt":"Zadaras","name:lv":"Zadara","name:mk":"Задар","name:ml":"സാദാർ","name:os":"Задар","name:ru":"Задар","name:sq":"Zara","name:sr":"Задар","name:th":"ซาดาร์","name:tt":"Задар","name:uk":"Задар","name:ur":"زدار","name:ckb":"زادار","name:scn":"Zara","name:vec":"Zara","name:wuu":"扎达尔","name:xmf":"ზადარი","name:yue":"扎達爾","old_name":"Iader","alt_name:hy":"Զարա","alt_name:la":"Iadera","old_name:el":"Ζάρα","name:zh-Hans":"扎达尔","name:zh-Hant":"扎達爾"},"display_name":"Zadar, Grad Zadar, Zadarska županija, Hrvatska","address":{"city":"Zadar","municipality":"Grad Zadar","county":"Zadarska županija","ISO3166-2-lvl6":"HR-13","country":"Hrvatska","country_code":"hr"},"population":67309,"osm_type":"node","osm_id":1832917478,"type":"city","location":[15.2353257,44.1168594],"bbox":[15.0753257,43.9568594,15.3953257,44.2768594],"border":{"name":"Zadar","other_names":{"name:hr":"Zadar","name:am":"ዛዳር","name:an":"Chadra","name:ar":"زادار","name:be":"Задар","name:bg":"Задар","name:ce":"Задар","name:cu":"Ꙁадъръ","name:de":"Zadar","name:el":"Ζάνταρ","name:fa":"زادار","name:he":"זאדאר","name:hu":"Zára","name:hy":"Զադար","name:it":"Zara","name:ja":"ザダル","name:ka":"ზადარი","name:ko":"자다르","name:la":"Iader","name:lt":"Zadaras","name:lv":"Zadara","name:mk":"Задар","name:ml":"സാദാർ","name:os":"Задар","name:ru":"Задар","name:sq":"Zara","name:sr":"Задар","name:th":"ซาดาร์","name:tt":"Задар","name:uk":"Задар","name:ur":"زدار","name:ckb":"زادار","name:scn":"Zara","name:vec":"Zara","name:wuu":"扎达尔","name:xmf":"ზადარი","name:yue":"扎達爾","old_name":"Iader","alt_name:hy":"Զարա","alt_name:la":"Iadera","old_name:el":"Ζάρα","name:zh-Hans":"扎达尔","name:zh-Hant":"扎達爾"},"display_name":"Zadar, Grad Zadar, Zadarska županija, Hrvatska","address":{"city":"Zadar","municipality":"Grad Zadar","county":"Zadarska županija","ISO3166-2-lvl6":"HR-13","country":"Hrvatska","country_code":"hr"},"population":67309,"osm_type":"relation","osm_id":12597837,"type":"administrative","location":[15.2353257,44.1168594],"bbox":[15.1956005,44.0850996,15.3022242,44.187036]}}
{"name":"Zagreb","other_names":{"name:af":"Zagreb","name:am":"ዛግሬብ","name:an":"Zagreb","name:ar":"زغرب","name:av":"Загреб","name:az":"Zaqreb","name:ba":"Загреб","name:be":"Заграб","name:bg":"Загреб","name:bn":"জাগরেব","name:bo":"ཛག་རེབ།","name:br":"Zagreb","name:bs":"Zagreb","name:ca":"Zagreb","name:ce":"Загреб","name:co":"Zagabria","name:cs":"Záhřeb","name:cu":"Ꙁагрєбъ","name:cv":"Загреб","name:cy":"Zagreb","name:da":"Zagreb","name:de":"Zagreb","name:el":"Ζάγκρεμπ","name:en":"Zagreb","name:eo":"Zagrebo","name:es":"Zagreb","name:et":"Zagreb","name:eu":"Zagreb","name:fa":"زاگرب","name:fi":"Zagreb","name:fj":"Zagreb","name:fo":"Zagreb","name:fr":"Zagreb","name:fy":"Zagreb","name:ga":"Ságrab","name:gd":"Zagreb","name:gl":"Zagreb","name:gv":"Zagreb","name:ha":"Zagreb","name:he":"זגרב","name:hi":"ज़ाग्रेब","name:hr":"Zagreb","name:ht":"Zagreb","name:hu":"Zágráb","name:hy":"Զագրեբ","name:id":"Zagreb","name:is":"Zagreb","name:it":"Zagabria","name:ja":"ザグレブ","name:jv":"Zagreb","name:ka":"ზაგრები","name:kk":"Загреб","name:kn":"ಝಾಗ್ರೆಬ್","name:ko":"자그레브","name:ku":"Zagreb","name:kv":"Загреб","name:kw":"Zagreb","name:ky":"Загреб","name:la":"Zagrabia","name:lb":"Zagreb","name:li":"Zaagreb","name:ln":"Zagreb","name:lo":"ຊາເກຣບ","name:lt":"Zagrebas","name:lv":"Zagreba","name:mg":"Zagreb","name:mi":"Zagreb","name:mk":"Загреб","name:ml":"സാഗ്രെബ്","name:mn":"Загреб","name:mr":"झाग्रेब","name:ms":"Zagreb","name:mt":"Żagreb","name:na":"Zagrev","name:ne":"जाग्रेब","name:nl":"Zagreb","name:no":"Zagreb","name:nv":"Shashdziil Bitsį́į́ʼí","name:ny":"Zagreb","name:oc":"Zagrèb","name:os":"Загреб","name:pa":"ਜ਼ਾਗਰਬ","name:pl":"Zagrzeb","name:pt":"Zagreb","name:rm":"Zagreb","name:ro":"Zagreb","name:ru":"Загреб","name:rw":"Zagreb","name:sc":"Zagàbria","name:sd":"زغرب","name:se":"Zagreb","name:sh":"Zagreb","name:sk":"Záhreb","name:sl":"Zagreb","name:sn":"Zagreb","name:sq":"Zagrebi","name:sr":"Загреб","name:st":"Zagreb","name:sv":"Zagreb","name:sw":"Zagreb","name:ta":"சாகிரேப்","name:tg":"Загреб","name:th":"ซาเกร็บ","name:tk":"Zagreb","name:tl":"Zagreb","name:tr":"Zagreb","name:tt":"Загреб","name:tw":"Zagreb","name:ug":"Zagréb","name:uk":"Загреб","name:ur":"زغرب","name:uz":"Zagreb","name:vi":"Zagreb","name:wa":"Zagreb","name:wo":"Sagreb","name:yi":"זאגרעב","name:yo":"Zagreb","name:za":"Zagreb","name:zh":"薩格勒布","int_name":"Zagreb","name:ang":"Agram","name:ast":"Zagreb","name:ban":"Zagreb","name:bar":"Zagreb","name:bcl":"Zagreb","name:cdo":"Zagreb","name:ceb":"Zagreb","name:ckb":"زاگرێب","name:crh":"Zagreb","name:dsb":"Zagreb","name:fil":"Zagreb","name:frp":"Zagrèbe","name:frr":"Zagreb","name:gag":"Zagreb","name:gsw":"Zagreb","name:hak":"Zagreb","name:hif":"Zagreb","name:hsb":"Zahrjeb","name:ilo":"Zagreb","name:kaa":"Zagreb","name:kab":"Zagreb","name:lij":"Zagabbria","name:lmo":"Zagabria","name:mdf":"Загрэб","name:mhr":"Загреб","name:nah":"Zagreb","name:nan":"Zagreb","name:nds":"Zagreb","name:pap":"Zagreb","name:pdc":"Zagreb","name:pih":"Sakreb","name:pms":"Zagabria","name:pnb":"زغریب","name:rue":"Заґреб","name:sah":"Загреб","name:scn":"Zagabria","name:sco":"Zagreb","name:sgs":"Zagrėbs","name:smn":"Zagreb","name:stq":"Zagreb","name:szl":"Zagrzeb","name:udm":"Загреб","name:vec":"Zagavria","name:vep":"Zagreb","name:war":"Zagreb","name:xmf":"ზაგრები","name:yue":"薩格勒布","name:zza":"Zagreb","name:pt-BR":"Zagreb","alt_name:la":"Agranum;Andautonia Classica;Sabbaria;Zagravia;Zagrabria;Zagabria","old_name:de":"Agram","name:bat-smg":"Zagrėbs","name:sr-Latn":"Zagreb","name:zh-Hans":"萨格勒布","name:zh-Hant":"薩格勒布","name:be-tarask":"Загрэб"},"display_name":"Zagreb, Grad Zagreb, Hrvatska","address":{"city":"Zagreb","ISO3166-2-lvl6":"HR-21","country":"Hrvatska","country_code":"hr"},"population":663592,"osm_type":"node","osm_id":1551865419,"type":"city","location":[15.9772795,45.8130967],"bbox":[15.8172795,45.6530967,16.1372795,45.9730967],"border":[{"name":"Grad Zagreb","other_names":{"name:de":"Stadt Zagreb","name:en":"City of Zagreb","name:fr":"Ville de Zagreb","name:hr":"Grad Zagreb","name:hu":"Zágráb város","name:it":"Città di Zagabria","name:lt":"Zagrebo miestas","name:ru":"Город Загреб","name:sk":"Mesto Záhreb","name:sr":"Град Загреб","ISO3166-2":"HR-21","name:sr-Latn":"Grad Zagreb","name:af":"Zagreb","name:am":"ዛግሬብ","name:an":"Zagreb","name:ar":"زغرب","name:av":"Загреб","name:az":"Zaqreb","name:ba":"Загреб","name:be":"Заграб","name:bg":"Загреб","name:bn":"জাগরেব","name:bo":"ཛག་རེབ།","name:br":"Zagreb","name:bs":"Zagreb","name:ca":"Zagreb","name:ce":"Загреб","name:co":"Zagabria","name:cs":"Záhřeb","name:cu":"Ꙁагрєбъ","name:cv":"Загреб","name:cy":"Zagreb","name:da":"Zagreb","name:el":"Ζάγκρεμπ","name:eo":"Zagrebo","name:es":"Zagreb","name:et":"Zagreb","name:eu":"Zagreb","name:fa":"زاگرب","name:fi":"Zagreb","name:fj":"Zagreb","name:fo":"Zagreb","name:fy":"Zagreb","name:ga":"Ságrab","name:gd":"Zagreb","name:gl":"Zagreb","name:gv":"Zagreb","name:ha":"Zagreb","name:he":"זגרב","name:hi":"ज़ाग्रेब","name:ht":"Zagreb","name:hy":"Զագրեբ","name:id":"Zagreb","name:is":"Zagreb","name:ja":"ザグレブ","name:jv":"Zagreb","name:ka":"ზაგრები","name:kk":"Загреб","name:kn":"ಝಾಗ್ರೆಬ್","name:ko":"자그레브","name:ku":"Zagreb","name:kv":"Загреб","name:kw":"Zagreb","name:ky":"Загреб","name:la":"Zagrabia","name:lb":"Zagreb","name:li":"Zaagreb","name:ln":"Zagreb","name:lo":"ຊາເກຣບ","name:lv":"Zagreba","name:mg":"Zagreb","name:mi":"Zagreb","name:mk":"Загреб","name:ml":"സാഗ്രെബ്","name:mn":"Загреб","name:mr":"झाग्रेब","name:ms":"Zagreb","name:mt":"Żagreb","name:na":"Zagrev","name:ne":"जाग्रेब","name:nl":"Zagreb","name:no":"Zagreb","name:nv":"Shashdziil Bitsį́į́ʼí","name:ny":"Zagreb","name:oc":"Zagrèb","name:os":"Загреб","name:pa":"ਜ਼ਾਗਰਬ","name:pl":"Zagrzeb","name:pt":"Zagreb","name:rm":"Zagreb","name:ro":"Zagreb","name:rw":"Zagreb","name:sc":"Zagàbria","name:sd":"زغرب","name:se":"Zagreb","name:sh":"Zagreb","name:sl":"Zagreb","name:sn":"Zagreb","name:sq":"Zagrebi","name:st":"Zagreb","name:sv":"Zagreb","name:sw":"Zagreb","name:ta":"சாகிரேப்","name:tg":"Загреб","name:th":"ซาเกร็บ","name:tk":"Zagreb","name:tl":"Zagreb","name:tr":"Zagreb","name:tt":"Загреб","name:tw":"Zagreb","name:ug":"Zagréb","name:uk":"Загреб","name:ur":"زغرب","name:uz":"Zagreb","name:vi":"Zagreb","name:wa":"Zagreb","name:wo":"Sagreb","name:yi":"זאגרעב","name:yo":"Zagreb","name:za":"Zagreb","name:zh":"薩格勒布","int_name":"Zagreb","name:ang":"Agram","name:ast":"Zagreb","name:ban":"Zagreb","name:bar":"Zagreb","name:bcl":"Zagreb","name:cdo":"Zagreb","name:ceb":"Zagreb","name:ckb":"زاگرێب","name:crh":"Zagreb","name:dsb":"Zagreb","name:fil":"Zagreb","name:frp":"Zagrèbe","name:frr":"Zagreb","name:gag":"Zagreb","name:gsw":"Zagreb","name:hak":"Zagreb","name:hif":"Zagreb","name:hsb":"Zahrjeb","name:ilo":"Zagreb","name:kaa":"Zagreb","name:kab":"Zagreb","name:lij":"Zagabbria","name:lmo":"Zagabria","name:mdf":"Загрэб","name:mhr":"Загреб","name:nah":"Zagreb","name:nan":"Zagreb","name:nds":"Zagreb","name:pap":"Zagreb","name:pdc":"Zagreb","name:pih":"Sakreb","name:pms":"Zagabria","name:pnb":"زغریب","name:rue":"Заґреб","name:sah":"Загреб","name:scn":"Zagabria","name:sco":"Zagreb","name:sgs":"Zagrėbs","name:smn":"Zagreb","name:stq":"Zagreb","name:szl":"Zagrzeb","name:udm":"Загреб","name:vec":"Zagavria","name:vep":"Zagreb","name:war":"Zagreb","name:xmf":"ზაგრები","name:yue":"薩格勒布","name:zza":"Zagreb","name:pt-BR":"Zagreb","alt_name:la":"Agranum;Andautonia Classica;Sabbaria;Zagravia;Zagrabria;Zagabria","old_name:de":"Agram","name:bat-smg":"Zagrėbs","name:zh-Hans":"萨格勒布","name:zh-Hant":"薩格勒布","name:be-tarask":"Загрэб","alt":"Zagreb","alt:de":"Zagreb","alt:en":"Zagreb","alt:fr":"Zagreb","alt:hr":"Zagreb","alt:hu":"Zágráb","alt:it":"Zagabria","alt:lt":"Zagrebas","alt:ru":"Загреб","alt:sk":"Záhreb","alt:sr":"Загреб","alt:sr-Latn":"Zagreb"},"display_name":"Grad Zagreb, Hrvatska","address":{"city":"Grad Zagreb","ISO3166-2-lvl6":"HR-21","country":"Hrvatska","country_code":"hr"},"population":767131,"osm_type":"relation","osm_id":226224,"type":"administrative","location":[15.9772795,45.8130967],"bbox":[15.7732052,45.6139895,16.2395548,45.9691466]},{"name":"Zagreb","other_names":{"name:am":"ዛግሬብ","name:ar":"زغرب","name:az":"Zaqreb","name:ba":"Загреб","name:be":"Заграб","name:bg":"Загреб","name:bn":"জাগরেব","name:bo":"ཛག་རེབ།","name:ca":"Zagreb","name:ce":"Загреб","name:co":"Zagabria","name:cs":"Záhřeb","name:cv":"Загреб","name:el":"Ζάγκρεμπ","name:fa":"زاگرب","name:ga":"Ságrab","name:he":"זאגרב","name:hi":"ज़ाग्रेब","name:hr":"Zagreb","name:hu":"Zágráb","name:hy":"Զագրեբ","name:it":"Zagabria","name:ja":"ザグレブ","name:ka":"ზაგრები","name:kk":"Загреб","name:ko":"자그레브","name:kv":"Загреб","name:ky":"Загреб","name:la":"Zagrabia","name:lo":"ຊາເກຣັບ","name:lt":"Zagrebas","name:lv":"Zagreba","name:mk":"Загреб","name:ml":"സാഗ്രെബ്","name:mn":"Загреб","name:mr":"झाग्रेब","name:mt":"Żagreb","name:ne":"जाग्रेब","name:nv":"Shashdziil Bitsį́į́ʼí","name:oc":"Zagrèb","name:os":"Загреб","name:pa":"ਜ਼ਾਗਰਬ","name:pl":"Zagrzeb","name:ru":"Загреб","name:sc":"Zagàbria","name:sd":"زغرب","name:sk":"Záhreb","name:sq":"Zagrebi","name:sr":"Загреб","name:ta":"சாகிரேப்","name:tg":"Загреб","name:th":"ซาเกร็บ","name:tt":"Загреб","name:uk":"Загреб","name:ur":"زغرب","name:wo":"Sagreb","name:yi":"זאגרעב","name:bar":"Agram","name:frp":"Zagrèbe","name:lij":"Zagabbria","name:lmo":"Zagabria","name:mdf":"Загрэб","name:mhr":"Загреб","name:mzn":"زاگرب","name:pms":"Zagabria","name:rue":"Заґреб","name:sah":"Загреб","name:scn":"Zagabria","name:sgs":"Zagrėbs","name:szl":"Zagrzeb","name:udm":"Загреб","name:vec":"Zagavria","name:xmf":"ზაგრები","alt_name:de":"Agram","alt_name:ko":"아그람;자가브리아;자그라비아","alt_name:la":"Agranum;Andautonia Classica;Sabbaria;Zagravia;Zagrabria;Zagabria","alt_name:pt":"Zagrebe","old_name:hu":"Gréc","name:sr-Latn":"Zagreb","name:zh-Hans":"萨格勒布","name:zh-Hant":"薩格勒布"},"display_name":"Zagreb, Grad Zagreb, Hrvatska","address":{"city_district":"Zagreb","city":"Grad Zagreb","ISO3166-2-lvl6":"HR-21","country":"Hrvatska","country_code":"hr"},"population":663592,"osm_type":"relation","osm_id":3168167,"type":"administrative","location":[15.962231476593626,45.84264135],"bbox":[15.821712,45.7460118,16.1070083,45.9392954]}]}
