{"name":"Békéscsaba","other_names":{"name:hr":"Bekeščaba","name:ml":"ബെകെഷ്‌ചാബ","name:ro":"Bichișciaba","name:ru":"Бекешчаба","name:sk":"Békešská Čaba","name:sr":"Бекешчаба","name:uk":"Бекешчаба","old_name:de":"Tschabe"},"display_name":"Békéscsaba, Békéscsabai járás, Békés vármegye, Dél-Alföld, Alföld és Észak, 5600, Magyarország","address":{"city":"Békéscsaba","municipality":"Békéscsabai járás","county":"Békés vármegye","ISO3166-2-lvl6":"HU-BE","region":"Dél-Alföld","postcode":"5600","country":"Magyarország","country_code":"hu"},"population":54460,"osm_type":"node","osm_id":32444521,"type":"city","location":[21.0985425,46.6798003],"bbox":[20.9385425,46.5198003,21.2585425,46.8398003],"border":{"name":"Békéscsaba","other_names":{"name:hu":"Békéscsaba","name:sk":"Békešská Čaba","name:hr":"Bekeščaba","name:ml":"ബെകെഷ്‌ചാബ","name:ro":"Bichișciaba","name:ru":"Бекешчаба","name:sr":"Бекешчаба","name:uk":"Бекешчаба","old_name:de":"Tschabe"},"display_name":"Békéscsaba, Békéscsabai járás, Békés vármegye, Dél-Alföld, Alföld és Észak, Magyarország","address":{"city":"Békéscsaba","municipality":"Békéscsabai járás","county":"Békés vármegye","ISO3166-2-lvl6":"HU-BE","region":"Dél-Alföld","country":"Magyarország","country_code":"hu"},"population":54460,"osm_type":"relation","osm_id":1026172,"type":"administrative","location":[21.0985425,46.6798003],"bbox":[20.9298432,46.6113072,21.2358719,46.7477055]}}
{"name":"Budapest","other_names":{"name:af":"Boedapest","name:am":"ቡዳፔስት","name:ar":"بودابست","name:av":"Будапешт","name:az":"Budapeşt","name:ba":"Будапешт","name:be":"Будапешт","name:bg":"Будапеща","name:bn":"বুদাপেস্ট","name:bo":"བུ་ད་ཕེ་སིད།","name:br":"Budapest","name:bs":"Budimpešta","name:ca":"Budapest","name:ce":"Будапешт","name:cs":"Budapešť","name:cu":"Боудапєщь","name:cv":"Будапешт","name:de":"Budapest","name:el":"Βουδαπέστη","name:en":"Budapest","name:eo":"Budapeŝto","name:es":"Budapest","name:fa":"بوداپست","name:fr":"Budapest","name:fy":"Boedapest","name:ga":"Búdaipeist","name:gu":"બુડાપેસ્ટ","name:he":"בודפשט","name:hi":"बुडापेस्ट","name:hr":"Budimpešta","name:ht":"Boudapès","name:hu":"Budapest","name:hy":"Բուդապեշտ","name:is":"Búdapest","name:it":"Budapest","name:ja":"ブダペスト","name:ka":"ბუდაპეშტი","name:kk":"Будапешт","name:kn":"ಬುಡಾಪೆಸ್ಟ್","name:ko":"부다페스트","name:ku":"Budapeşt","name:kv":"Будапешт","name:ky":"Будапешт","name:la":"Budapestinum","name:li":"Boedapes","name:lt":"Budapeštas","name:lv":"Budapešta","name:mk":"Будимпешта","name:ml":"ബുഡാപെസ്റ്റ്","name:mn":"Будапешт","name:mr":"बुडापेस्ट","name:my":"ဗူးဒပက်မြို့","name:ne":"बुडापेस्ट","name:nl":"Boedapest","name:no":"Budapest","name:nv":"Naaki Bineʼ Naʼadziʼii","name:oc":"Budapèst","name:or":"ବୁଦାପେଷ୍ଟ","name:os":"Будапешт","name:pa":"ਬੁਦਾਪੈਸਤ","name:pl":"Budapeszt","name:ps":"بوډاپسټ","name:pt":"Budapeste","name:ro":"Budapesta","name:ru":"Будапешт","name:sa":"बुद्धप्रस्थ","name:sd":"بوڊاپيسٽ","name:sh":"Budimpešta","name:sk":"Budapešť","name:sl":"Budimpešta","name:sn":"Bhudhapesti","name:sq":"Budapesti","name:sr":"Будимпешта","name:sv":"Budapest","name:ta":"புடாபெஸ்ட்","name:te":"బుడాపెస్ట్","name:tg":"Будапешт","name:th":"บูดาเปสต์","name:tr":"Budapeşte","name:tt":"Будапешт","name:tw":"Budapεst","name:ug":"Budapésht","name:uk":"Будапешт","name:ur":"بوداپست","name:uz":"Budapesht","name:wa":"Budapesse","name:yi":"בודאפעשט","name:zh":"布達佩斯","name:ace":"Budapèst","name:arz":"بودابست","name:ast":"Budapest","name:azb":"بوداپست","name:ckb":"بوداپێست","name:crh":"Budapeşt","name:csb":"Bùdapeszt","name:diq":"Budapeşt","name:frp":"Budapèst","name:gag":"Budapeşt","name:grc":"Βουδαπέστη","name:hyw":"Պուտափեսթ","name:koi":"Будапешт","name:krc":"Будапешт","name:mdf":"Будапешт","name:mhr":"Будапешт","name:mrj":"Будапешт","name:myv":"Будапешт ош","name:nov":"Budapesht","name:pdc":"Budapescht","name:pms":"Bùdapest","name:pnb":"بوداپست","name:pnt":"Βουδαπέστη","name:sah":"Будапешт","name:szl":"Budapeszt","name:udm":"Будапешт","name:vep":"Budapešt","name:yue":"布達佩斯","name:zea":"Boedapest","ISO3166-2":"HU-BU","name:bat-smg":"Budapešts","name:zh-Hans":"布达佩斯","name:zh-Hant":"布達佩斯","name:be-tarask":"Будапэшт"},"display_name":"Budapest, Közép-Magyarország, 1000, Magyarország","address":{"city":"Budapest","ISO3166-2-lvl2":"HU-BU","region":"Közép-Magyarország","postcode":"1000","country":"Magyarország","country_code":"hu"},"population":1686222,"osm_type":"node","osm_id":85788293,"type":"city","location":[19.0402383,47.4978789],"bbox":[18.8802383,47.3378789,19.2002383,47.6578789],"border":[{"name":"Budapest","other_names":{"name:ar":"بودابست","name:az":"Budapeşt","name:be":"Будапешт","name:de":"Budapest","name:el":"Βουδαπέστη","name:en":"Budapest","name:es":"Budapest","name:hr":"Budimpešta","name:hu":"Budapest","name:hy":"Բուդապեշտ","name:lt":"Budapeštas","name:nl":"Boedapest","name:pl":"Budapeszt","name:ro":"Budapesta","name:ru":"Будапешт","name:sk":"Budapešť","name:sr":"Будимпешта","name:uk":"Будапешт","name:ur":"بوداپست","name:azb":"بوداپست","name:grc":"Βουδαπέστη","name:hyw":"Պուտափեսթ","name:pnt":"Βουδαπέστη","ISO3166-2":"HU-BU","name:af":"Boedapest","name:am":"ቡዳፔስት","name:av":"Будапешт","name:ba":"Будапешт","name:bg":"Будапеща","name:bn":"বুদাপেস্ট","name:bo":"བུ་ད་ཕེ་སིད།","name:br":"Budapest","name:bs":"Budimpešta","name:ca":"Budapest","name:ce":"Будапешт","name:cs":"Budapešť","name:cu":"Боудапєщь","name:cv":"Будапешт","name:eo":"Budapeŝto","name:fa":"بوداپست","name:fr":"Budapest","name:fy":"Boedapest","name:ga":"Búdaipeist","name:gu":"બુડાપેસ્ટ","name:he":"בודפשט","name:hi":"बुडापेस्ट","name:ht":"Boudapès","name:is":"Búdapest","name:it":"Budapest","name:ja":"ブダペスト","name:ka":"ბუდაპეშტი","name:kk":"Будапешт","name:kn":"ಬುಡಾಪೆಸ್ಟ್","name:ko":"부다페스트","name:ku":"Budapeşt","name:kv":"Будапешт","name:ky":"Будапешт","name:la":"Budapestinum","name:li":"Boedapes","name:lv":"Budapešta","name:mk":"Будимпешта","name:ml":"ബുഡാപെസ്റ്റ്","name:mn":"Будапешт","name:mr":"बुडापेस्ट","name:my":"ဗူးဒပက်မြို့","name:ne":"बुडापेस्ट","name:no":"Budapest","name:nv":"Naaki Bineʼ Naʼadziʼii","name:oc":"Budapèst","name:or":"ବୁଦାପେଷ୍ଟ","name:os":"Будапешт","name:pa":"ਬੁਦਾਪੈਸਤ","name:ps":"بوډاپسټ","name:pt":"Budapeste","name:sa":"बुद्धप्रस्थ","name:sd":"بوڊاپيسٽ","name:sh":"Budimpešta","name:sl":"Budimpešta","name:sn":"Bhudhapesti","name:sq":"Budapesti","name:sv":"Budapest","name:ta":"புடாபெஸ்ட்","name:te":"బుడాపెస్ట్","name:tg":"Будапешт","name:th":"บูดาเปสต์","name:tr":"Budapeşte","name:tt":"Будапешт","name:tw":"Budapεst","name:ug":"Budapésht","name:uz":"Budapesht","name:wa":"Budapesse","name:yi":"בודאפעשט","name:zh":"布達佩斯","name:be-tarask":"Будапэшт","name:ace":"Budapèst","name:arz":"بودابست","name:ast":"Budapest","name:ckb":"بوداپێست","name:crh":"Budapeşt","name:csb":"Bùdapeszt","name:diq":"Budapeşt","name:frp":"Budapèst","name:gag":"Budapeşt","name:koi":"Будапешт","name:krc":"Будапешт","name:mdf":"Будапешт","name:mhr":"Будапешт","name:mrj":"Будапешт","name:myv":"Будапешт ош","name:nov":"Budapesht","name:pdc":"Budapescht","name:pms":"Bùdapest","name:pnb":"بوداپست","name:sah":"Будапешт","name:szl":"Budapeszt","name:udm":"Будапешт","name:vep":"Budapešt","name:yue":"布達佩斯","name:zea":"Boedapest","name:bat-smg":"Budapešts","name:zh-Hans":"布达佩斯","name:zh-Hant":"布達佩斯"},"display_name":"Budapest, Közép-Magyarország, Magyarország","address":{"region":"Budapest","ISO3166-2-lvl6":"HU-BU","country":"Magyarország","country_code":"hu"},"population":1686222,"osm_type":"relation","osm_id":37244,"type":"administrative","location":[19.0402383,47.4978789],"bbox":[18.9251057,47.3496899,19.3349258,47.6131468]},{"name":"Budapest","other_names":{"name:ar":"بودابست","name:be":"Будапешт","name:de":"Budapest","name:el":"Βουδαπέστη","name:en":"Budapest","name:es":"Budapest","name:hu":"Budapest","name:hy":"Բուդապեշտ","name:ko":"부다페스트","name:lt":"Budapeštas","name:nl":"Boedapest","name:ro":"Budapesta","name:ru":"Будапешт","name:sr":"Будимпешта","name:uk":"Будапешт","name:ur":"بوداپست","name:azb":"بوداپست","name:grc":"Βουδαπέστη","name:hyw":"Պուտափեսթ","name:pnt":"Βουδαπέστη","name:zh-Hans":"布达佩斯","name:zh-Hant":"布達佩斯","name:af":"Boedapest","name:am":"ቡዳፔስት","name:av":"Будапешт","name:az":"Budapeşt","name:ba":"Будапешт","name:bg":"Будапеща","name:bn":"বুদাপেস্ট","name:bo":"བུ་ད་ཕེ་སིད།","name:br":"Budapest","name:bs":"Budimpešta","name:ca":"Budapest","name:ce":"Будапешт","name:cs":"Budapešť","name:cu":"Боудапєщь","name:cv":"Будапешт","name:eo":"Budapeŝto","name:fa":"بوداپست","name:fr":"Budapest","name:fy":"Boedapest","name:ga":"Búdaipeist","name:gu":"બુડાપેસ્ટ","name:he":"בודפשט","name:hi":"बुडापेस्ट","name:hr":"Budimpešta","name:ht":"Boudapès","name:is":"Búdapest","name:it":"Budapest","name:ja":"ブダペスト","name:ka":"ბუდაპეშტი","name:kk":"Будапешт","name:kn":"ಬುಡಾಪೆಸ್ಟ್","name:ku":"Budapeşt","name:kv":"Будапешт","name:ky":"Будапешт","name:la":"Budapestinum","name:li":"Boedapes","name:lv":"Budapešta","name:mk":"Будимпешта","name:ml":"ബുഡാപെസ്റ്റ്","name:mn":"Будапешт","name:mr":"बुडापेस्ट","name:my":"ဗူးဒပက်မြို့","name:ne":"बुडापेस्ट","name:no":"Budapest","name:nv":"Naaki Bineʼ Naʼadziʼii","name:oc":"Budapèst","name:or":"ବୁଦାପେଷ୍ଟ","name:os":"Будапешт","name:pa":"ਬੁਦਾਪੈਸਤ","name:pl":"Budapeszt","name:ps":"بوډاپسټ","name:pt":"Budapeste","name:sa":"बुद्धप्रस्थ","name:sd":"بوڊاپيسٽ","name:sh":"Budimpešta","name:sk":"Budapešť","name:sl":"Budimpešta","name:sn":"Bhudhapesti","name:sq":"Budapesti","name:sv":"Budapest","name:ta":"புடாபெஸ்ட்","name:te":"బుడాపెస్ట్","name:tg":"Будапешт","name:th":"บูดาเปสต์","name:tr":"Budapeşte","name:tt":"Будапешт","name:tw":"Budapεst","name:ug":"Budapésht","name:uz":"Budapesht","name:wa":"Budapesse","name:yi":"בודאפעשט","name:zh":"布達佩斯","name:be-tarask":"Будапэшт","name:ace":"Budapèst","name:arz":"بودابست","name:ast":"Budapest","name:ckb":"بوداپێست","name:crh":"Budapeşt","name:csb":"Bùdapeszt","name:diq":"Budapeşt","name:frp":"Budapèst","name:gag":"Budapeşt","name:koi":"Будапешт","name:krc":"Будапешт","name:mdf":"Будапешт","name:mhr":"Будапешт","name:mrj":"Будапешт","name:myv":"Будапешт ош","name:nov":"Budapesht","name:pdc":"Budapescht","name:pms":"Bùdapest","name:pnb":"بوداپست","name:sah":"Будапешт","name:szl":"Budapeszt","name:udm":"Будапешт","name:vep":"Budapešt","name:yue":"布達佩斯","name:zea":"Boedapest","ISO3166-2":"HU-BU","name:bat-smg":"Budapešts"},"display_name":"Budapest, Közép-Magyarország, Magyarország","address":{"city":"Budapest","ISO3166-2-lvl8":"HU-BU","region":"Közép-Magyarország","country":"Magyarország","country_code":"hu"},"population":1686222,"osm_type":"relation","osm_id":1244004,"type":"administrative","location":[19.0402383,47.4978789],"bbox":[18.9251057,47.3496899,19.3349258,47.6131468]}]}
{"name":"Debrecen","other_names":{"name:cs":"Debrecín","name:hr":"Debrecin","name:ml":"ഡെബ്രെറ്റ്സെൻ","name:pl":"Debreczyn","name:ro":"Debrețin","name:ru":"Дебрецен","name:sk":"Debrecín","name:sr":"Дебрецин","name:uk":"Дебречин","alt_name:uk":"Дебрецен","old_name:de":"Debrezin"},"display_name":"Debrecen, Debreceni járás, Hajdú-Bihar vármegye, Észak-Alföld, Alföld és Észak, 4000, Magyarország","address":{"city":"Debrecen","municipality":"Debreceni járás","county":"Hajdú-Bihar vármegye","ISO3166-2-lvl6":"HU-HB","region":"Észak-Alföld","postcode":"4000","country":"Magyarország","country_code":"hu"},"population":201704,"osm_type":"node","osm_id":26757724,"type":"city","location":[21.6259782,47.531399],"bbox":[21.4659782,47.371399,21.7859782,47.691399],"border":{"name":"Debrecen","other_names":{"name:ar":"دبرتسن","name:cs":"Debrecín","name:hu":"Debrecen","name:pl":"Debreczyn","name:sk":"Debrecín","name:zh-Hans":"德布勒森","name:zh-Hant":"黛布勒森","name:hr":"Debrecin","name:ml":"ഡെബ്രെറ്റ്സെൻ","name:ro":"Debrețin","name:ru":"Дебрецен","name:sr":"Дебрецин","name:uk":"Дебречин","alt_name:uk":"Дебрецен","old_name:de":"Debrezin"},"display_name":"Debrecen, Debreceni járás, Hajdú-Bihar vármegye, Észak-Alföld, Alföld és Észak, Magyarország","address":{"city":"Debrecen","municipality":"Debreceni járás","county":"Hajdú-Bihar vármegye","ISO3166-2-lvl6":"HU-HB","region":"Észak-Alföld","country":"Magyarország","country_code":"hu"},"population":201704,"osm_type":"relation","osm_id":1444234,"type":"administrative","location":[21.6259782,47.531399],"bbox":[21.4365308,47.4250466,21.8833085,47.6369818]}}
{"name":"Eger","other_names":{"name:ar":"إيغر","name:en":"Eger","name:fa":"اگر","name:fr":"Eger","name:hr":"Jegar","name:hu":"Eger","name:ks":"ایگر","name:la":"Agria","name:lt":"Egeris","name:lv":"Egera","name:nl":"Eger","name:ru":"Эгер","name:sk":"Jáger","name:sr":"Егер","name:tr":"Eğri","name:uk":"Еґер","name:ur":"ایگر","name:azb":"ایگر","name:pnb":"ایگیر","alt_name:hr":"Jegra","alt_name:sr":"Јегра","old_name:de":"Erlau","old_name:tr":"Eğre","name:az-Arab":"ایگر","name:kk-Arab":"ەگەر"},"display_name":"Eger, Egri járás, Heves vármegye, Észak-Magyarország, Alföld és Észak, 3300, Magyarország","address":{"city":"Eger","municipality":"Egri járás","county":"Heves vármegye","ISO3166-2-lvl6":"HU-HE","region":"Észak-Magyarország","postcode":"3300","country":"Magyarország","country_code":"hu"},"population":49499,"osm_type":"node","osm_id":26757722,"type":"city","location":[20.3743665,47.8989887],"bbox":[20.2143665,47.7389887,20.5343665,48.0589887],"border":{"name":"Eger","other_names":{"name:ar":"إيغر","name:en":"Eger","name:fa":"اگر","name:fr":"Eger","name:hu":"Eger","name:ks":"ایگر","name:nl":"Eger","name:sk":"Jáger","name:ur":"ایگر","name:azb":"ایگر","name:pnb":"ایگیر","name:az-Arab":"ایگر","name:kk-Arab":"ەگەر","name:hr":"Jegar","name:la":"Agria","name:lt":"Egeris","name:lv":"Egera","name:ru":"Эгер","name:sr":"Егер","name:tr":"Eğri","name:uk":"Еґер","alt_name:hr":"Jegra","alt_name:sr":"Јегра","old_name:de":"Erlau","old_name:tr":"Eğre"},"display_name":"Eger, Egri járás, Heves vármegye, Észak-Magyarország, Alföld és Észak, Magyarország","address":{"city":"Eger","municipality":"Egri járás","county":"Heves vármegye","ISO3166-2-lvl6":"HU-HE","region":"Észak-Magyarország","country":"Magyarország","country_code":"hu"},"population":49499,"osm_type":"relation","osm_id":1418156,"type":"administrative","location":[20.3743665,47.8989887],"bbox":[20.3112396,47.8569745,20.4716539,48.0013568]}}
{"name":"Győr","other_names":{"name:de":"Raab","name:en":"Gyor","name:hr":"Jura","name:hu":"Győr","name:ka":"დიორი","name:la":"Arrabona","name:ru":"Дьёр","name:sk":"Ráb","name:sr":"Ђер","name:tr":"Yanıkkale","name:uk":"Дьйор","alt_name:hr":"Đer;Đura;Vjura;Javorina;Đur"},"display_name":"Győr, Győri járás, Győr-Moson-Sopron vármegye, Nyugat-Dunántúl, Dunántúl, 9000, Magyarország","address":{"city":"Győr","municipality":"Győri járás","county":"Győr-Moson-Sopron vármegye","ISO3166-2-lvl6":"HU-GS","region":"Nyugat-Dunántúl","postcode":"9000","country":"Magyarország","country_code":"hu"},"population":130191,"osm_type":"node","osm_id":64624269,"type":"city","location":[17.6346815,47.687609],"bbox":[17.4746815,47.527609,17.7946815,47.847609],"border":{"name":"Győr","other_names":{"name:de":"Raab","name:hu":"Győr","name:ka":"დიორი","name:ru":"Дьёр","name:sr":"Ђер","name:uk":"Дьйор","name:en":"Gyor","name:hr":"Jura","name:la":"Arrabona","name:sk":"Ráb","name:tr":"Yanıkkale","alt_name:hr":"Đer;Đura;Vjura;Javorina;Đur"},"display_name":"Győr, Győri járás, Győr-Moson-Sopron vármegye, Nyugat-Dunántúl, Dunántúl, Magyarország","address":{"city":"Győr","municipality":"Győri járás","county":"Győr-Moson-Sopron vármegye","ISO3166-2-lvl6":"HU-GS","region":"Nyugat-Dunántúl","country":"Magyarország","country_code":"hu"},"population":130191,"osm_type":"relation","osm_id":1440627,"type":"administrative","location":[17.6346815,47.687609],"bbox":[17.5098749,47.5915535,17.8081732,47.7478298]}}
{"name":"Kaposvár","other_names":{"name:de":"Ruppertsburg","name:hr":"Kapošvar","name:hu":"Kaposvár","name:ml":"കപോഷ്വാർ","name:ru":"Капошвар","name:sk":"Kapošvár","name:sr":"Капошвар","name:uk":"Капошвар","alt_name:de":"Ruppertsberg;Ruppertsburg","alt_name:ml":"റുപ്പെർട്ട്സ്ബർഗ്"},"display_name":"Kaposvár, Kaposvári járás, Somogy vármegye, Dél-Dunántúl, Dunántúl, 7400, Magyarország","address":{"city":"Kaposvár","municipality":"Kaposvári járás","county":"Somogy vármegye","ISO3166-2-lvl6":"HU-SO","region":"Dél-Dunántúl","postcode":"7400","country":"Magyarország","country_code":"hu"},"population":58830,"osm_type":"node","osm_id":25926749,"type":"city","location":[17.7886886,46.3564692],"bbox":[17.6286886,46.1964692,17.9486886,46.5164692],"border":{"name":"Kaposvár","other_names":{"name:de":"Kopisch","name:hu":"Kaposvár","name:ru":"Капошвар","name:sr":"Капошвар","alt_name:de":"Ruppertsberg;Ruppertsburg","name:hr":"Kapošvar","name:ml":"കപോഷ്വാർ","name:sk":"Kapošvár","name:uk":"Капошвар","alt_name:ml":"റുപ്പെർട്ട്സ്ബർഗ്","alt:de":"Ruppertsburg"},"display_name":"Kaposvár, Kaposvári járás, Somogy vármegye, Dél-Dunántúl, Dunántúl, Magyarország","address":{"city":"Kaposvár","municipality":"Kaposvári járás","county":"Somogy vármegye","ISO3166-2-lvl6":"HU-SO","region":"Dél-Dunántúl","country":"Magyarország","country_code":"hu"},"population":58830,"osm_type":"relation","osm_id":1368050,"type":"administrative","location":[17.7886886,46.3564692],"bbox":[17.741783,46.2905448,17.8912373,46.4507258]}}
{"name":"Kecskemét","other_names":{"name:hr":"Kečkemet","name:hu":"Kecskemét","name:la":"Aegopolis","name:ml":"കെച്ച്കെമെറ്റ്","name:ru":"Кечкемет","name:sk":"Kečkemít","name:sr":"Кечкемет","name:uk":"Кечкемет","old_name:de":"Ketschkemet"},"display_name":"Kecskemét, Kecskeméti járás, Bács-Kiskun vármegye, Dél-Alföld, Alföld és Észak, 6000, Magyarország","address":{"city":"Kecskemét","municipality":"Kecskeméti járás","county":"Bács-Kiskun vármegye","ISO3166-2-lvl6":"HU-BK","region":"Dél-Alföld","postcode":"6000","country":"Magyarország","country_code":"hu"},"population":109450,"osm_type":"node","osm_id":32443002,"type":"city","location":[19.6917206,46.9073883],"bbox":[19.5317206,46.7473883,19.8517206,47.0673883],"border":{"name":"Kecskemét","other_names":{"name:hu":"Kecskemét","name:ru":"Кечкемет","name:sr":"Кечкемет","name:hr":"Kečkemet","name:la":"Aegopolis","name:ml":"കെച്ച്കെമെറ്റ്","name:sk":"Kečkemít","name:uk":"Кечкемет","old_name:de":"Ketschkemet"},"display_name":"Kecskemét, Kecskeméti járás, Bács-Kiskun vármegye, Dél-Alföld, Alföld és Észak, Magyarország","address":{"city":"Kecskemét","municipality":"Kecskeméti járás","county":"Bács-Kiskun vármegye","ISO3166-2-lvl6":"HU-BK","region":"Dél-Alföld","country":"Magyarország","country_code":"hu"},"population":109450,"osm_type":"relation","osm_id":1130433,"type":"administrative","location":[19.6917206,46.9073883],"bbox":[19.5068013,46.7699196,19.8517741,47.0012539]}}
{"name":"Miskolc","other_names":{"name:ar":"ميشكولتس","name:bg":"Мишколц","name:cs":"Miškovec","name:fa":"میشکولتس","name:he":"מישקולץ","name:hr":"Miškolc","name:hu":"Miskolc","name:ja":"ミシュコルツ","name:ka":"მიშკოლცი","name:ko":"미슈콜츠","name:lt":"Miškolcas","name:lv":"Miškolca","name:mk":"Мишколц","name:pl":"Miszkolc","name:ro":"Mișcolț","name:ru":"Мишкольц","name:sk":"Miškovec","name:sr":"Мишколц","name:uk":"Мішкольц","name:zh":"米什科尔茨","old_name:de":"Mischkolz"},"display_name":"Miskolc, Miskolci járás, Borsod-Abaúj-Zemplén vármegye, Észak-Magyarország, Alföld és Észak, 3500, Magyarország","address":{"city":"Miskolc","municipality":"Miskolci járás","county":"Borsod-Abaúj-Zemplén vármegye","ISO3166-2-lvl6":"HU-BZ","region":"Észak-Magyarország","postcode":"3500","country":"Magyarország","country_code":"hu"},"population":143502,"osm_type":"node","osm_id":64622559,"type":"city","location":[20.7900429,48.1030643],"bbox":[20.6300429,47.9430643,20.9500429,48.2630643],"border":{"name":"Miskolc","other_names":{"name:cs":"Miškovec","name:hu":"Miskolc","name:pl":"Miszkolc","name:ro":"Mișcolț","name:sk":"Miškovec","name:ar":"ميشكولتس","name:bg":"Мишколц","name:fa":"میشکولتس","name:he":"מישקולץ","name:hr":"Miškolc","name:ja":"ミシュコルツ","name:ka":"მიშკოლცი","name:ko":"미슈콜츠","name:lt":"Miškolcas","name:lv":"Miškolca","name:mk":"Мишколц","name:ru":"Мишкольц","name:sr":"Мишколц","name:uk":"Мішкольц","name:zh":"米什科尔茨","old_name:de":"Mischkolz"},"display_name":"Miskolc, Miskolci járás, Borsod-Abaúj-Zemplén vármegye, Észak-Magyarország, Alföld és Észak, Magyarország","address":{"city":"Miskolc","municipality":"Miskolci járás","county":"Borsod-Abaúj-Zemplén vármegye","ISO3166-2-lvl6":"HU-BZ","region":"Észak-Magyarország","country":"Magyarország","country_code":"hu"},"population":143502,"osm_type":"relation","osm_id":1440895,"type":"administrative","location":[20.7900429,48.1030643],"bbox":[20.4816773,48.0235629,20.8698736,48.1549192]}}
{"name":"Nyíregyháza","other_names":{"name:hr":"Njiređhaza","name:ka":"ნიირეჯჰაზა","name:ru":"Ньиредьхаза","name:sk":"Níreďháza","name:sr":"Њиређхаза","name:uk":"Ньїредьгаза","alt_name:hr":"Nižerhaza","old_name:de":"Birkenkirchen"},"display_name":"Nyíregyháza, Nyíregyházi járás, Szabolcs-Szatmár-Bereg vármegye, Észak-Alföld, Alföld és Észak, 4400, Magyarország","address":{"city":"Nyíregyháza","municipality":"Nyíregyházi járás","county":"Szabolcs-Szatmár-Bereg vármegye","ISO3166-2-lvl6":"HU-SZ","region":"Észak-Alföld","postcode":"4400","country":"Magyarország","country_code":"hu"},"population":115359,"osm_type":"node","osm_id":64627511,"type":"city","location":[21.7167982,47.9557802],"bbox":[21.5567982,47.7957802,21.8767982,48.1157802],"border":{"name":"Nyíregyháza","other_names":{"name:hu":"Nyíregyháza","name:hr":"Njiređhaza","name:ka":"ნიირეჯჰაზა","name:ru":"Ньиредьхаза","name:sk":"Níreďháza","name:sr":"Њиређхаза","name:uk":"Ньїредьгаза","alt_name:hr":"Nižerhaza","old_name:de":"Birkenkirchen"},"display_name":"Nyíregyháza, Nyíregyházi járás, Szabolcs-Szatmár-Bereg vármegye, Észak-Alföld, Alföld és Észak, Magyarország","address":{"city":"Nyíregyháza","municipality":"Nyíregyházi járás","county":"Szabolcs-Szatmár-Bereg vármegye","ISO3166-2-lvl6":"HU-SZ","region":"Észak-Alföld","country":"Magyarország","country_code":"hu"},"population":115359,"osm_type":"relation","osm_id":1447608,"type":"administrative","location":[21.7167982,47.9557802],"bbox":[21.5575186,47.8456593,21.8437943,48.0398454]}}
{"name":"Pécs","other_names":{"name:bs":"Pečuh","name:cs":"Pětikostelí","name:de":"Fünfkirchen","name:hr":"Pečuh","name:hu":"Pécs","name:it":"Cinquechiese","name:la":"Quinque Ecclesiae","name:lt":"Péčas","name:lv":"Pēča","name:ml":"പെച്ച്","name:pl":"Pecz","name:ru":"Печ","name:sk":"Päťkostolie","name:sr":"Печуј","name:tr":"Peçüy","name:uk":"Печ","name:zh":"佩奇","name:ota":"پچوى","old_name:la":"Sopianae","old_name:pl":"Pięciokościoły","name:zh-Hant":"貝赤"},"display_name":"Pécs, Pécsi járás, Baranya vármegye, Dél-Dunántúl, Dunántúl, 7600, Magyarország","address":{"city":"Pécs","municipality":"Pécsi járás","county":"Baranya vármegye","ISO3166-2-lvl6":"HU-BA","region":"Dél-Dunántúl","postcode":"7600","country":"Magyarország","country_code":"hu"},"population":140330,"osm_type":"node","osm_id":17550787,"type":"city","location":[18.2280317,46.0765092],"bbox":[18.0680317,45.9165092,18.3880317,46.2365092],"border":{"name":"Pécs","other_names":{"name:cs":"Pětikostelí","name:de":"Fünfkirchen","name:hr":"Pečuh","name:hu":"Pécs","name:it":"Cinquechiese","name:la":"Quinque Ecclesiae","name:lt":"Péčas","name:lv":"Pēča","name:pl":"Pecz","name:ru":"Печ","name:sk":"Päťkostolie","name:sr":"Печуј","name:uk":"Печ","name:zh":"佩奇","old_name:la":"Sopianae","old_name:pl":"Pięciokościoły","name:zh-Hant":"貝赤","name:bs":"Pečuh","name:ml":"പെച്ച്","name:tr":"Peçüy","name:ota":"پچوى"},"display_name":"Pécs, Pécsi járás, Baranya vármegye, Dél-Dunántúl, Dunántúl, Magyarország","address":{"city":"Pécs","municipality":"Pécsi járás","county":"Baranya vármegye","ISO3166-2-lvl6":"HU-BA","region":"Dél-Dunántúl","country":"Magyarország","country_code":"hu"},"population":140330,"osm_type":"relation","osm_id":575380,"type":"administrative","location":[18.2280317,46.0765092],"bbox":[18.1358056,45.9941673,18.3660004,46.1616082]}}
{"name":"Salgótarján","other_names":{"name:hr":"Šalgotarjan","name:ru":"Шальготарьян","name:sk":"Šalgov-Tarjany","name:sr":"Шалготарјан","old_name:de":"Schalgotarjan"},"display_name":"Salgótarján, Salgótarjáni járás, Nógrád vármegye, Észak-Magyarország, Alföld és Észak, 3100, Magyarország","address":{"city":"Salgótarján","municipality":"Salgótarjáni járás","county":"Nógrád vármegye","ISO3166-2-lvl6":"HU-NO","region":"Észak-Magyarország","postcode":"3100","country":"Magyarország","country_code":"hu"},"population":30910,"osm_type":"node","osm_id":243688523,"type":"city","location":[19.8005642,48.0960676],"bbox":[19.6405642,47.9360676,19.9605642,48.2560676],"border":{"name":"Salgótarján","other_names":{"name:hu":"Salgótarján","name:ru":"Шальготэрьян","name:hr":"Šalgotarjan","name:sk":"Šalgov-Tarjany","name:sr":"Шалготарјан","old_name:de":"Schalgotarjan","alt:ru":"Шальготарьян"},"display_name":"Salgótarján, Salgótarjáni járás, Nógrád vármegye, Észak-Magyarország, Alföld és Észak, Magyarország","address":{"city":"Salgótarján","municipality":"Salgótarjáni járás","county":"Nógrád vármegye","ISO3166-2-lvl6":"HU-NO","region":"Észak-Magyarország","country":"Magyarország","country_code":"hu"},"population":30910,"osm_type":"relation","osm_id":1372090,"type":"administrative","location":[19.8005642,48.0960676],"bbox":[19.7270813,48.0413746,19.9223525,48.1784432]}}
{"name":"Szeged","other_names":{"name:ar":"زيجيد","name:az":"Seqed","name:be":"Сегед","name:bg":"Сегед","name:ce":"Сегед","name:el":"Σέγκεντ","name:fa":"سگد","name:he":"סגד","name:hr":"Segedin","name:hu":"Szeged","name:hy":"Սեգեդ","name:it":"Seghedino","name:ja":"セゲド","name:ka":"სეგედი","name:ko":"세게드","name:la":"Partiscum","name:lt":"Segedas","name:lv":"Segeda","name:mk":"Сегедин","name:ml":"സെഗെഡ്","name:mr":"सेगेड","name:pl":"Segedyn","name:ro":"Seghedin","name:ru":"Сегед","name:sk":"Segedín","name:sr":"Сегедин","name:th":"แซแก็ด","name:tr":"Segedin","name:tt":"Сегед","name:uk":"Сегед","name:yi":"סעגעד","name:zh":"塞格德","alt_name:de":"Segedin","old_name:de":"Szegedin","name:sr-Latn":"Segedin"},"display_name":"Szeged, Szegedi járás, Csongrád-Csanád vármegye, Dél-Alföld, Alföld és Észak, 6700, Magyarország","address":{"city":"Szeged","municipality":"Szegedi járás","county":"Csongrád-Csanád vármegye","ISO3166-2-lvl6":"HU-CS","region":"Dél-Alföld","postcode":"6700","country":"Magyarország","country_code":"hu"},"population":157930,"osm_type":"node","osm_id":30453579,"type":"city","location":[20.1486016,46.2546312],"bbox":[19.9886016,46.0946312,20.3086016,46.4146312],"border":{"name":"Szeged","other_names":{"name:hu":"Szeged","name:ar":"زيجيد","name:az":"Seqed","name:be":"Сегед","name:bg":"Сегед","name:ce":"Сегед","name:el":"Σέγκεντ","name:fa":"سگد","name:he":"סגד","name:hr":"Segedin","name:hy":"Սեգեդ","name:it":"Seghedino","name:ja":"セゲド","name:ka":"სეგედი","name:ko":"세게드","name:la":"Partiscum","name:lt":"Segedas","name:lv":"Segeda","name:mk":"Сегедин","name:ml":"സെഗെഡ്","name:mr":"सेगेड","name:pl":"Segedyn","name:ro":"Seghedin","name:ru":"Сегед","name:sk":"Segedín","name:sr":"Сегедин","name:th":"แซแก็ด","name:tr":"Segedin","name:tt":"Сегед","name:uk":"Сегед","name:yi":"סעגעד","name:zh":"塞格德","alt_name:de":"Segedin","old_name:de":"Szegedin","name:sr-Latn":"Segedin"},"display_name":"Szeged, Szegedi járás, Csongrád-Csanád vármegye, Dél-Alföld, Alföld és Észak, Magyarország","address":{"city":"Szeged","municipality":"Szegedi járás","county":"Csongrád-Csanád vármegye","ISO3166-2-lvl6":"HU-CS","region":"Dél-Alföld","country":"Magyarország","country_code":"hu"},"population":157930,"osm_type":"relation","osm_id":1025105,"type":"administrative","location":[20.1486016,46.2546312],"bbox":[19.9724302,46.1157964,20.3085507,46.3498908]}}
{"name":"Székesfehérvár","other_names":{"name:hr":"Stolni Biograd","name:la":"Alba Regia Regina","name:ro":"Alba Regală","name:ru":"Секешфехервар","name:sk":"Stoličný Belehrad","name:sr":"Секешфехервар","name:tr":"İstolni Belgrad","name:uk":"Секешфегервар","old_name:de":"Stuhlweißenburg","old_name:hr":"Stolni Biograd","old_name:sr":"Столни Београд","old_name:tr":"Belgrad-ı Üngürüs"},"display_name":"Székesfehérvár, Székesfehérvári járás, Fejér vármegye, Közép-Dunántúl, Dunántúl, 8000, Magyarország","address":{"city":"Székesfehérvár","municipality":"Székesfehérvári járás","county":"Fejér vármegye","ISO3166-2-lvl6":"HU-FE","region":"Közép-Dunántúl","postcode":"8000","country":"Magyarország","country_code":"hu"},"population":96024,"osm_type":"node","osm_id":76464246,"type":"city","location":[18.410811,47.1910169],"bbox":[18.250811,47.0310169,18.570811,47.3510169],"border":{"name":"Székesfehérvár","other_names":{"name:cs":"Stoličný Bělehrad","name:hu":"Székesfehérvár","name:la":"Alba Regia Regina","name:ro":"Alba Regală","name:ru":"Секешфехервар","name:sk":"Stoličný Belehrad","name:sr":"Секешфехервар","name:uk":"Секешфегервар","old_name:hr":"Stolni Biograd","old_name:sr":"Столни Београд","name:hr":"Stolni Biograd","name:tr":"İstolni Belgrad","old_name:de":"Stuhlweißenburg","old_name:tr":"Belgrad-ı Üngürüs"},"display_name":"Székesfehérvár, Székesfehérvári járás, Fejér vármegye, Közép-Dunántúl, Dunántúl, Magyarország","address":{"city":"Székesfehérvár","municipality":"Székesfehérvári járás","county":"Fejér vármegye","ISO3166-2-lvl6":"HU-FE","region":"Közép-Dunántúl","country":"Magyarország","country_code":"hu"},"population":96024,"osm_type":"relation","osm_id":1361450,"type":"administrative","location":[18.410811,47.1910169],"bbox":[18.3287434,47.1080255,18.5537518,47.2814844]}}
{"name":"Szekszárd","other_names":{"name:de":"Sechshard","name:hr":"Seksar","name:hu":"Szekszárd","name:ml":"സെക്‌സാർഡ്","name:ru":"Сексард","name:sr":"Сексард","alt_name:de":"Sechsard"},"display_name":"Szekszárd, Szekszárdi járás, Tolna vármegye, Dél-Dunántúl, Dunántúl, 7100, Magyarország","address":{"city":"Szekszárd","municipality":"Szekszárdi járás","county":"Tolna vármegye","ISO3166-2-lvl6":"HU-TO","region":"Dél-Dunántúl","postcode":"7100","country":"Magyarország","country_code":"hu"},"population":29707,"osm_type":"node","osm_id":25553427,"type":"city","location":[18.701663,46.3484884],"bbox":[18.541663,46.1884884,18.861663,46.5084884],"border":{"name":"Szekszárd","other_names":{"name:de":"Sechshard","name:hu":"Szekszárd","name:hr":"Seksar","name:ml":"സെക്‌സാർഡ്","name:ru":"Сексард","name:sr":"Сексард","alt_name:de":"Sechsard"},"display_name":"Szekszárd, Szekszárdi járás, Tolna vármegye, Dél-Dunántúl, Dunántúl, Magyarország","address":{"city":"Szekszárd","municipality":"Szekszárdi járás","county":"Tolna vármegye","ISO3166-2-lvl6":"HU-TO","region":"Dél-Dunántúl","country":"Magyarország","country_code":"hu"},"population":29707,"osm_type":"relation","osm_id":1501296,"type":"administrative","location":[18.701663,46.3484884],"bbox":[18.6109483,46.294663,18.851808,46.404093]}}
{"name":"Szolnok","other_names":{"name:hr":"Solnok","name:ka":"სოლნოკი","name:mk":"Солнок","name:ml":"സോൾനോക്ക്","name:ru":"Сольнок","name:sk":"Solník","name:sr":"Солнок","name:uk":"Солнок","name:mrj":"Сольнок","name:xmf":"სოლნოკი","old_name:de":"Sollnock","old_name:ro":"Solnoca","old_name:sk":"Solnok"},"display_name":"Szolnok, Szolnoki járás, Jász-Nagykun-Szolnok vármegye, Észak-Alföld, Alföld és Észak, 5000, Magyarország","address":{"city":"Szolnok","municipality":"Szolnoki járás","county":"Jász-Nagykun-Szolnok vármegye","ISO3166-2-lvl6":"HU-JN","region":"Észak-Alföld","postcode":"5000","country":"Magyarország","country_code":"hu"},"population":66426,"osm_type":"node","osm_id":1801839190,"type":"city","location":[20.1946279,47.1753833],"bbox":[20.0346279,47.0153833,20.3546279,47.3353833],"border":{"name":"Szolnok","other_names":{"name:hu":"Szolnok","name:ka":"სოლნოკი","name:mk":"Солнок","name:ml":"സോൾനോക്ക്","name:sk":"Solník","name:sr":"Солнок","name:uk":"Солнок","name:mrj":"Сольнок","name:xmf":"სოლნოკი","old_name:de":"Sollnock","old_name:ro":"Solnoca","old_name:sk":"Solnok","name:hr":"Solnok","name:ru":"Сольнок"},"display_name":"Szolnok, Szolnoki járás, Jász-Nagykun-Szolnok vármegye, Észak-Alföld, Alföld és Észak, Magyarország","address":{"city":"Szolnok","municipality":"Szolnoki járás","county":"Jász-Nagykun-Szolnok vármegye","ISO3166-2-lvl6":"HU-JN","region":"Észak-Alföld","country":"Magyarország","country_code":"hu"},"population":66426,"osm_type":"relation","osm_id":1273068,"type":"administrative","location":[20.1946279,47.1753833],"bbox":[20.0710254,47.0966207,20.2960493,47.2645297]}}
{"name":"Szombathely","other_names":{"name:de":"Steinamanger","name:hr":"Sambotel","name:hu":"Szombathely","name:ru":"Сомбатхей","name:sk":"Kamenec","name:sr":"Сомбатхељ","name:uk":"Сомбатгей","old_name:de":"Stein am Anger","old_name:la":"Savaria"},"display_name":"Szombathely, Szombathelyi járás, Vas vármegye, Nyugat-Dunántúl, Dunántúl, 9700, Magyarország","address":{"city":"Szombathely","municipality":"Szombathelyi járás","county":"Vas vármegye","ISO3166-2-lvl6":"HU-VA","region":"Nyugat-Dunántúl","postcode":"9700","country":"Magyarország","country_code":"hu"},"population":77757,"osm_type":"node","osm_id":1704499260,"type":"city","location":[16.6187625,47.2291184],"bbox":[16.4587625,47.0691184,16.7787625,47.3891184],"border":{"name":"Szombathely","other_names":{"name:de":"Szombathely","name:hr":"Sambotel","name:hu":"Szombathely","name:la":"Savaria","name:ru":"Сомбатхей","name:sr":"Сомбатхељ","alt_name:de":"Steinamanger","old_name:de":"Stein am Anger","name:sk":"Kamenec","name:uk":"Сомбатгей","old_name:la":"Savaria","alt:de":"Steinamanger"},"display_name":"Szombathely, Szombathelyi járás, Vas vármegye, Nyugat-Dunántúl, Dunántúl, Magyarország","address":{"city":"Szombathely","municipality":"Szombathelyi járás","county":"Vas vármegye","ISO3166-2-lvl6":"HU-VA","region":"Nyugat-Dunántúl","country":"Magyarország","country_code":"hu"},"population":77757,"osm_type":"relation","osm_id":1131673,"type":"administrative","location":[16.6187625,47.2291184],"bbox":[16.5279476,47.1543893,16.6980037,47.2825243]}}
{"name":"Tatabánya","other_names":{"name:de":"Totiserkolonie","name:hr":"Tatabanja","name:ru":"Татабанья","name:sk":"Tatabaňa","name:sr":"Татабања","name:uk":"Татабанья"},"display_name":"Tatabánya, Tatabányai járás, Komárom-Esztergom vármegye, Közép-Dunántúl, Dunántúl, 2800, Magyarország","address":{"city":"Tatabánya","municipality":"Tatabányai járás","county":"Komárom-Esztergom vármegye","ISO3166-2-lvl6":"HU-KE","region":"Közép-Dunántúl","postcode":"2800","country":"Magyarország","country_code":"hu"},"population":65861,"osm_type":"node","osm_id":282420922,"type":"city","location":[18.3979855,47.583845],"bbox":[18.2379855,47.423845,18.5579855,47.743845],"border":{"name":"Tatabánya","other_names":{"name:de":"Totiserkolonie","name:hu":"Tatabánya","name:ru":"Татабанья","name:sr":"Татабања","name:hr":"Tatabanja","name:sk":"Tatabaňa","name:uk":"Татабанья"},"display_name":"Tatabánya, Tatabányai járás, Komárom-Esztergom vármegye, Közép-Dunántúl, Dunántúl, Magyarország","address":{"city":"Tatabánya","municipality":"Tatabányai járás","county":"Komárom-Esztergom vármegye","ISO3166-2-lvl6":"HU-KE","region":"Közép-Dunántúl","country":"Magyarország","country_code":"hu"},"population":65861,"osm_type":"relation","osm_id":1027771,"type":"administrative","location":[18.3979855,47.583845],"bbox":[18.338372,47.4864271,18.4978031,47.609743]}}
{"name":"Veszprém","other_names":{"name:de":"Wesprim","name:hr":"Vesprim","name:ru":"Веспрем","name:sk":"Vesprím","name:sr":"Веспрем","name:uk":"Веспрем","alt_name:hr":"Besprim","old_name:de":"Weißbrünn"},"display_name":"Veszprém, Veszprémi járás, Veszprém vármegye, Közép-Dunántúl, Dunántúl, 8200, Magyarország","address":{"city":"Veszprém","municipality":"Veszprémi járás","county":"Veszprém vármegye","ISO3166-2-lvl6":"HU-VE","region":"Közép-Dunántúl","postcode":"8200","country":"Magyarország","country_code":"hu"},"population":56029,"osm_type":"node","osm_id":334943106,"type":"city","location":[17.9080406,47.0933824],"bbox":[17.7480406,46.9333824,18.0680406,47.2533824],"border":[{"name":"Veszprém vármegye","other_names":{"name:de":"Komitat Wesprim","name:en":"Veszprém","name:hr":"Vesprimaska županija","name:hu":"Veszprém vármegye","name:ru":"медье Веспрем","name:sk":"Vesprémska župa","old_name":"Veszprém megye","ISO3166-2":"HU-VE"},"display_name":"Veszprém vármegye, Közép-Dunántúl, Dunántúl, Magyarország","address":{"county":"Veszprém vármegye","ISO3166-2-lvl6":"HU-VE","region":"Közép-Dunántúl","country":"Magyarország","country_code":"hu"},"osm_type":"relation","osm_id":22278,"type":"administrative","location":[17.5930443,47.1207289],"bbox":[17.0735579,46.7478666,18.2618819,47.4859518]},{"name":"Veszprém","other_names":{"name:de":"Wesprim","name:hu":"Veszprém","name:ru":"Веспрем","name:sk":"Vesprém","name:sr":"Веспрем","old_name:de":"Weißbrunn","name:hr":"Vesprim","name:uk":"Веспрем","alt_name:hr":"Besprim","_place_old_name:de":"Weißbrünn","alt:sk":"Vesprím"},"display_name":"Veszprém, Veszprémi járás, Veszprém vármegye, Közép-Dunántúl, Dunántúl, Magyarország","address":{"city":"Veszprém","municipality":"Veszprémi járás","county":"Veszprém vármegye","ISO3166-2-lvl6":"HU-VE","region":"Közép-Dunántúl","country":"Magyarország","country_code":"hu"},"population":56029,"osm_type":"relation","osm_id":1078442,"type":"administrative","location":[17.9080406,47.0933824],"bbox":[17.8211069,47.0462952,17.994351,47.2057893]}]}
{"name":"Zalaegerszeg","other_names":{"name:hr":"Jegersek","name:ru":"Залаэгерсег","name:sr":"Залаегерсег","name:uk":"Залаеґерсеґ","old_name:de":"Egersee"},"display_name":"Zalaegerszeg, Zalaegerszegi járás, Zala vármegye, Nyugat-Dunántúl, Dunántúl, 8900, Magyarország","address":{"city":"Zalaegerszeg","municipality":"Zalaegerszegi járás","county":"Zala vármegye","ISO3166-2-lvl6":"HU-ZA","region":"Nyugat-Dunántúl","postcode":"8900","country":"Magyarország","country_code":"hu"},"population":55152,"osm_type":"node","osm_id":183813583,"type":"city","location":[16.8456316,46.8415803],"bbox":[16.6856316,46.6815803,17.0056316,47.0015803],"border":{"name":"Zalaegerszeg","other_names":{"name:hu":"Zalaegerszeg","name:ru":"Залаэгерсег","name:sr":"Залаегерсег","name:hr":"Jegersek","name:uk":"Залаеґерсеґ","old_name:de":"Egersee"},"display_name":"Zalaegerszeg, Zalaegerszegi járás, Zala vármegye, Nyugat-Dunántúl, Dunántúl, Magyarország","address":{"city":"Zalaegerszeg","municipality":"Zalaegerszegi járás","county":"Zala vármegye","ISO3166-2-lvl6":"HU-ZA","region":"Nyugat-Dunántúl","country":"Magyarország","country_code":"hu"},"population":55152,"osm_type":"relation","osm_id":1357195,"type":"administrative","location":[16.8456316,46.8415803],"bbox":[16.7694368,46.7803888,16.9069325,46.9002981]}}
