{"name":"Cork","other_names":{"name:bn":"à¦•à¦°à§à¦•","name:br":"Korkig","name:cy":"Corc","name:en":"Cork","name:ga":"Corcaigh","name:gd":"Corcaigh","name:gv":"Corkee","name:ja":"ã‚³ãƒ¼ã‚¯","name:ko":"ì½”í¬","name:ru":"ĞšĞ¾Ñ€Ğº","name:sr":"ĞšĞ¾Ñ€Ğº","name:zh":"ç§‘å…‹","old_name:ga":"Corcach MÃ³r na Mumhan"},"display_name":"Cork, County Cork, Munster, Ã‰ire / Ireland","address":{"city":"Cork","county":"County Cork","ISO3166-2-lvl6":"IE-CO","region":"Munster","ISO3166-2-lvl5":"IE-M","country":"Ã‰ire / Ireland","country_code":"ie"},"population":222526,"osm_type":"node","osm_id":1422314245,"type":"city","location":[-8.4726423,51.8985136],"bbox":[-8.6326423,51.7385136,-8.3126423,52.0585136],"border":[{"name":"County Cork","other_names":{"name:ar":"Ù…Ù‚Ø§Ø·Ø¹Ø© ÙƒÙˆØ±Ùƒ","name:be":"ĞšĞ¾Ñ€Ğº","name:bg":"ĞšĞ¾Ñ€Ğº","name:br":"Kontelezh Corcaigh","name:ca":"Comtat de Cork","name:cs":"HrabstvÃ­ Cork","name:cy":"Swydd Corc","name:da":"County Cork","name:de":"County Cork","name:en":"County Cork","name:es":"Condado de Cork","name:et":"Corki krahvkond","name:eu":"Cork konderria","name:fa":"Ø´Ù‡Ø±Ø³ØªØ§Ù† Ú©ÙˆØ±Ú©","name:fi":"Corkin kreivikunta","name:fr":"ComtÃ© de Cork","name:ga":"Contae ChorcaÃ­","name:gd":"Contae ChorcaÃ­","name:gl":"Condado de Cork","name:gv":"Coontae Chorkee","name:he":"××—×•×– ×§×•×¨×§","name:hr":"Cork","name:hu":"Cork megye","name:id":"County Cork","name:is":"County Cork","name:it":"Contea di Cork","name:ja":"ã‚³ãƒ¼ã‚¯çœŒ","name:ka":"áƒ™áƒáƒ áƒ™áƒ˜áƒ¡ áƒ¡áƒáƒ’áƒ áƒáƒ¤áƒ","name:ko":"ì½”í¬ì£¼","name:ku":"County Cork","name:lt":"Korko grafystÄ—","name:mk":"ĞšĞ¾Ñ€Ğº","name:ms":"Kaunti Cork","name:nn":"County Cork","name:no":"Cork","name:pl":"Cork","name:pt":"Condado de Cork","name:ro":"Comitatul Cork","name:ru":"ĞšĞ¾Ñ€Ğº","name:sh":"Cork","name:sk":"Cork","name:sq":"Qarku Cork","name:sr":"ĞšĞ¾Ñ€Ğº","name:sv":"Cork","name:sw":"Wilaya ya Cork","name:tg":"Ğ’Ğ¸Ğ»Ğ¾ÑÑ‚Ğ¸ ĞšĞ¾Ñ€Ğº","name:tr":"Cork KontluÄŸu","name:uk":"ĞšĞ¾Ñ€Ğº","name:ur":"Ú©Ø§Ø¤Ù†Ù¹ÛŒ Ú©ÙˆØ±Ú©","name:zh":"ç§‘å…‹éƒ¡","name:ang":"CorcaigscÄ«r","name:ast":"CondÃ¡u de Cork","name:ceb":"County Cork","name:frr":"Cork","name:nan":"Cork KÅ«n","name:pnb":"Ú©ÙˆØ±Ú©","name:sco":"Coontie Cork","name:tpi":"Kaunti Cork","name:vls":"County Cork","name:wuu":"ç§‘å…‹éƒ¡","ISO3166-2":"IE-CO","alt_name:zh":"ç§‘å…‹","official_name:en":"Cork","official_name:ga":"Corcaigh"},"display_name":"County Cork, Munster, Ã‰ire / Ireland","address":{"county":"County Cork","ISO3166-2-lvl6":"IE-CO","region":"Munster","ISO3166-2-lvl5":"IE-M","country":"Ã‰ire / Ireland","country_code":"ie"},"osm_type":"relation","osm_id":332631,"type":"administrative","location":[-8.58597726870895,51.917535900000004],"bbox":[-10.3025214,51.388867,-7.8410723,52.3877865]},{"name":"Cork","other_names":{"name:af":"Cork","name:ar":"ÙƒÙˆØ±Ùƒ","name:az":"Kork","name:ba":"ĞšĞ¾Ñ€Ğº","name:be":"ĞšĞ¾Ñ€Ğº","name:bg":"ĞšĞ¾Ñ€Ğº","name:bn":"à¦•à¦°à§à¦•","name:br":"Korkig","name:ca":"Cork","name:ce":"ĞšĞ¾Ñ€Ğº","name:cs":"Cork","name:cy":"Corc","name:da":"Cork","name:de":"Cork","name:el":"ÎšÎ¿ÏÎº","name:en":"Cork","name:es":"Cork","name:et":"Cork","name:eu":"Cork","name:fa":"Ú©ÙˆØ±Ú©","name:fi":"Cork","name:fo":"Cork","name:fr":"Cork","name:fy":"Cork","name:ga":"Corcaigh","name:gd":"Corcaigh","name:gl":"Cork","name:gu":"àª•à«‰àª°à«àª•","name:gv":"Corkee","name:he":"×§×•×¨×§","name:hi":"à¤•à¥‰à¤°à¥à¤•","name:hr":"Cork","name:hu":"Cork","name:hy":"Ô¿Õ¸Ö€Õ¯","name:id":"Cork","name:io":"Cork","name:is":"Cork","name:it":"Cork","name:ja":"ã‚³ãƒ¼ã‚¯ (ã‚¢ã‚¤ãƒ«ãƒ©ãƒ³ãƒ‰)","name:ka":"áƒ™áƒáƒ áƒ™áƒ˜","name:kk":"ĞšĞ¾Ñ€Ğº","name:kn":"à²•à²¾à²°à³à²•à³","name:ko":"ì½”í¬","name:la":"Corcagia","name:lt":"Korkas","name:lv":"Korka","name:mk":"ĞšĞ¾Ñ€Ğº","name:mn":"ĞšĞ¾Ñ€Ğº","name:mr":"à¤•à¥‰à¤°à¥à¤•","name:ms":"Cork","name:mt":"Cork","name:na":"Cork","name:nl":"Cork","name:nn":"Cork","name:no":"Cork","name:oc":"Cork","name:os":"ĞšĞ¾Ñ€Ğº","name:pl":"Cork","name:pt":"Cork","name:ro":"Cork","name:ru":"ĞšĞ¾Ñ€Ğº","name:sc":"Cork","name:sh":"Cork","name:sk":"Cork","name:sl":"Cork","name:sq":"Kork","name:sr":"ĞšĞ¾Ñ€Ğº","name:sv":"Cork","name:sw":"Cork","name:ta":"à®•à¯‹à®°à¯à®•à¯","name:te":"à°•à±‹à°°à±à°•à±","name:tg":"ĞšĞ¾Ñ€Ğº","name:th":"à¸„à¸­à¸£à¹Œà¸ (à¹€à¸¡à¸·à¸­à¸‡)","name:tk":"Kork","name:tr":"Cork","name:tt":"ĞšĞ¾Ñ€Ğº","name:uk":"ĞšĞ¾Ñ€Ğº","name:ur":"Ú©ÙˆØ±Ú© (Ø´ÛØ±)","name:uz":"Kork","name:vi":"Cork","name:vo":"Corcaigh","name:zh":"ç§‘å…‹","name:ang":"Corcaig","name:arz":"ÙƒÙˆØ±Ùƒ","name:ast":"Cork","name:ceb":"Cork","name:diq":"Cork","name:frr":"Cork","name:got":"ğŒºğŒ°ğŒ¿ğ‚ğŒº","name:hsb":"Cork","name:pms":"Cork","name:pnt":"ÎšÎ¿ÏÎº","name:sgs":"Kuorks","name:szl":"Cork","name:tpi":"Cork","name:vec":"Cork","name:vls":"Cork","name:war":"Cork","name:wuu":"ç§‘å…‹ (çˆ±å°”å…°)","name:yue":"ç§‘å…‹","alt_name:la":"Corcavia","name:nds-nl":"Cork","name:bat-smg":"Kuorks","name:zh-Hans":"ç§‘å…‹","name:zh-Hant":"ç§‘å…‹","name:be-tarask":"ĞšĞ¾Ñ€Ğº","old_name:ga":"Corcach MÃ³r na Mumhan","alt:ja":"ã‚³ãƒ¼ã‚¯"},"display_name":"Cork, County Cork, Munster, Ã‰ire / Ireland","address":{"city":"Cork","county":"County Cork","ISO3166-2-lvl6":"IE-CO","region":"Munster","ISO3166-2-lvl5":"IE-M","country":"Ã‰ire / Ireland","country_code":"ie"},"population":210000,"osm_type":"relation","osm_id":11797890,"type":"administrative","location":[-8.4726423,51.8985136],"bbox":[-8.6378543,51.8273102,-8.3551315,51.9701415]}]}
{"name":"Dublin","other_names":{"name:af":"Dublin","name:am":"á‹°á‰¥áˆŠáŠ•","name:an":"DublÃ­n","name:ar":"Ø¯Ø¨Ù„Ù†","name:av":"Ğ”ÑƒĞ±Ğ»Ğ¸Ğ½","name:ay":"Dublin","name:az":"Dublin","name:ba":"Ğ”ÑƒĞ±Ğ»Ğ¸Ğ½","name:be":"Ğ”ÑƒĞ±Ğ»Ñ–Ğ½","name:bg":"Ğ”ÑŠĞ±Ğ»Ğ¸Ğ½","name:bn":"à¦¡à¦¾à¦¬à¦²à¦¿à¦¨","name:bo":"à½‘à½´à½–à¼‹à½£à½²à½“à¼","name:br":"Dulenn","name:bs":"Dublin","name:ca":"DublÃ­n","name:ce":"Ğ”ÑƒĞ±Ğ»Ğ¸Ğ½","name:cs":"Dublin","name:cu":"Ğ”Ğ¾ÑƒĞ±Ğ»Ğ¸Ğ½ÑŠ","name:cv":"Ğ”ÑƒĞ±Ğ»Ğ¸Ğ½","name:cy":"Dulyn","name:da":"Dublin","name:de":"Dublin","name:ee":"Dublin","name:el":"Î”Î¿Ï…Î²Î»Î¯Î½Î¿","name:en":"Dublin","name:eo":"Dublino","name:es":"DublÃ­n","name:et":"Dublin","name:eu":"Dublin","name:fa":"Ø¯ÙˆØ¨Ù„ÛŒÙ†","name:fi":"Dublin","name:fo":"Dublin","name:fr":"Dublin","name:fy":"Dublin","name:ga":"Baile Ãtha Cliath","name:gd":"Baile Ã€tha Cliath","name:gl":"DublÃ­n - Baile Ãtha Cliath","name:gv":"Divlyn","name:he":"×“×‘×œ×™×Ÿ","name:hi":"à¤¡à¤¬à¤²à¤¿à¤¨","name:hr":"Dublin","name:ht":"Diblin","name:hu":"Dublin","name:hy":"Ô´Õ¸Ö‚Õ¢Õ¬Õ«Õ¶","name:ia":"Dublin","name:id":"Dublin","name:ie":"Dublin","name:io":"Dublin","name:is":"Dyflinn","name:it":"Dublino","name:ja":"ãƒ€ãƒ–ãƒªãƒ³","name:jv":"Dublin","name:ka":"áƒ“áƒ£áƒ‘áƒšáƒ˜áƒœáƒ˜","name:kk":"Ğ”ÑƒĞ±Ğ»Ğ¸Ğ½","name:kn":"à²¡à²¬à³à²²à²¿à²¨à³","name:ko":"ë”ë¸”ë¦°","name:ku":"DublÃ®n","name:kw":"Dulyn","name:ky":"Ğ”ÑƒĞ±Ğ»Ğ¸Ğ½","name:la":"Eblana","name:lb":"Dublin","name:li":"Dublin","name:ln":"Dublin","name:lt":"Dublinas","name:lv":"Dublina","name:mi":"Tapurini","name:mk":"Ğ”Ğ°Ğ±Ğ»Ğ¸Ğ½","name:ml":"à´¡à´¬àµà´²à´¿àµ»","name:mn":"Ğ”ÑƒĞ±Ğ»Ğ¸Ğ½","name:mr":"à¤¡à¤¬à¥à¤²à¤¿à¤¨","name:ms":"Dublin","name:mt":"Dublin","name:my":"á€’á€•á€ºá€—á€œá€„á€ºá€™á€¼á€­á€¯á€·","name:na":"Dublin","name:nl":"Dublin","name:nn":"Dublin","name:no":"Dublin","name:nv":"TÃ³hodiÅ‚hiÅ‚","name:oc":"Dublin","name:om":"Dubliin","name:or":"à¬¡à¬¬à¬²à¬¿à¬¨","name:os":"Ğ”ÑƒĞ±Ğ»Ğ¸Ğ½","name:pa":"à¨¡à¨¬à¨²à¨¿à¨¨","name:pl":"Dublin","name:ps":"Ú‰Ø¨Ù„Ù†","name:pt":"Dublin","name:qu":"Baile Ãtha Cliath","name:rm":"Dublin","name:ro":"Dublin","name:ru":"Ğ”ÑƒĞ±Ğ»Ğ¸Ğ½","name:rw":"Dublin","name:sc":"Dublinu","name:sd":"ÚŠØ¨Ù„Ù†","name:se":"Dublin","name:sh":"Dublin","name:sk":"Dublin","name:sl":"Dublin","name:sn":"Dublin","name:so":"Dublin","name:sq":"Dublini","name:sr":"Ğ”Ğ°Ğ±Ğ»Ğ¸Ğ½","name:sv":"Dublin","name:sw":"Dublin","name:ta":"à®Ÿà®ªà¯à®²à®¿à®©à¯","name:te":"à°¡à°¬à±à°²à°¿à°¨à±","name:tg":"Ğ”ÑƒĞ±Ğ»Ğ¸Ğ½","name:th":"à¸”à¸±à¸šà¸¥à¸´à¸™","name:tl":"Dublin","name:tr":"Dublin","name:tt":"Ğ”ÑƒĞ±Ğ»Ğ¸Ğ½","name:ug":"Ø¯Û‡Ø¨Ù„Ù‰Ù†","name:uk":"Ğ”ÑƒĞ±Ğ»Ñ–Ğ½","name:ur":"ÚˆØ¨Ù„Ù†","name:uz":"Dublin","name:vi":"Dublin","name:vo":"Baile Ãtha Cliath","name:wa":"Dublin","name:wo":"Dublin","name:yi":"×“×•×‘×œ×™×Ÿ","name:yo":"Dublin","name:zh":"éƒ½æŸæ—","alt_name":"Dublin City","name:ace":"Dublin","name:ady":"Ğ”ÑƒĞ±Ğ»Ğ¸Ğ½","name:als":"Dublin","name:ang":"Difelin","name:arc":"Ü•Ü’Ü Ü¢","name:arz":"Ø¯ÙˆØ¨Ù„ÙŠÙ†","name:ast":"CiudÃ¡ de DublÃ­n","name:avk":"Dublin","name:azb":"Ø¯ÙˆØ¨Ù„ÛŒÙ†","name:ban":"Dublin","name:bar":"Dublin","name:bcl":"Dublin","name:bxr":"Ğ”ÑƒĞ±Ğ»Ğ¸Ğ½","name:cdo":"Dublin","name:ceb":"Dublin","name:ckb":"Ø¯Û•Ø¨ÚµÛŒÙ†","name:crh":"Dublin","name:diq":"Dublin","name:dsb":"Dublin","name:ext":"DublÃ­n","name:frp":"Dublin","name:frr":"Dublin","name:gag":"Dublin","name:hak":"Dublin","name:haw":"Kupelina","name:hif":"Dublin","name:hsb":"Dublin","name:hyw":"ÕÕ¡ÕºÕ¬Õ«Õ¶","name:ilo":"Dublin","name:jbo":"dublin","name:kab":"Dublin","name:krc":"Ğ”ÑƒĞ±Ğ»Ğ¸Ğ½","name:lad":"Dublin","name:lfn":"Dublin","name:lij":"Dublin","name:lmo":"DÃ¼blin","name:mrj":"Ğ”ÑƒĞ±Ğ»Ğ¸Ğ½","name:myv":"Ğ”ÑƒĞ±Ğ»Ğ¸Ğ½ Ğ¾Ñˆ","name:nah":"Dublin","name:nan":"Dublin","name:nds":"Dublin","name:new":"à¤¦à¤¬à¥à¤²à¤¿à¤¨","name:nov":"Dublin","name:nrm":"DublÃ®n","name:pap":"Dublin","name:pih":"Dublin","name:pms":"Dublin","name:pnb":"ÚˆØ¨Ù„Ù†","name:rue":"Ğ”Ğ°Ğ±Ğ»Ğ¸Ğ½","name:sah":"Ğ”ÑƒĞ±Ğ»Ğ¸Ğ½","name:scn":"Dublinu","name:sco":"Dublin","name:stq":"Dublin","name:szl":"Dublin","name:tpi":"Dublin","name:udm":"Ğ”ÑƒĞ±Ğ»Ğ¸Ğ½","name:vec":"Dublin","name:vep":"Dublin","name:war":"Dublin","name:wuu":"éƒ½æŸæ—","name:xmf":"áƒ“áƒ£áƒ‘áƒšáƒ˜áƒœáƒ˜","name:yue":"éƒ½æŸæ—","alt_name:ga":"Duibhlinn","alt_name:gv":"Balley Aah Cleeah","name:nds-nl":"Dublin","name:bat-smg":"DoblÄ—ns","name:be-tarask":"Ğ”ÑƒĞ±Ğ»Ñ–Ğ½"},"display_name":"Dublin, County Dublin, Leinster, Ã‰ire / Ireland","address":{"city":"Dublin","county":"County Dublin","ISO3166-2-lvl6":"IE-D","region":"Leinster","ISO3166-2-lvl5":"IE-L","country":"Ã‰ire / Ireland","country_code":"ie"},"population":554554,"osm_type":"node","osm_id":3473474851,"type":"city","location":[-6.2605593,53.3493795],"bbox":[-6.4205593,53.1893795,-6.1005593,53.5093795],"border":[{"name":"County Dublin","other_names":{"name:en":"County Dublin","name:ga":"Contae Ãtha Cliath","name:ko":"ë”ë¸”ë¦°","name:ru":"Ğ”ÑƒĞ±Ğ»Ğ¸Ğ½","ISO3166-2":"IE-D"},"display_name":"County Dublin, Leinster, Ã‰ire / Ireland","address":{"county":"County Dublin","ISO3166-2-lvl6":"IE-D","region":"Leinster","ISO3166-2-lvl5":"IE-L","country":"Ã‰ire / Ireland","country_code":"ie"},"osm_type":"relation","osm_id":282800,"type":"administrative","location":[-6.286667702716778,53.40651475],"bbox":[-6.5468919,53.1782636,-5.9945041,53.6347143]},{"name":"Dublin","other_names":{"name:br":"Dulenn","name:en":"Dublin","name:es":"DublÃ­n","name:fr":"Dublin","name:ga":"Baile Ãtha Cliath","name:gd":"Baile Ã€tha Cliath","name:gv":"Divlyn","name:mi":"Tapurini","name:pl":"Dublin","name:sr":"Ğ”Ğ°Ğ±Ğ»Ğ¸Ğ½","alt_name":"Dublin City","alt_name:ga":"Duibhlinn","alt_name:gv":"Balley Aah Cleeah","name:af":"Dublin","name:am":"á‹°á‰¥áˆŠáŠ•","name:an":"DublÃ­n","name:ar":"Ø¯Ø¨Ù„Ù†","name:av":"Ğ”ÑƒĞ±Ğ»Ğ¸Ğ½","name:ay":"Dublin","name:az":"Dublin","name:ba":"Ğ”ÑƒĞ±Ğ»Ğ¸Ğ½","name:be":"Ğ”ÑƒĞ±Ğ»Ñ–Ğ½","name:bg":"Ğ”ÑŠĞ±Ğ»Ğ¸Ğ½","name:bn":"à¦¡à¦¾à¦¬à¦²à¦¿à¦¨","name:bo":"à½‘à½´à½–à¼‹à½£à½²à½“à¼","name:bs":"Dublin","name:ca":"DublÃ­n","name:ce":"Ğ”ÑƒĞ±Ğ»Ğ¸Ğ½","name:cs":"Dublin","name:cu":"Ğ”Ğ¾ÑƒĞ±Ğ»Ğ¸Ğ½ÑŠ","name:cv":"Ğ”ÑƒĞ±Ğ»Ğ¸Ğ½","name:cy":"Dulyn","name:da":"Dublin","name:de":"Dublin","name:ee":"Dublin","name:el":"Î”Î¿Ï…Î²Î»Î¯Î½Î¿","name:eo":"Dublino","name:et":"Dublin","name:eu":"Dublin","name:fa":"Ø¯ÙˆØ¨Ù„ÛŒÙ†","name:fi":"Dublin","name:fo":"Dublin","name:fy":"Dublin","name:gl":"DublÃ­n - Baile Ãtha Cliath","name:he":"×“×‘×œ×™×Ÿ","name:hi":"à¤¡à¤¬à¤²à¤¿à¤¨","name:hr":"Dublin","name:ht":"Diblin","name:hu":"Dublin","name:hy":"Ô´Õ¸Ö‚Õ¢Õ¬Õ«Õ¶","name:ia":"Dublin","name:id":"Dublin","name:ie":"Dublin","name:io":"Dublin","name:is":"Dyflinn","name:it":"Dublino","name:ja":"ãƒ€ãƒ–ãƒªãƒ³","name:jv":"Dublin","name:ka":"áƒ“áƒ£áƒ‘áƒšáƒ˜áƒœáƒ˜","name:kk":"Ğ”ÑƒĞ±Ğ»Ğ¸Ğ½","name:kn":"à²¡à²¬à³à²²à²¿à²¨à³","name:ko":"ë”ë¸”ë¦°","name:ku":"DublÃ®n","name:kw":"Dulyn","name:ky":"Ğ”ÑƒĞ±Ğ»Ğ¸Ğ½","name:la":"Eblana","name:lb":"Dublin","name:li":"Dublin","name:ln":"Dublin","name:lt":"Dublinas","name:lv":"Dublina","name:mk":"Ğ”Ğ°Ğ±Ğ»Ğ¸Ğ½","name:ml":"à´¡à´¬àµà´²à´¿àµ»","name:mn":"Ğ”ÑƒĞ±Ğ»Ğ¸Ğ½","name:mr":"à¤¡à¤¬à¥à¤²à¤¿à¤¨","name:ms":"Dublin","name:mt":"Dublin","name:my":"á€’á€•á€ºá€—á€œá€„á€ºá€™á€¼á€­á€¯á€·","name:na":"Dublin","name:nl":"Dublin","name:nn":"Dublin","name:no":"Dublin","name:nv":"TÃ³hodiÅ‚hiÅ‚","name:oc":"Dublin","name:om":"Dubliin","name:or":"à¬¡à¬¬à¬²à¬¿à¬¨","name:os":"Ğ”ÑƒĞ±Ğ»Ğ¸Ğ½","name:pa":"à¨¡à¨¬à¨²à¨¿à¨¨","name:ps":"Ú‰Ø¨Ù„Ù†","name:pt":"Dublin","name:qu":"Baile Ãtha Cliath","name:rm":"Dublin","name:ro":"Dublin","name:ru":"Ğ”ÑƒĞ±Ğ»Ğ¸Ğ½","name:rw":"Dublin","name:sc":"Dublinu","name:sd":"ÚŠØ¨Ù„Ù†","name:se":"Dublin","name:sh":"Dublin","name:sk":"Dublin","name:sl":"Dublin","name:sn":"Dublin","name:so":"Dublin","name:sq":"Dublini","name:sv":"Dublin","name:sw":"Dublin","name:ta":"à®Ÿà®ªà¯à®²à®¿à®©à¯","name:te":"à°¡à°¬à±à°²à°¿à°¨à±","name:tg":"Ğ”ÑƒĞ±Ğ»Ğ¸Ğ½","name:th":"à¸”à¸±à¸šà¸¥à¸´à¸™","name:tl":"Dublin","name:tr":"Dublin","name:tt":"Ğ”ÑƒĞ±Ğ»Ğ¸Ğ½","name:ug":"Ø¯Û‡Ø¨Ù„Ù‰Ù†","name:uk":"Ğ”ÑƒĞ±Ğ»Ñ–Ğ½","name:ur":"ÚˆØ¨Ù„Ù†","name:uz":"Dublin","name:vi":"Dublin","name:vo":"Baile Ãtha Cliath","name:wa":"Dublin","name:wo":"Dublin","name:yi":"×“×•×‘×œ×™×Ÿ","name:yo":"Dublin","name:zh":"éƒ½æŸæ—","name:ace":"Dublin","name:ady":"Ğ”ÑƒĞ±Ğ»Ğ¸Ğ½","name:als":"Dublin","name:ang":"Difelin","name:arc":"Ü•Ü’Ü Ü¢","name:arz":"Ø¯ÙˆØ¨Ù„ÙŠÙ†","name:ast":"CiudÃ¡ de DublÃ­n","name:avk":"Dublin","name:azb":"Ø¯ÙˆØ¨Ù„ÛŒÙ†","name:ban":"Dublin","name:bar":"Dublin","name:bcl":"Dublin","name:bxr":"Ğ”ÑƒĞ±Ğ»Ğ¸Ğ½","name:cdo":"Dublin","name:ceb":"Dublin","name:ckb":"Ø¯Û•Ø¨ÚµÛŒÙ†","name:crh":"Dublin","name:diq":"Dublin","name:dsb":"Dublin","name:ext":"DublÃ­n","name:frp":"Dublin","name:frr":"Dublin","name:gag":"Dublin","name:hak":"Dublin","name:haw":"Kupelina","name:hif":"Dublin","name:hsb":"Dublin","name:hyw":"ÕÕ¡ÕºÕ¬Õ«Õ¶","name:ilo":"Dublin","name:jbo":"dublin","name:kab":"Dublin","name:krc":"Ğ”ÑƒĞ±Ğ»Ğ¸Ğ½","name:lad":"Dublin","name:lfn":"Dublin","name:lij":"Dublin","name:lmo":"DÃ¼blin","name:mrj":"Ğ”ÑƒĞ±Ğ»Ğ¸Ğ½","name:myv":"Ğ”ÑƒĞ±Ğ»Ğ¸Ğ½ Ğ¾Ñˆ","name:nah":"Dublin","name:nan":"Dublin","name:nds":"Dublin","name:new":"à¤¦à¤¬à¥à¤²à¤¿à¤¨","name:nov":"Dublin","name:nrm":"DublÃ®n","name:pap":"Dublin","name:pih":"Dublin","name:pms":"Dublin","name:pnb":"ÚˆØ¨Ù„Ù†","name:rue":"Ğ”Ğ°Ğ±Ğ»Ğ¸Ğ½","name:sah":"Ğ”ÑƒĞ±Ğ»Ğ¸Ğ½","name:scn":"Dublinu","name:sco":"Dublin","name:stq":"Dublin","name:szl":"Dublin","name:tpi":"Dublin","name:udm":"Ğ”ÑƒĞ±Ğ»Ğ¸Ğ½","name:vec":"Dublin","name:vep":"Dublin","name:war":"Dublin","name:wuu":"éƒ½æŸæ—","name:xmf":"áƒ“áƒ£áƒ‘áƒšáƒ˜áƒœáƒ˜","name:yue":"éƒ½æŸæ—","name:nds-nl":"Dublin","name:bat-smg":"DoblÄ—ns","name:be-tarask":"Ğ”ÑƒĞ±Ğ»Ñ–Ğ½"},"display_name":"Dublin, County Dublin, Leinster, Ã‰ire / Ireland","address":{"city":"Dublin","county":"County Dublin","ISO3166-2-lvl6":"IE-D","region":"Leinster","ISO3166-2-lvl5":"IE-L","country":"Ã‰ire / Ireland","country_code":"ie"},"population":588233,"osm_type":"relation","osm_id":1109531,"type":"administrative","location":[-6.2605593,53.3493795],"bbox":[-6.3870259,53.2987342,-6.1148829,53.4105416]}]}
{"name":"Galway","other_names":{"name:br":"Galliv","name:da":"Galway","name:en":"Galway","name:ga":"Gaillimh","name:gd":"A' Ghailmhinn","name:gv":"Galliu","name:he":"×’×•×œ×•×•×™","name:ko":"ê³¨ì›¨ì´","name:la":"Galvia","name:mk":"Ğ“Ğ¾Ğ»Ğ²ĞµÑ˜","name:ru":"Ğ“Ğ¾Ğ»ÑƒÑĞ¹","name:sr":"Ğ“Ğ¾Ğ»Ğ²ĞµÑ˜","name:ur":"Ú¯Ø§Ù„ÙˆØ¦Û’","alt_name:gd":"Baile na Gailmhinn;Gaillibh;Gaillimh"},"display_name":"Galway, Cathair na Gaillimhe, County Galway, Connacht, Ã‰ire / Ireland","address":{"city":"Galway","county":"County Galway","ISO3166-2-lvl6":"IE-G","region":"Connacht","ISO3166-2-lvl5":"IE-C","country":"Ã‰ire / Ireland","country_code":"ie"},"population":85910,"osm_type":"node","osm_id":582043319,"type":"city","location":[-9.0490601,53.2744122],"bbox":[-9.2090601,53.1144122,-8.8890601,53.4344122],"border":{"name":"Cathair na Gaillimhe","other_names":{"name:af":"Galway","name:ar":"ØºØ§Ù„ÙˆØ§ÙŠ","name:be":"Ğ“Ğ¾Ğ»ÑƒÑĞ¹","name:bg":"Ğ“Ğ¾Ğ»ÑƒĞµĞ¹","name:br":"Gaillimh","name:ca":"Galway","name:cs":"Galway","name:cy":"Galway","name:da":"Galway","name:de":"Galway","name:el":"Î“ÎºÏŒÎ»Î³Î¿Ï…ÎµÏŠ","name:en":"Galway","name:es":"Galway","name:et":"Galway","name:eu":"Galway","name:fa":"Ú¯Ø§Ù„ÙˆÛŒ","name:fi":"Galway","name:fo":"Galway","name:fr":"Galway","name:fy":"Galway","name:ga":"Cathair na Gaillimhe","name:gd":"Baile na Gailbhinn","name:gl":"Galway","name:gv":"Galliu","name:he":"×’×•×œ×•×•×™×™","name:hr":"Galway","name:hu":"Galway","name:hy":"Ô³Õ¸Õ¬Õ¸Ö‚Õ¥Õµ","name:id":"Galway","name:is":"Galway","name:it":"Galway","name:ja":"ã‚´ãƒ¼ãƒ«ã‚¦ã‚§ã‚¤","name:ka":"áƒ’áƒáƒšáƒ£áƒ”áƒ˜","name:ko":"ê³¨ì›¨ì´","name:la":"Galvia","name:li":"Galway","name:lt":"GolvÄ—jus","name:lv":"Golveja","name:ms":"Galway","name:mt":"Galway","name:na":"Galway","name:nl":"Galway (stad)","name:nn":"Galway","name:no":"Galway","name:os":"Ğ“Ğ¾Ğ»ÑƒÑĞ¹","name:pl":"Galway","name:pt":"Galway","name:ro":"Galway","name:ru":"Ğ“Ğ¾Ğ»ÑƒÑĞ¹","name:sh":"Galway","name:sk":"Galway (mesto)","name:sl":"Galway","name:sq":"Galway","name:sr":"Ğ“Ğ¾Ğ»Ğ²ĞµÑ˜","name:sv":"Galway","name:sw":"Galway","name:tg":"Ğ“Ğ¾Ğ»ÑƒÑĞ¹","name:th":"à¸à¸­à¸¥à¹€à¸§à¸¢à¹Œ","name:tr":"Galway","name:tt":"Ğ“Ğ¾Ğ»Ğ²ĞµĞ¹","name:uk":"Ğ“Ğ¾Ğ»Ğ²ĞµĞ¹","name:ur":"Ú¯Ø§Ù„ÙˆÛ’","name:vi":"Galway","name:zh":"æˆˆå°”éŸ¦","name:ang":"GalwÃ¦g","name:arz":"Ø¬Ø§Ù„ÙˆØ§Ù‰","name:ast":"Galway","name:ceb":"Galway City","name:diq":"Galway","name:frr":"Galway","name:hyw":"Ô¿Õ¡Õ¬Õ¸Ö‚Õ§Õµ","name:pms":"Galway","name:sco":"Galway","name:wuu":"æˆˆå°”éŸ¦","alt_name:en":"Galway City","alt_name:ga":"Gaillimh","alt_name:zh":"é«˜å¨","name:nds-nl":"Galway (Ierlaand)","name:mk":"Ğ“Ğ¾Ğ»Ğ²ĞµÑ˜","name:be-tarask":"Ğ“Ğ¾Ğ»ÑÑĞ¹","alt_name:gd":"Baile na Gailmhinn;Gaillibh;Gaillimh","alt":"Galway","alt:br":"Galliv","alt:ga":"Gaillimh","alt:gd":"A' Ghailmhinn","alt:he":"×’×•×œ×•×•×™","alt:ur":"Ú¯Ø§Ù„ÙˆØ¦Û’"},"display_name":"Cathair na Gaillimhe, County Galway, Connacht, Ã‰ire / Ireland","address":{"city":"Cathair na Gaillimhe","county":"County Galway","ISO3166-2-lvl6":"IE-G","region":"Connacht","ISO3166-2-lvl5":"IE-C","country":"Ã‰ire / Ireland","country_code":"ie"},"population":75529,"osm_type":"relation","osm_id":1390623,"type":"administrative","location":[-9.0490601,53.2744122],"bbox":[-9.1426901,53.2485189,-8.9548381,53.3197423]}}
{"name":"Kilkenny","other_names":{"name:en":"Kilkenny","name:ga":"Cill Chainnigh","name:gd":"Cill Chainnigh","name:gv":"Keeill Chennee","name:sr":"ĞšĞ¸Ğ»ĞºĞµĞ½Ğ¸"},"display_name":"Kilkenny, County Kilkenny, Leinster, Ã‰ire / Ireland","address":{"city":"Kilkenny","county":"County Kilkenny","ISO3166-2-lvl6":"IE-KK","region":"Leinster","ISO3166-2-lvl5":"IE-L","country":"Ã‰ire / Ireland","country_code":"ie"},"population":27184,"osm_type":"node","osm_id":428339466,"type":"city","location":[-7.2514438,52.6506255],"bbox":[-7.4114438,52.4906255,-7.0914438,52.8106255],"border":{"name":"County Kilkenny","other_names":{"name:ar":"Ù…Ù‚Ø§Ø·Ø¹Ø© ÙƒÙŠÙ„ÙƒÙŠÙ†ÙŠ","name:bg":"ĞšĞ¸Ğ»ĞºĞµĞ½Ğ¸","name:br":"Kontelezh Cill Chainnigh","name:ca":"Comtat de Kilkenny","name:cs":"HrabstvÃ­ Kilkenny","name:cy":"Swydd Kilkenny","name:da":"County Kilkenny","name:de":"County Kilkenny","name:en":"County Kilkenny","name:es":"Condado de Kilkenny","name:et":"Kilkenny krahvkond","name:eu":"Kilkenny konderria","name:fa":"Ø´Ù‡Ø±Ø³ØªØ§Ù† Ú©ÛŒÙ„Ú©Ù†ÛŒ","name:fi":"Kilkennyn kreivikunta","name:fr":"ComtÃ© de Kilkenny","name:ga":"Contae Chill Chainnigh","name:gd":"Contae Chill Chainnigh","name:gl":"Condado de Kilkenny","name:gv":"Coontae Cheeill Chennee","name:he":"××—×•×– ×§×™×œ×§× ×™","name:hu":"Kilkenny megye","name:it":"Contea di Kilkenny","name:ja":"ã‚­ãƒ«ã‚±ãƒ‹ãƒ¼çœŒ","name:ka":"áƒ™áƒ˜áƒšáƒ™áƒ”áƒœáƒ˜áƒ¡ áƒ¡áƒáƒ’áƒ áƒáƒ¤áƒ","name:kk":"ĞšĞ¸Ğ»ĞºĞµĞ½Ğ½Ğ¸","name:ko":"í‚¬ì¼€ë‹ˆì£¼","name:ku":"County Kilkenny","name:la":"Comitatus Kilkenniensis","name:lt":"Kilkenio grafystÄ—","name:mk":"ĞšĞ¸Ğ»ĞºĞµĞ½Ğ¸","name:nl":"County Kilkenny","name:nn":"County Kilkenny","name:no":"Kilkenny","name:pl":"Kilkenny","name:pt":"Condado de Kilkenny","name:ro":"Comitatul Kilkenny","name:ru":"ĞšĞ¸Ğ»ĞºĞµĞ½Ğ½Ğ¸","name:sk":"Kilkenny","name:sr":"ĞšĞ¸Ğ»ĞºĞµĞ½Ğ¸","name:sv":"Kilkenny","name:sw":"Wilaya ya Kilkenny","name:tg":"Ğ’Ğ¸Ğ»Ğ¾ÑÑ‚Ğ¸ ĞšĞ¸Ğ»ĞºĞµĞ½Ğ¸","name:tr":"Kilkenny KontluÄŸu","name:uk":"ĞšÑ–Ğ»ĞºĞµĞ½Ğ½Ñ–","name:ur":"Ú©Ø§Ø¤Ù†Ù¹ÛŒ Ú©Ù„Ú©ÛŒÙ†ÛŒ","name:zh":"åŸºçˆ¾è‚¯å°¼éƒ¡","name:ang":"CilcennyscÄ«r","name:ast":"CondÃ¡u de Kilkenny","name:frr":"Kilkenny","name:nan":"Kilkenny KÅ«n","name:pnb":"Ú©Ù„Ú©Ù†ÛŒ","name:sco":"Coontie Kilkenny","ISO3166-2":"IE-KK","official_name:en":"Kilkenny","official_name:ga":"Cill Chainnigh"},"display_name":"County Kilkenny, Leinster, Ã‰ire / Ireland","address":{"county":"County Kilkenny","ISO3166-2-lvl6":"IE-KK","region":"Leinster","ISO3166-2-lvl5":"IE-L","country":"Ã‰ire / Ireland","country_code":"ie"},"osm_type":"relation","osm_id":285980,"type":"administrative","location":[-7.188983092181514,52.5687098],"bbox":[-7.6739965,52.2428717,-6.9145611,52.8939351]}}
{"name":"Limerick","other_names":{"name:br":"Limnac'h","name:en":"Limerick","name:ga":"Luimneach","name:gd":"Luimneach","name:gv":"Limmeragh","name:ko":"ë¦¬ë¨¸ë¦­","name:la":"Limericum","name:mk":"Ğ›Ğ¸Ğ¼ĞµÑ€Ğ¸Ğº","name:ru":"Ğ›Ğ¸Ğ¼ĞµÑ€Ğ¸Ğº","name:sr":"Ğ›Ğ¸Ğ¼ĞµÑ€Ğ¸Ğº"},"display_name":"Limerick, County Limerick, Munster, Ã‰ire / Ireland","address":{"city":"Limerick","county":"County Limerick","ISO3166-2-lvl6":"IE-LK","region":"Munster","ISO3166-2-lvl5":"IE-M","country":"Ã‰ire / Ireland","country_code":"ie"},"population":58319,"osm_type":"node","osm_id":428339453,"type":"city","location":[-8.6301239,52.661252],"bbox":[-8.7901239,52.501252,-8.4701239,52.821252],"border":[{"name":"County Limerick","other_names":{"name:ar":"Ù…Ù‚Ø§Ø·Ø¹Ø© Ù„ÙŠÙ…Ø±ÙŠÙƒ","name:bg":"Ğ›Ğ¸Ğ¼ĞµÑ€Ğ¸Ğº","name:br":"Kontelezh Luimneach","name:ca":"Comtat de Limerick","name:cs":"HrabstvÃ­ Limerick","name:cy":"Swydd Limerick","name:da":"County Limerick","name:de":"County Limerick","name:en":"County Limerick","name:eo":"Graflando Limerick","name:es":"Condado de Limerick","name:et":"Limericki krahvkond","name:eu":"Limerick konderria","name:fa":"Ø´Ù‡Ø±Ø³ØªØ§Ù† Ù„ÛŒÙ…Ø±ÛŒÚ©","name:fi":"Limerickin kreivikunta","name:fr":"ComtÃ© de Limerick","name:ga":"Contae Luimnigh","name:gd":"Contae Luimnigh","name:gl":"Condado de Limerick","name:gv":"Coontae Limmeragh","name:he":"××—×•×– ×œ×™××¨×™×§","name:hu":"Limerick megye","name:ia":"Limerick","name:id":"County Limerick","name:it":"Contea di Limerick","name:ja":"ãƒªãƒ ãƒªãƒƒã‚¯çœŒ","name:ka":"áƒšáƒ˜áƒ›áƒ”áƒ áƒ˜áƒ™áƒ˜áƒ¡ áƒ¡áƒáƒ’áƒ áƒáƒ¤áƒ","name:ko":"ë¦¬ë¨¸ë¦­ì£¼","name:ku":"County Limerick","name:lt":"Limeriko grafystÄ—","name:mk":"Ğ›Ğ¸Ğ¼ĞµÑ€Ğ¸Ğº","name:ms":"Daerah Limerick","name:nn":"County Limerick","name:no":"Limerick","name:pl":"Limerick","name:pt":"Condado de Limerick","name:ro":"Comitatul Limerick","name:ru":"Ğ›Ğ¸Ğ¼ĞµÑ€Ğ¸Ğº","name:sh":"Limerick","name:sk":"Limerick","name:sr":"Ğ›Ğ¸Ğ¼ĞµÑ€Ğ¸Ğº","name:sv":"Limerick","name:sw":"Wilaya ya Limerick","name:tg":"Ğ’Ğ¸Ğ»Ğ¾ÑÑ‚Ğ¸ Ğ›Ğ¸Ğ¼ĞµÑ€Ğ¸Ğº","name:tr":"Limerick KontluÄŸu","name:uk":"Ğ›Ñ–Ğ¼ĞµÑ€Ğ¸Ğº","name:ur":"Ú©Ø§Ø¤Ù†Ù¹ÛŒ Ù„ÛŒÙ…Ø±Ú©","name:zh":"åˆ©é»˜é‡Œå…‹éƒ¡","name:ang":"LimericescÄ«r","name:ast":"CondÃ¡u de Limerick","name:ceb":"County Limerick","name:frr":"Limerick","name:nan":"Limerick KÅ«n","name:pnb":"Ù„Ù…Ø±Ú©","name:sco":"Coontie Limerick","ISO3166-2":"IE-LK","official_name:en":"Limerick","official_name:ga":"Luimneach"},"display_name":"County Limerick, Munster, Ã‰ire / Ireland","address":{"county":"County Limerick","ISO3166-2-lvl6":"IE-LK","region":"Munster","ISO3166-2-lvl5":"IE-M","country":"Ã‰ire / Ireland","country_code":"ie"},"osm_type":"relation","osm_id":334898,"type":"administrative","location":[-8.795834650292788,52.518831649999996],"bbox":[-9.3654305,52.2802035,-8.1563716,52.757379]},{"name":"Limerick","other_names":{"name:af":"Limerick","name:ar":"Ù„ÙŠÙ…Ø±ÙŠÙƒ","name:az":"Limerik","name:be":"Ğ›Ñ–Ğ¼ĞµÑ€Ñ‹Ğº","name:bg":"Ğ›Ğ¸Ğ¼ĞµÑ€Ğ¸Ğº","name:bn":"à¦²à¦¿à¦®à§‡à¦°à¦¿à¦•","name:br":"Luimneach","name:ca":"Limerick","name:cs":"Limerick","name:cy":"Limerick","name:da":"Limerick","name:de":"Limerick","name:el":"Î›Î¯Î¼ÎµÏÎ¹Îº","name:en":"Limerick","name:eo":"Limerick","name:es":"Limerick","name:et":"Limerick","name:eu":"Limerick","name:fa":"Ù„ÛŒÙ…Ø±Ú©","name:fi":"Limerick","name:fo":"Limerick","name:fr":"Limerick","name:fy":"Limmerik","name:ga":"Luimneach","name:gd":"Luimneach","name:gl":"Limerick","name:gv":"Limmeragh","name:he":"×œ×™××¨×™×§","name:hr":"Limerick","name:hu":"Limerick","name:hy":"Ô¼Õ«Õ´Õ¥Ö€Õ«Õ¯","name:ia":"Limerick","name:id":"Limerick","name:ie":"Limerick","name:io":"Limerick","name:is":"Limerick","name:it":"Limerick","name:ja":"ãƒªãƒ ãƒªãƒƒã‚¯","name:ka":"áƒšáƒ˜áƒ›áƒ”áƒ áƒ˜áƒ™áƒ˜","name:ko":"ë¦¬ë¨¸ë¦­","name:la":"Limericum","name:lt":"Limerikas","name:lv":"Limerika","name:ms":"Limerick","name:na":"Limerick","name:nl":"Limerick","name:nn":"Limerick","name:no":"Limerick","name:oc":"Limerick","name:os":"Ğ›Ğ¸Ğ¼ĞµÑ€Ğ¸Ğº","name:pl":"Limerick","name:pt":"Limerick","name:ro":"Limerick","name:ru":"Ğ›Ğ¸Ğ¼ĞµÑ€Ğ¸Ğº","name:sc":"Limerick","name:sh":"Limerick","name:sk":"Limerick","name:sl":"Limerick","name:sr":"Ğ›Ğ¸Ğ¼ĞµÑ€Ğ¸Ğº","name:sv":"Limerick","name:sw":"Limerick","name:th":"à¸¥à¸´à¹€à¸¡à¸­à¸£à¸´à¸","name:tr":"Limerick","name:tt":"Ğ›Ğ¸Ğ¼ĞµÑ€Ğ¸Ğº","name:uk":"Ğ›Ñ–Ğ¼ĞµÑ€Ğ¸Ğº","name:ur":"Ù„ÛŒÙ…Ø±Ú©","name:uz":"Limerik","name:vi":"Limerick","name:vo":"Luimneach","name:zh":"åˆ©é»˜é‡Œå…‹","name:ceb":"Luimneach","name:sco":"Limerick","name:war":"Limerick","name:mk":"Ğ›Ğ¸Ğ¼ĞµÑ€Ğ¸Ğº","alt:br":"Limnac'h"},"display_name":"Limerick, County Limerick, Munster, Ã‰ire / Ireland","address":{"city":"Limerick","county":"County Limerick","ISO3166-2-lvl6":"IE-LK","region":"Munster","ISO3166-2-lvl5":"IE-M","country":"Ã‰ire / Ireland","country_code":"ie"},"population":94192,"osm_type":"relation","osm_id":14043380,"type":"administrative","location":[-8.6301239,52.661252],"bbox":[-8.8070765,52.5721036,-8.4425444,52.757379]},{"name":"County Limerick","other_names":{"name:ar":"Ù…Ù‚Ø§Ø·Ø¹Ø© Ù„ÙŠÙ…Ø±ÙŠÙƒ","name:bg":"Ğ›Ğ¸Ğ¼ĞµÑ€Ğ¸Ğº","name:br":"Kontelezh Luimneach","name:ca":"Comtat de Limerick","name:cs":"HrabstvÃ­ Limerick","name:cy":"Swydd Limerick","name:da":"County Limerick","name:de":"County Limerick","name:en":"County Limerick","name:eo":"Graflando Limerick","name:es":"Condado de Limerick","name:et":"Limericki krahvkond","name:eu":"Limerick konderria","name:fa":"Ø´Ù‡Ø±Ø³ØªØ§Ù† Ù„ÛŒÙ…Ø±ÛŒÚ©","name:fi":"Limerickin kreivikunta","name:fr":"ComtÃ© de Limerick","name:ga":"Contae Luimnigh","name:gd":"Contae Luimnigh","name:gl":"Condado de Limerick","name:gv":"Coontae Limmeragh","name:he":"××—×•×– ×œ×™××¨×™×§","name:hu":"Limerick megye","name:ia":"Limerick","name:id":"County Limerick","name:it":"Contea di Limerick","name:ja":"ãƒªãƒ ãƒªãƒƒã‚¯çœŒ","name:ka":"áƒšáƒ˜áƒ›áƒ”áƒ áƒ˜áƒ™áƒ˜áƒ¡ áƒ¡áƒáƒ’áƒ áƒáƒ¤áƒ","name:ko":"ë¦¬ë¨¸ë¦­ì£¼","name:ku":"County Limerick","name:lt":"Limeriko grafystÄ—","name:mk":"Ğ›Ğ¸Ğ¼ĞµÑ€Ğ¸Ğº","name:ms":"Daerah Limerick","name:nl":"County Limerick","name:nn":"County Limerick","name:no":"Limerick","name:pl":"Limerick","name:pt":"Condado de Limerick","name:ro":"Comitatul Limerick","name:ru":"Ğ›Ğ¸Ğ¼ĞµÑ€Ğ¸Ğº","name:sh":"Limerick","name:sk":"Limerick","name:sr":"Ğ›Ğ¸Ğ¼ĞµÑ€Ğ¸Ğº","name:sv":"Limerick","name:sw":"Wilaya ya Limerick","name:tg":"Ğ’Ğ¸Ğ»Ğ¾ÑÑ‚Ğ¸ Ğ›Ğ¸Ğ¼ĞµÑ€Ğ¸Ğº","name:tr":"Limerick KontluÄŸu","name:uk":"Ğ›Ñ–Ğ¼ĞµÑ€Ğ¸Ğº","name:ur":"Ú©Ø§Ø¤Ù†Ù¹ÛŒ Ù„ÛŒÙ…Ø±Ú©","name:zh":"åˆ©é»˜é‡Œå…‹éƒ¡","name:ang":"LimericescÄ«r","name:ast":"CondÃ¡u de Limerick","name:ceb":"County Limerick","name:frr":"Limerick","name:nan":"Limerick KÅ«n","name:pnb":"Ù„Ù…Ø±Ú©","name:sco":"Coontie Limerick","ISO3166-2":"IE-LK","official_name:en":"Limerick","official_name:ga":"Luimneach"},"display_name":"County Limerick, Munster, Ã‰ire / Ireland","address":{"county":"County Limerick","ISO3166-2-lvl7":"IE-LK","ISO3166-2-lvl6":"IE-LK","region":"Munster","ISO3166-2-lvl5":"IE-M","country":"Ã‰ire / Ireland","country_code":"ie"},"osm_type":"relation","osm_id":4072666,"type":"administrative","location":[-8.854585286098791,52.4882688],"bbox":[-9.3654305,52.2802035,-8.1563716,52.6962947]}]}
{"name":"Waterford","other_names":{"name:af":"Waterford, Ierland","name:ar":"ÙˆØªØ±ÙÙˆØ±Ø¯","name:be":"ĞĞ¾Ñ‚ÑÑ€Ñ„Ğ°Ñ€Ğ´","name:bg":"Ğ£Ğ¾Ñ‚ÑŠÑ€Ñ„Ğ¾Ñ€Ğ´","name:br":"Port LÃ¡irge","name:ca":"Waterford","name:cs":"Waterford","name:cy":"Porth LÃ¡irge","name:da":"Waterford","name:de":"Waterford","name:el":"Î“Î¿Ï…ÏŒÏ„ÎµÏÏ†Î¿ÏÎ½Ï„","name:en":"Waterford","name:es":"Waterford","name:eu":"Waterford","name:fa":"ÙˆØ§ØªØ±ÙÙˆØ±Ø¯","name:fi":"Waterford","name:fo":"Waterford","name:fr":"Waterford","name:fy":"Waterford","name:ga":"Port LÃ¡irge","name:gd":"Port LÃ irge","name:gl":"Waterford","name:gv":"Purt Largey","name:hr":"Waterford","name:hu":"Waterford","name:hy":"ÕˆÖ‚Õ¸Õ©Õ¥Ö€Ö†Õ¸Ö€Õ¿","name:id":"Waterford","name:is":"Waterford","name:it":"Waterford","name:ja":"ã‚¦ã‚©ãƒ¼ã‚¿ãƒ¼ãƒ•ã‚©ãƒ¼ãƒ‰","name:ka":"áƒ£áƒáƒ¢áƒ”áƒ áƒ¤áƒáƒ áƒ“áƒ˜","name:ko":"ì›Œí„°í¼ë“œ","name:ku":"Waterford","name:la":"Waterfordia","name:lt":"Voterfordas","name:mk":"Ğ’Ğ¾Ñ‚ĞµÑ€Ñ„Ğ¾Ñ€Ğ´","name:nl":"Waterford","name:nn":"Waterford","name:no":"Waterford","name:pl":"Waterford","name:pt":"Waterford","name:ru":"Ğ£Ğ¾Ñ‚ĞµÑ€Ñ„Ğ¾Ñ€Ğ´","name:sh":"Waterford","name:sk":"Waterford","name:sr":"Ğ’Ğ¾Ñ‚ĞµÑ€Ñ„Ğ¾Ñ€Ğ´","name:sv":"Waterford","name:sw":"Waterford","name:tr":"Waterford","name:tt":"Ğ’Ğ¾Ñ‚ĞµÑ€Ñ„Ğ¾Ñ€Ğ´","name:uk":"Ğ’Ğ¾Ñ‚ĞµÑ€Ñ„Ğ¾Ñ€Ğ´","name:ur":"ÙˆØ§Ù¹Ø±ÙØ±Úˆ","name:vi":"Waterford","name:zh":"æ²ƒç‰¹ç¦å¾·","name:arz":"ÙˆØªØ±ÙÙˆØ±Ø¯","name:bar":"Waterford","name:ceb":"Waterford","name:diq":"Waterford","name:lmo":"Waterford","name:pms":"Waterford","name:sco":"Waterford","name:wuu":"æ²ƒç‰¹ç¦å¾·","name:be-tarask":"ĞĞ¾Ñ‚ÑÑ€Ñ„Ğ°Ñ€Ğ´"},"display_name":"Waterford, County Waterford, Munster, Ã‰ire / Ireland","address":{"city":"Waterford","county":"County Waterford","ISO3166-2-lvl6":"IE-WD","region":"Munster","ISO3166-2-lvl5":"IE-M","country":"Ã‰ire / Ireland","country_code":"ie"},"population":60079,"osm_type":"node","osm_id":52263292,"type":"city","location":[-7.1119081,52.2609997],"bbox":[-7.2719081,52.1009997,-6.9519081,52.4209997],"border":[{"name":"County Waterford","other_names":{"name:ar":"Ù…Ù‚Ø§Ø·Ø¹Ø© ÙˆØªØ±ÙÙˆØ±Ø¯","name:bg":"Ğ£Ğ¾Ñ‚ÑŠÑ€Ñ„Ğ¾Ñ€Ğ´","name:br":"Kontelezh Port LÃ¡irge","name:ca":"Comtat de Waterford","name:cs":"HrabstvÃ­ Waterford","name:cy":"Swydd Waterford","name:da":"County Waterford","name:de":"County Waterford","name:en":"County Waterford","name:es":"Condado de Waterford","name:et":"Waterfordi krahvkond","name:eu":"Waterford konderria","name:fa":"Ø´Ù‡Ø±Ø³ØªØ§Ù† ÙˆØ§ØªØ±ÙÙˆØ±Ø¯","name:fi":"Waterfordin kreivikunta","name:fr":"ComtÃ© de Waterford","name:ga":"Contae Phort LÃ¡irge","name:gd":"Contae Phort LÃ¡irge","name:gl":"Condado de Waterford","name:gv":"Coontae Phurt Largey","name:he":"××—×•×– ×•×•×˜×¨×¤×•×¨×“","name:hu":"Waterford megye","name:id":"County Waterford","name:it":"Contea di Waterford","name:ja":"ã‚¦ã‚©ãƒ¼ã‚¿ãƒ¼ãƒ•ã‚©ãƒ¼ãƒ‰çœŒ","name:ka":"áƒ£áƒáƒ¢áƒ”áƒ áƒ¤áƒáƒ áƒ“áƒ˜áƒ¡ áƒ¡áƒáƒ’áƒ áƒáƒ¤áƒ","name:ko":"ì›Œí„°í¼ë“œì£¼","name:lt":"Voterfordo grafystÄ—","name:mk":"Ğ’Ğ¾Ñ‚ĞµÑ€Ñ„Ğ¾Ñ€Ğ´","name:nl":"County Waterford","name:nn":"County Waterford","name:no":"Waterford","name:pl":"Waterford","name:pt":"Condado de Waterford","name:ro":"Comitatul Waterford","name:ru":"Ğ£Ğ¾Ñ‚ĞµÑ€Ñ„Ğ¾Ñ€Ğ´","name:sh":"Waterford","name:sk":"Waterford","name:sr":"Ğ’Ğ¾Ñ‚ĞµÑ€Ñ„Ğ¾Ñ€Ğ´","name:sv":"Waterford","name:sw":"Wilaya ya Waterford","name:tg":"Ğ’Ğ¸Ğ»Ğ¾ÑÑ‚Ğ¸ Ğ£Ğ¾Ñ‚ĞµÑ€Ñ„Ğ¾Ñ€Ğ´","name:tr":"Waterford KontluÄŸu","name:uk":"Ğ’Ğ¾Ñ‚ĞµÑ€Ñ„Ğ¾Ñ€Ğ´","name:ur":"Ú©Ø§Ø¤Ù†Ù¹ÛŒ ÙˆØ§Ù¹Ø±ÙØ±Úˆ","name:zh":"æ²ƒç‰¹ç¦å¾·éƒ¡","name:ang":"WedrafordscÄ«r","name:ast":"CondÃ¡u de Waterford","name:bar":"County Waterford","name:ceb":"Waterford","name:frr":"Waterford","name:nan":"Waterford KÅ«n","name:pnb":"ÙˆØ§Ù¹Ø±ÙÙˆØ±Úˆ","name:sco":"Coontie Waterford","name:wuu":"æ²ƒç‰¹ç¦å¾·éƒ¡","ISO3166-2":"IE-WD","official_name:en":"Waterford","official_name:ga":"Port LÃ¡irge"},"display_name":"County Waterford, Munster, Ã‰ire / Ireland","address":{"county":"County Waterford","ISO3166-2-lvl6":"IE-WD","region":"Munster","ISO3166-2-lvl5":"IE-M","country":"Ã‰ire / Ireland","country_code":"ie"},"osm_type":"relation","osm_id":283426,"type":"administrative","location":[-7.657798180652727,52.1509131],"bbox":[-8.1627834,51.9379197,-6.949942,52.3639037]},{"name":"Waterford","other_names":{"name:ar":"ÙˆØªØ±ÙÙˆØ±Ø¯","name:be":"ĞĞ¾Ñ‚ÑÑ€Ñ„Ğ°Ñ€Ğ´","name:de":"Waterford","name:el":"Î“Î¿Ï…ÏŒÏ„ÎµÏÏ†Î¿ÏÎ½Ï„","name:en":"Waterford","name:es":"Waterford","name:fa":"ÙˆØ§ØªØ±ÙÙˆØ±Ø¯","name:fr":"Waterford","name:ga":"Port LÃ¡irge","name:hy":"ÕˆÖ‚Õ¸Õ©Õ¥Ö€Ö†Õ¸Ö€Õ¿","name:ru":"Ğ£Ğ¾Ñ‚ĞµÑ€Ñ„Ğ¾Ñ€Ğ´","name:sr":"Ğ’Ğ¾Ñ‚ĞµÑ€Ñ„Ğ¾Ñ€Ğ´","name:tt":"Ğ’Ğ¾Ñ‚ĞµÑ€Ñ„Ğ¾Ñ€Ğ´","name:uk":"Ğ’Ğ¾Ñ‚ĞµÑ€Ñ„Ğ¾Ñ€Ğ´","name:ur":"ÙˆØ§Ù¹Ø±ÙØ±Úˆ","name:af":"Waterford, Ierland","name:bg":"Ğ£Ğ¾Ñ‚ÑŠÑ€Ñ„Ğ¾Ñ€Ğ´","name:br":"Port LÃ¡irge","name:ca":"Waterford","name:cs":"Waterford","name:cy":"Porth LÃ¡irge","name:da":"Waterford","name:eu":"Waterford","name:fi":"Waterford","name:fo":"Waterford","name:fy":"Waterford","name:gd":"Port LÃ irge","name:gl":"Waterford","name:gv":"Purt Largey","name:hr":"Waterford","name:hu":"Waterford","name:id":"Waterford","name:is":"Waterford","name:it":"Waterford","name:ja":"ã‚¦ã‚©ãƒ¼ã‚¿ãƒ¼ãƒ•ã‚©ãƒ¼ãƒ‰","name:ka":"áƒ£áƒáƒ¢áƒ”áƒ áƒ¤áƒáƒ áƒ“áƒ˜","name:ko":"ì›Œí„°í¼ë“œ","name:ku":"Waterford","name:la":"Waterfordia","name:lt":"Voterfordas","name:mk":"Ğ’Ğ¾Ñ‚ĞµÑ€Ñ„Ğ¾Ñ€Ğ´","name:nl":"Waterford","name:nn":"Waterford","name:no":"Waterford","name:pl":"Waterford","name:pt":"Waterford","name:sh":"Waterford","name:sk":"Waterford","name:sv":"Waterford","name:sw":"Waterford","name:tr":"Waterford","name:vi":"Waterford","name:zh":"æ²ƒç‰¹ç¦å¾·","name:be-tarask":"ĞĞ¾Ñ‚ÑÑ€Ñ„Ğ°Ñ€Ğ´","name:arz":"ÙˆØªØ±ÙÙˆØ±Ø¯","name:bar":"Waterford","name:ceb":"Waterford","name:diq":"Waterford","name:lmo":"Waterford","name:pms":"Waterford","name:sco":"Waterford","name:wuu":"æ²ƒç‰¹ç¦å¾·"},"display_name":"Waterford, County Waterford, Munster, Ã‰ire / Ireland","address":{"city":"Waterford","county":"County Waterford","ISO3166-2-lvl6":"IE-WD","region":"Munster","ISO3166-2-lvl5":"IE-M","country":"Ã‰ire / Ireland","country_code":"ie"},"population":40300,"osm_type":"relation","osm_id":1645570,"type":"administrative","location":[-7.1119081,52.2609997],"bbox":[-7.1869522,52.2102427,-7.0338797,52.2798229]}]}
