{"name":"'s-Hertogenbosch","other_names":{"name:ar":"سيرتوخيمبوس","name:de":"Herzogenbusch","name:eo":"Boso","name:es":"Bolduque","name:fr":"Bois-le-Duc","name:fy":"De Bosk","name:id":"Den Bosch","name:ja":"スヘルトーヘンボス","name:la":"Silva Ducis","name:li":"De Bósj","name:lt":"Hertogenbosas","name:mk":"Хертогенбос","name:ml":"സെർട്ടോഗെംബൊസ്","name:nl":"'s-Hertogenbosch","name:ru":"Хертогенбос","name:sr":"Хертогенбос","name:uk":"Гертогенбос","name:zh":"斯海尔托亨博斯","alt_name":"Den Bosch","name:nds":"Den Bosch","name:pcd":"Boé-el-Duc","alt_name:ja":"デン・ボス","name:carnaval":"Oeteldonk"},"display_name":"'s-Hertogenbosch, Noord-Brabant, Nederland","address":{"city":"'s-Hertogenbosch","municipality":"'s-Hertogenbosch","state":"Noord-Brabant","ISO3166-2-lvl4":"NL-NB","country":"Nederland","country_code":"nl"},"population":115903,"osm_type":"node","osm_id":60400458,"type":"city","location":[5.303116,51.6889387],"bbox":[5.143116,51.5289387,5.463116,51.8489387],"border":[{"name":"'s-Hertogenbosch","other_names":{"name:de":"Herzogenbusch","name:eo":"Boso","name:es":"Bolduque","name:fr":"Bois-le-Duc","name:nl":"'s-Hertogenbosch","alt_name":"Den Bosch","name:pcd":"Boé-el-Duc"},"display_name":"'s-Hertogenbosch, Noord-Brabant, Nederland","address":{"municipality":"'s-Hertogenbosch","state":"Noord-Brabant","ISO3166-2-lvl4":"NL-NB","country":"Nederland","country_code":"nl"},"population":158753,"osm_type":"relation","osm_id":162800,"type":"administrative","location":[5.356424617750264,51.7143156],"bbox":[5.2064942,51.6639966,5.4996561,51.7650303]},{"name":"'s-Hertogenbosch","other_names":{"name:de":"Herzogenbusch","name:eo":"Boso","name:es":"Bolduque","name:fr":"Bois-le-Duc","name:nl":"'s-Hertogenbosch","alt_name":"Den Bosch","name:ar":"سيرتوخيمبوس","name:fy":"De Bosk","name:id":"Den Bosch","name:ja":"スヘルトーヘンボス","name:la":"Silva Ducis","name:li":"De Bósj","name:lt":"Hertogenbosas","name:mk":"Хертогенбос","name:ml":"സെർട്ടോഗെംബൊസ്","name:ru":"Хертогенбос","name:sr":"Хертогенбос","name:uk":"Гертогенбос","name:zh":"斯海尔托亨博斯","name:nds":"Den Bosch","name:pcd":"Boé-el-Duc","alt_name:ja":"デン・ボス","name:carnaval":"Oeteldonk"},"display_name":"'s-Hertogenbosch, Noord-Brabant, Nederland","address":{"city":"'s-Hertogenbosch","municipality":"'s-Hertogenbosch","state":"Noord-Brabant","ISO3166-2-lvl4":"NL-NB","country":"Nederland","country_code":"nl"},"population":108780,"osm_type":"relation","osm_id":162798,"type":"administrative","location":[5.303116,51.6889387],"bbox":[5.2064942,51.6639966,5.3822104,51.7557341]}]}
{"name":"Alkmaar","other_names":{"name:ar":"ألكمار","name:en":"Alkmaar","name:eo":"Alkmaro","name:fa":"آلکمار","name:fy":"Alkmar","name:hu":"Alkmaar","name:la":"Alcmaria","name:lt":"Alkmaras","name:ml":"അൽക്മാർ","name:nl":"Alkmaar","name:pt":"Alkmaar","name:ru":"Алкмар","name:uk":"Алкмар","name:ur":"الکمار","name:zh":"阿尔克马尔","name:ckb":"ئەڵکمار"},"display_name":"Alkmaar, Noord-Holland, Nederland","address":{"city":"Alkmaar","municipality":"Alkmaar","state":"Noord-Holland","ISO3166-2-lvl4":"NL-NH","country":"Nederland","country_code":"nl"},"population":96460,"osm_type":"node","osm_id":3474142743,"type":"city","location":[4.7503798,52.6312592],"bbox":[4.5903798,52.4712592,4.9103798,52.7912592],"border":[{"name":"Alkmaar","other_names":{"name:ar":"ألكمار","name:eo":"Alkmaro","name:fa":"آلکمار","name:fy":"Alkmar","name:la":"Alcmaria","name:nl":"Alkmaar","name:ur":"الکمار","name:ckb":"ئەڵکمار"},"display_name":"Alkmaar, Noord-Holland, Nederland","address":{"municipality":"Alkmaar","state":"Noord-Holland","ISO3166-2-lvl4":"NL-NH","country":"Nederland","country_code":"nl"},"population":111834,"osm_type":"relation","osm_id":337391,"type":"administrative","location":[4.817099446443963,52.600853799999996],"bbox":[4.7082758,52.5191642,4.9269255,52.6824752]},{"name":"Alkmaar","other_names":{"name:eo":"Alkmaro","name:la":"Alcmaria","name:nl":"Alkmaar","name:ar":"ألكمار","name:en":"Alkmaar","name:fa":"آلکمار","name:fy":"Alkmar","name:hu":"Alkmaar","name:lt":"Alkmaras","name:ml":"അൽക്മാർ","name:pt":"Alkmaar","name:ru":"Алкмар","name:uk":"Алкмар","name:ur":"الکمار","name:zh":"阿尔克马尔","name:ckb":"ئەڵکمار"},"display_name":"Alkmaar, Noord-Holland, Nederland","address":{"city":"Alkmaar","municipality":"Alkmaar","state":"Noord-Holland","ISO3166-2-lvl4":"NL-NH","country":"Nederland","country_code":"nl"},"population":96460,"osm_type":"relation","osm_id":337394,"type":"administrative","location":[4.7503798,52.6312592],"bbox":[4.7082758,52.5915683,4.8006375,52.6757918]}]}
{"name":"Almere","other_names":{"name:ar":"آلميره","name:el":"Αλμέρε","name:fa":"آلمیره","name:fy":"Almeare","name:la":"Almeria","name:lt":"Almerė","name:ml":"അൽമേറ","name:nl":"Almere","name:ru":"Алмере","name:sr":"Алмере","name:uk":"Алмере","name:ur":"المیرا","name:pnb":"المیر","name:carnaval":"Moddergat"},"display_name":"Almere, Flevoland, Nederland","address":{"city":"Almere","state":"Flevoland","ISO3166-2-lvl4":"NL-FL","country":"Nederland","country_code":"nl"},"population":207904,"osm_type":"node","osm_id":5731324538,"type":"city","location":[5.2185859,52.3705038],"bbox":[5.0585859,52.2105038,5.3785859,52.5305038],"border":[{"name":"Almere","other_names":{"name:ar":"آلميره","name:fa":"آلمیره","name:la":"Almeria","name:nl":"Almere","name:ur":"المیرا","name:pnb":"المیر","name:el":"Αλμέρε","name:fy":"Almeare","name:lt":"Almerė","name:ml":"അൽമേറ","name:ru":"Алмере","name:sr":"Алмере","name:uk":"Алмере","name:carnaval":"Moddergat"},"display_name":"Almere, Flevoland, Nederland","address":{"city":"Almere","state":"Flevoland","ISO3166-2-lvl4":"NL-FL","country":"Nederland","country_code":"nl"},"population":222825,"osm_type":"relation","osm_id":409764,"type":"administrative","location":[5.2185859,52.3705038],"bbox":[5.0604282,52.3023922,5.3792111,52.5836665]},{"name":"Almere","other_names":{"name:la":"Almeria","name:nl":"Almere"},"display_name":"Almere, Flevoland, Nederland","address":{"administrative":"Almere","state":"Flevoland","ISO3166-2-lvl4":"NL-FL","country":"Nederland","country_code":"nl"},"osm_type":"relation","osm_id":272917,"type":"administrative","location":[5.2092943104327585,52.44175125],"bbox":[5.0604282,52.3023922,5.3792111,52.5836665]}]}
{"name":"Amersfoort","other_names":{"name:el":"Αμερσφόρτ","name:fy":"Amersfoart","name:lt":"Amersfortas","name:ml":"ആമർസ്ഫോർട്ട്","name:nl":"Amersfoort","name:ru":"Амерсфорт","name:sr":"Амерсфорт","name:uk":"Амерсфорт","name:zh":"阿默斯福特","name:carnaval":"Trekkersgat"},"display_name":"Amersfoort, Utrecht, Nederland","address":{"city":"Amersfoort","state":"Utrecht","ISO3166-2-lvl4":"NL-UT","country":"Nederland","country_code":"nl"},"population":145699,"osm_type":"node","osm_id":667889917,"type":"city","location":[5.3896944,52.1562499],"bbox":[5.2296944,51.9962499,5.5496944,52.3162499],"border":[{"name":"Amersfoort","other_names":{"name:eo":"Amersforto","name:nl":"Amersfoort","name:el":"Αμερσφόρτ","name:fy":"Amersfoart","name:lt":"Amersfortas","name:ml":"ആമർസ്ഫോർട്ട്","name:ru":"Амерсфорт","name:sr":"Амерсфорт","name:uk":"Амерсфорт","name:zh":"阿默斯福特","name:carnaval":"Trekkersgat"},"display_name":"Amersfoort, Utrecht, Nederland","address":{"city":"Amersfoort","state":"Utrecht","ISO3166-2-lvl4":"NL-UT","country":"Nederland","country_code":"nl"},"population":160759,"osm_type":"relation","osm_id":419152,"type":"administrative","location":[5.3896944,52.1562499],"bbox":[5.3064587,52.1083844,5.4843297,52.2191539]},{"name":"Amersfoort","other_names":{"name:eo":"Amersforto","name:nl":"Amersfoort","name:el":"Αμερσφόρτ","name:fy":"Amersfoart","name:lt":"Amersfortas","name:ml":"ആമർസ്ഫോർട്ട്","name:ru":"Амерсфорт","name:sr":"Амерсфорт","name:uk":"Амерсфорт","name:zh":"阿默斯福特","name:carnaval":"Trekkersgat"},"display_name":"Amersfoort, Utrecht, Nederland","address":{"city":"Amersfoort","state":"Utrecht","ISO3166-2-lvl4":"NL-UT","country":"Nederland","country_code":"nl"},"population":145699,"osm_type":"relation","osm_id":144642,"type":"administrative","location":[5.3896944,52.1562499],"bbox":[5.3064587,52.1083844,5.4799224,52.2191539]}]}
{"name":"Amsterdam","other_names":{"name:am":"አምስተርዳም","name:ar":"أمستردام","name:as":"আমষ্টাৰডাম","name:av":"Амстердам","name:ba":"Амстердам","name:be":"Амстэрдам","name:bg":"Амстердам","name:bh":"एम्सटर्डम","name:bn":"আমস্টারডাম","name:bo":"ཨེམ་སི་ཊར་ཌམ།","name:br":"Amsterdam","name:ca":"Amsterdam","name:ce":"Амстердам","name:cu":"Амстєрдамъ","name:cv":"Амстердам","name:de":"Amsterdam","name:el":"Αμστελόδαμο","name:en":"Amsterdam","name:eo":"Amsterdamo","name:es":"Ámsterdam","name:fa":"آمستردام","name:fr":"Amsterdam","name:ga":"Amstardam","name:gl":"Ámsterdam","name:he":"אמסטרדם","name:hi":"ऐम्स्टर्डैम","name:ht":"Amstèdam","name:hu":"Amszterdam","name:hy":"Ամստերդամ","name:is":"Amsterdam","name:it":"Amsterdam","name:ja":"アムステルダム","name:ka":"ამსტერდამი","name:kk":"Амстердам","name:kn":"ಆಂಸ್ಟರ್ಡ್ಯಾಮ್","name:ko":"암스테르담","name:ku":"Amsterdam","name:kv":"Амстердам","name:ky":"Амстердам","name:la":"Amstelodamum","name:lo":"ອຳສະເຕີດຳ","name:lt":"Amsterdamas","name:lv":"Amsterdama","name:mi":"Amaterama","name:mk":"Амстердам","name:ml":"ആംസ്റ്റർഡാം","name:mn":"Амстердам","name:mr":"अ‍ॅम्स्टरडॅम","name:my":"အမ်စတာဒမ်မြို့","name:ne":"आम्स्टर्डम","name:nl":"Amsterdam","name:no":"Amsterdam","name:nv":"Tóígeed Łání","name:oc":"Amsterdam","name:or":"ଆମଷ୍ଟରଡ଼୍ୟାମ","name:os":"Амстердам","name:pa":"ਅਮਸਤੱਰਦਮ","name:pl":"Amsterdam","name:ps":"امسټرډام","name:pt":"Amsterdão","name:ro":"Amsterdam","name:ru":"Амстердам","name:sd":"ايمسٽرڊيم","name:si":"ඈම්ස්ටර්ඩෑම්","name:sk":"Amsterdam","name:sl":"Amsterdam","name:so":"Amistardam","name:sq":"Amsterdami","name:sr":"Амстердам","name:sv":"Amsterdam","name:ta":"ஆம்ஸ்டர்டம்","name:te":"ఆమ్‌స్టర్‌డ్యామ్","name:tg":"Амстердам","name:th":"อัมสเตอร์ดัม","name:ti":"ኣምስተርዳም","name:to":"ʻAmisetami","name:tr":"Amsterdam","name:tt":"Амстердам","name:ug":"ئامستېردام","name:uk":"Амстердам","name:ur":"ایمسٹرڈیم","name:wa":"Misterdam","name:yi":"אמסטערדאם","name:zh":"阿姆斯特丹","name:zu":"I-Amsterdami","loc_name":"Mokum","name:arc":"ܐܡܣܛܪܕܐܡ","name:arz":"امستردام","name:ast":"Ámsterdam","name:azb":"آمستردام","name:ckb":"ئەمستەردام","name:ext":"Ámsterdam","name:grc":"Ἀμστελόδαμον","name:hsb":"Amsterdam","name:koi":"Амстердам","name:krc":"Амстердам","name:lzh":"阿姆斯特丹","name:mdf":"Амстердам","name:mrj":"Амстердам","name:nds":"Amsterdam","name:new":"एम्स्टर्ड्याम","name:pms":"Àmsterdam","name:pnb":"ایمسٹرڈیم","name:rue":"Амстердам","name:sah":"Амстердам","name:srn":"Damsko","name:syc":"ܐܡܣܛܪܕܐܡ","name:tok":"ma tomo Ansetan","name:udm":"Амстердам","name:yue":"阿姆斯特丹","name:pt-BR":"Amsterdã","alt_name:el":"Άμστερνταμ","alt_name:gl":"Ámsterdan","name:bat-smg":"Amsterdams","name:be-tarask":"Амстэрдам","name:nl-x-straat":"Damsko","name:nl-x-straat:etymology":"Leenwoord uit het Surinaams."},"display_name":"Amsterdam, Noord-Holland, Nederland","address":{"city":"Amsterdam","municipality":"Amsterdam","state":"Noord-Holland","ISO3166-2-lvl4":"NL-NH","country":"Nederland","country_code":"nl"},"population":881933,"osm_type":"node","osm_id":268396336,"type":"city","location":[4.8924534,52.3730796],"bbox":[4.7324534,52.2130796,5.0524534,52.5330796],"border":[{"name":"Amsterdam","other_names":{"name:ca":"Amsterdam","name:de":"Amsterdam","name:el":"Άμστερνταμ","name:en":"Amsterdam","name:fr":"Amsterdam","name:hi":"एम्स्टर्डम","name:hu":"Amszterdam","name:ko":"암스테르담","name:nl":"Amsterdam","name:pt":"Amsterdão","name:sr":"Амстердам","name:ur":"ایمسٹرڈیم","name:azb":"آمستردام","name:grc":"Ἀμστελόδαμον","name:hsb":"Amsterdam","name:syc":"ܐܡܣܛܪܕܐܡ"},"display_name":"Amsterdam, Noord-Holland, Nederland","address":{"municipality":"Amsterdam","state":"Noord-Holland","ISO3166-2-lvl4":"NL-NH","country":"Nederland","country_code":"nl"},"population":918117,"osm_type":"relation","osm_id":47811,"type":"administrative","location":[4.897975505617977,52.37454030000001],"bbox":[4.7287776,52.2779766,5.1076933,52.4310638]},{"name":"Amsterdam","other_names":{"name:ar":"Amstardām","name:cs":"Amsterodam","name:de":"Amsterdam","name:el":"Άμστερνταμ","name:fr":"Amsterdam","name:ga":"Amstardam","name:hu":"Amszterdam","name:ja":"アムステルダム","name:nl":"Amsterdam","name:pt":"Amesterdão","name:sr":"Амстердам","name:ur":"ایمسٹرڈیم","name:zh":"阿姆斯特丹","loc_name":"Mokum","name:azb":"آمستردام","name:grc":"Ἀμστελόδαμον","name:hsb":"Amsterdam","name:syc":"ܐܡܣܛܪܕܐܡ","name:am":"አምስተርዳም","name:as":"আমষ্টাৰডাম","name:av":"Амстердам","name:ba":"Амстердам","name:be":"Амстэрдам","name:bg":"Амстердам","name:bh":"एम्सटर्डम","name:bn":"আমস্টারডাম","name:bo":"ཨེམ་སི་ཊར་ཌམ།","name:br":"Amsterdam","name:ca":"Amsterdam","name:ce":"Амстердам","name:cu":"Амстєрдамъ","name:cv":"Амстердам","name:en":"Amsterdam","name:eo":"Amsterdamo","name:es":"Ámsterdam","name:fa":"آمستردام","name:gl":"Ámsterdam","name:he":"אמסטרדם","name:hi":"ऐम्स्टर्डैम","name:ht":"Amstèdam","name:hy":"Ամստերդամ","name:is":"Amsterdam","name:it":"Amsterdam","name:ka":"ამსტერდამი","name:kk":"Амстердам","name:kn":"ಆಂಸ್ಟರ್ಡ್ಯಾಮ್","name:ko":"암스테르담","name:ku":"Amsterdam","name:kv":"Амстердам","name:ky":"Амстердам","name:la":"Amstelodamum","name:lo":"ອຳສະເຕີດຳ","name:lt":"Amsterdamas","name:lv":"Amsterdama","name:mi":"Amaterama","name:mk":"Амстердам","name:ml":"ആംസ്റ്റർഡാം","name:mn":"Амстердам","name:mr":"अ‍ॅम्स्टरडॅम","name:my":"အမ်စတာဒမ်မြို့","name:ne":"आम्स्टर्डम","name:no":"Amsterdam","name:nv":"Tóígeed Łání","name:oc":"Amsterdam","name:or":"ଆମଷ୍ଟରଡ଼୍ୟାମ","name:os":"Амстердам","name:pa":"ਅਮਸਤੱਰਦਮ","name:pl":"Amsterdam","name:ps":"امسټرډام","name:ro":"Amsterdam","name:ru":"Амстердам","name:sd":"ايمسٽرڊيم","name:si":"ඈම්ස්ටර්ඩෑම්","name:sk":"Amsterdam","name:sl":"Amsterdam","name:so":"Amistardam","name:sq":"Amsterdami","name:sv":"Amsterdam","name:ta":"ஆம்ஸ்டர்டம்","name:te":"ఆమ్‌స్టర్‌డ్యామ్","name:tg":"Амстердам","name:th":"อัมสเตอร์ดัม","name:ti":"ኣምስተርዳም","name:to":"ʻAmisetami","name:tr":"Amsterdam","name:tt":"Амстердам","name:ug":"ئامستېردام","name:uk":"Амстердам","name:wa":"Misterdam","name:yi":"אמסטערדאם","name:zu":"I-Amsterdami","name:arc":"ܐܡܣܛܪܕܐܡ","name:arz":"امستردام","name:ast":"Ámsterdam","name:ckb":"ئەمستەردام","name:ext":"Ámsterdam","name:koi":"Амстердам","name:krc":"Амстердам","name:lzh":"阿姆斯特丹","name:mdf":"Амстердам","name:mrj":"Амстердам","name:nds":"Amsterdam","name:new":"एम्स्टर्ड्याम","name:pms":"Àmsterdam","name:pnb":"ایمسٹرڈیم","name:rue":"Амстердам","name:sah":"Амстердам","name:srn":"Damsko","name:tok":"ma tomo Ansetan","name:udm":"Амстердам","name:yue":"阿姆斯特丹","name:pt-BR":"Amsterdã","alt_name:el":"Άμστερνταμ","alt_name:gl":"Ámsterdan","name:bat-smg":"Amsterdams","name:be-tarask":"Амстэрдам","name:nl-x-straat":"Damsko","name:nl-x-straat:etymology":"Leenwoord uit het Surinaams.","alt:ar":"أمستردام","alt:el":"Αμστελόδαμο","alt:pt":"Amsterdão"},"display_name":"Amsterdam, Noord-Holland, Nederland","address":{"city":"Amsterdam","municipality":"Amsterdam","state":"Noord-Holland","ISO3166-2-lvl4":"NL-NH","country":"Nederland","country_code":"nl"},"population":881933,"osm_type":"relation","osm_id":271110,"type":"administrative","location":[4.8924534,52.3730796],"bbox":[4.7287776,52.2781742,5.0791622,52.4310638]}]}
{"name":"Apeldoorn","other_names":{"name:de":"Apeldorn","name:eo":"Apeldorno","name:fy":"Apeldoarn","name:la":"Appoldro","name:ml":"ആപ്പൽഡോൺ","name:nl":"Apeldoorn","name:ru":"Апелдорн","name:sr":"Апелдорн","name:uk":"Апелдорн","name:nds":"Apeldoorne","name:nds-nl":"Apeldoorne","name:zh-Hans":"阿珀尔多伦","name:zh-Hant":"阿珀爾多倫","name:carnaval":"Knienenburg"},"display_name":"Apeldoorn, Gelderland, Nederland","address":{"city":"Apeldoorn","municipality":"Apeldoorn","state":"Gelderland","ISO3166-2-lvl4":"NL-GE","country":"Nederland","country_code":"nl"},"population":141107,"osm_type":"node","osm_id":216244216,"type":"city","location":[5.9639485,52.2156457],"bbox":[5.8039485,52.0556457,6.1239485,52.3756457],"border":[{"name":"Apeldoorn","other_names":{"name:eo":"Apeldorno","name:la":"Appoldro","name:nl":"Apeldoorn"},"display_name":"Apeldoorn, Gelderland, Nederland","address":{"municipality":"Apeldoorn","state":"Gelderland","ISO3166-2-lvl4":"NL-GE","country":"Nederland","country_code":"nl"},"population":167191,"osm_type":"relation","osm_id":417457,"type":"administrative","location":[5.930077460807249,52.17957375],"bbox":[5.7263889,52.0733386,6.0784842,52.2856694]},{"name":"Apeldoorn","other_names":{"name:eo":"Apeldorno","name:la":"Appoldro","name:nl":"Apeldoorn","name:de":"Apeldorn","name:fy":"Apeldoarn","name:ml":"ആപ്പൽഡോൺ","name:ru":"Апелдорн","name:sr":"Апелдорн","name:uk":"Апелдорн","name:nds":"Apeldoorne","name:nds-nl":"Apeldoorne","name:zh-Hans":"阿珀尔多伦","name:zh-Hant":"阿珀爾多倫","name:carnaval":"Knienenburg"},"display_name":"Apeldoorn, Gelderland, Nederland","address":{"city":"Apeldoorn","municipality":"Apeldoorn","state":"Gelderland","ISO3166-2-lvl4":"NL-GE","country":"Nederland","country_code":"nl"},"population":141107,"osm_type":"relation","osm_id":2713150,"type":"administrative","location":[5.9639485,52.2156457],"bbox":[5.8926319,52.172638,6.058251,52.2502616]}]}
{"name":"Arnhem","other_names":{"name:ar":"أرنهيم","name:de":"Arnheim","name:en":"Arnhem","name:es":"Arnhem","name:fr":"Arnhem","name:fy":"Arnhim","name:he":"ארנהם","name:ja":"アーネム","name:la":"Arenacum","name:lt":"Arnhemas","name:ml":"അർനെം","name:nl":"Arnhem","name:ru":"Арнем","name:sr":"Арнем","name:uk":"Арнем","name:nds":"Arnem","name:zh-Hans":"阿纳姆","name:zh-Hant":"阿納姆"},"display_name":"Arnhem, Gelderland, Nederland","address":{"city":"Arnhem","state":"Gelderland","ISO3166-2-lvl4":"NL-GE","country":"Nederland","country_code":"nl"},"population":155694,"osm_type":"node","osm_id":6394641551,"type":"city","location":[5.9108573,51.984257],"bbox":[5.7508573,51.824257,6.0708573,52.144257],"border":[{"name":"Arnhem","other_names":{"name:bg":"Арнхем","name:de":"Arnheim","name:eo":"Arnhemo","name:fy":"Arnhim","name:ja":"アルネム","name:nl":"Arnhem","name:ar":"أرنهيم","name:en":"Arnhem","name:es":"Arnhem","name:fr":"Arnhem","name:he":"ארנהם","name:la":"Arenacum","name:lt":"Arnhemas","name:ml":"അർനെം","name:ru":"Арнем","name:sr":"Арнем","name:uk":"Арнем","name:nds":"Arnem","name:zh-Hans":"阿纳姆","name:zh-Hant":"阿納姆","alt:ja":"アーネム"},"display_name":"Arnhem, Gelderland, Nederland","address":{"city":"Arnhem","state":"Gelderland","ISO3166-2-lvl4":"NL-GE","country":"Nederland","country_code":"nl"},"population":165770,"osm_type":"relation","osm_id":418700,"type":"administrative","location":[5.9108573,51.984257],"bbox":[5.8029606,51.9334642,5.9903401,52.0778905]},{"name":"Arnhem","other_names":{"name:eo":"Arnhemo","name:nl":"Arnhem"},"display_name":"Arnhem, Gelderland, Nederland","address":{"administrative":"Arnhem","state":"Gelderland","ISO3166-2-lvl4":"NL-GE","country":"Nederland","country_code":"nl"},"osm_type":"relation","osm_id":272939,"type":"administrative","location":[5.8762345077641305,52.0056642],"bbox":[5.8029606,51.9334642,5.9903401,52.0778905]}]}
{"name":"Assen","other_names":{"name:ar":"أسن","name:de":"Assen","name:en":"Assen","name:es":"Assen","name:fr":"Assen","name:ja":"アッセン","name:ml":"അസൻ","name:nl":"Assen","name:ru":"Ассен","name:sr":"Асен","name:uk":"Ассен","name:zh-Hans":"阿森","name:zh-Hant":"阿森","name:carnaval":"Pitlo"},"display_name":"Assen, Drenthe, Nederland","address":{"city":"Assen","state":"Drenthe","ISO3166-2-lvl4":"NL-DR","country":"Nederland","country_code":"nl"},"population":69039,"osm_type":"node","osm_id":29629883,"type":"city","location":[6.560498,52.9952273],"bbox":[6.400498,52.8352273,6.720498,53.1552273],"border":[{"name":"Assen","other_names":{"name:nl":"Assen","name:ar":"أسن","name:de":"Assen","name:en":"Assen","name:es":"Assen","name:fr":"Assen","name:ja":"アッセン","name:ml":"അസൻ","name:ru":"Ассен","name:sr":"Асен","name:uk":"Ассен","name:zh-Hans":"阿森","name:zh-Hant":"阿森","name:carnaval":"Pitlo"},"display_name":"Assen, Drenthe, Nederland","address":{"city":"Assen","state":"Drenthe","ISO3166-2-lvl4":"NL-DR","country":"Nederland","country_code":"nl"},"population":68599,"osm_type":"relation","osm_id":412268,"type":"administrative","location":[6.560498,52.9952273],"bbox":[6.4839477,52.9325148,6.6326463,53.0619206]},{"name":"Assen","other_names":{"name:nl":"Assen","name:ar":"أسن","name:de":"Assen","name:en":"Assen","name:es":"Assen","name:fr":"Assen","name:ja":"アッセン","name:ml":"അസൻ","name:ru":"Ассен","name:sr":"Асен","name:uk":"Ассен","name:zh-Hans":"阿森","name:zh-Hant":"阿森","name:carnaval":"Pitlo"},"display_name":"Assen, Drenthe, Nederland","address":{"city":"Assen","state":"Drenthe","ISO3166-2-lvl4":"NL-DR","country":"Nederland","country_code":"nl"},"population":69039,"osm_type":"relation","osm_id":1433676,"type":"administrative","location":[6.560498,52.9952273],"bbox":[6.4839477,52.9325148,6.6109719,53.0484182]}]}
{"name":"Breda","other_names":{"name:fr":"Bréda","name:ml":"ബ്രേഡ","name:nl":"Breda","name:ru":"Бреда","name:sr":"Бреда","name:uk":"Бреда","name:pcd":"name:pcd=Bréda","name:zh-Hans":"布雷达","name:zh-Hant":"布雷達","name:carnaval":"Kielegat"},"display_name":"Breda, Noord-Brabant, Nederland","address":{"city":"Breda","municipality":"Breda","state":"Noord-Brabant","ISO3166-2-lvl4":"NL-NB","country":"Nederland","country_code":"nl"},"population":150008,"osm_type":"node","osm_id":867998189,"type":"city","location":[4.7760237,51.5887845],"bbox":[4.6160237,51.4287845,4.9360237,51.7487845],"border":[{"name":"Breda","other_names":{"name:nl":"Breda","name:ru":"Бреда","name:pcd":"Bréda"},"display_name":"Breda, Noord-Brabant, Nederland","address":{"municipality":"Breda","state":"Noord-Brabant","ISO3166-2-lvl4":"NL-NB","country":"Nederland","country_code":"nl"},"population":186438,"osm_type":"relation","osm_id":297129,"type":"administrative","location":[4.780267339919904,51.56437755],"bbox":[4.6579813,51.4855482,4.8716846,51.643198]},{"name":"Breda","other_names":{"name:nl":"Breda","name:pcd":"Bréda","name:fr":"Bréda","name:ml":"ബ്രേഡ","name:ru":"Бреда","name:sr":"Бреда","name:uk":"Бреда","name:zh-Hans":"布雷达","name:zh-Hant":"布雷達","name:carnaval":"Kielegat","alt:pcd":"name:pcd=Bréda"},"display_name":"Breda, Noord-Brabant, Nederland","address":{"city":"Breda","municipality":"Breda","state":"Noord-Brabant","ISO3166-2-lvl4":"NL-NB","country":"Nederland","country_code":"nl"},"population":150008,"osm_type":"relation","osm_id":2712700,"type":"administrative","location":[4.7760237,51.5887845],"bbox":[4.6860063,51.4855482,4.8457301,51.643198]}]}
{"name":"Burgh-Haamstede","display_name":"Burgh-Haamstede, Schouwen-Duiveland, Zeeland, Nederland","address":{"city":"Burgh-Haamstede","municipality":"Schouwen-Duiveland","state":"Zeeland","ISO3166-2-lvl4":"NL-ZE","country":"Nederland","country_code":"nl"},"population":4260,"osm_type":"relation","osm_id":2713014,"type":"administrative","location":[3.7220610173238984,51.70224415],"bbox":[3.6113411,51.6503227,3.7946567,51.7540911],"inferred_type":"city"}
{"name":"Delft","other_names":{"name:el":"Ντελφτ","name:fa":"دلفت","name:he":"דלפט","name:ja":"デルフト","name:ko":"델프트","name:la":"Delphi","name:ml":"ഡെൽഫ്റ്റ്","name:ru":"Делфт","name:sr":"Делфт","name:zh":"代尔夫特","name:nds":"Delft","name:zh-Hans":"代尔夫特","name:zh-Hant":"代爾夫特","name:carnaval":"Kabbelgat"},"display_name":"Delft, Zuid-Holland, Nederland","address":{"city":"Delft","state":"Zuid-Holland","ISO3166-2-lvl4":"NL-ZH","country":"Nederland","country_code":"nl"},"population":101386,"osm_type":"node","osm_id":274247451,"type":"city","location":[4.35839,52.0114017],"bbox":[4.19839,51.8514017,4.51839,52.1714017],"border":[{"name":"Delft","other_names":{"name:nl":"Delft","name:el":"Ντελφτ","name:fa":"دلفت","name:he":"דלפט","name:ja":"デルフト","name:ko":"델프트","name:la":"Delphi","name:ml":"ഡെൽഫ്റ്റ്","name:ru":"Делфт","name:sr":"Делфт","name:zh":"代尔夫特","name:nds":"Delft","name:zh-Hans":"代尔夫特","name:zh-Hant":"代爾夫特","name:carnaval":"Kabbelgat"},"display_name":"Delft, Zuid-Holland, Nederland","address":{"city":"Delft","state":"Zuid-Holland","ISO3166-2-lvl4":"NL-ZH","country":"Nederland","country_code":"nl"},"population":106086,"osm_type":"relation","osm_id":324269,"type":"administrative","location":[4.35839,52.0114017],"bbox":[4.3202178,51.9663163,4.4079109,52.0325988]},{"name":"Delft","display_name":"Delft, Zuid-Holland, Nederland","address":{"administrative":"Delft","city":"Delft","state":"Zuid-Holland","ISO3166-2-lvl4":"NL-ZH","country":"Nederland","country_code":"nl"},"population":100894,"osm_type":"relation","osm_id":271202,"type":"administrative","location":[4.362724538543995,51.999457199999995],"bbox":[4.3202178,51.9663163,4.4079109,52.0325988]}]}
{"name":"Den Haag","other_names":{"name:am":"ደን ሃግ","name:ar":"لاهاي","name:az":"Haaqa","name:be":"Гаага","name:bg":"Хага","name:bn":"হেগ","name:ca":"La Haia","name:ce":"Гаага","name:cs":"Haag","name:cv":"Гаага","name:da":"Haag","name:de":"Den Haag","name:el":"Χάγη","name:en":"The Hague","name:eo":"Hago","name:es":"La Haya","name:et":"Haag","name:eu":"Haga","name:fa":"لاهه","name:fi":"Haag","name:fo":"Haag","name:fr":"La Haye","name:fy":"De Haach","name:ga":"An Háig","name:gl":"A Haia","name:ha":"Hague","name:he":"האג","name:hi":"हेग","name:hr":"Hag","name:ht":"Layè","name:hu":"Hága","name:hy":"Հաագա","name:is":"Haag","name:it":"L'Aia","name:ja":"デン・ハーグ","name:ka":"ჰააგა","name:ki":"Hague","name:kk":"Гаага","name:ko":"헤이그","name:ky":"Гаага","name:la":"Haga","name:li":"D'n Haag","name:lt":"Haga","name:lv":"Hāga","name:mk":"Хаг","name:ml":"ഹേഗ്","name:mn":"Хааг","name:mr":"हेग","name:my":"ဟိတ်မြို့တော်","name:nb":"Haag","name:nl":"Den Haag","name:nn":"Haag","name:oc":"L'Aia","name:os":"Гаагæ","name:pa":"ਹੇਗ","name:pl":"Haga","name:ps":"دِن هاخ","name:pt":"A Haia","name:ro":"Haga","name:ru":"Гаага","name:sd":"هيگ","name:sk":"Haag","name:sl":"Haag","name:so":"Den Haakh","name:sq":"Haga","name:sr":"Хаг","name:su":"Dén Haag","name:sv":"Haag","name:ta":"டென் ஹாக்","name:tg":"Гаага","name:th":"เดอะเฮก","name:tl":"Ang Haya","name:tr":"Lahey","name:tt":"Гаага","name:ug":"لاھەي","name:uk":"Гаага","name:ur":"ہیگ","name:uz":"Gaaga","name:vi":"La Hay","name:vo":"'s-Gravenhage","name:wa":"Li Hår","name:yi":"דען האג","name:zh":"海牙","alt_name":"'s-Gravenhage","name:nds":"Den Haag","name:pcd":"La Haye","name:tzl":"Scravenac'ha","alt_name:ja":"スフラーフェンハーヘ","alt_name:la":"Haga Comitis;Haga Comitum","alt_name:ml":"ഹാഗ്","name:zh-Hans":"海牙","name:zh-Hant":"海牙","name:carnaval":"Kreesiedentie","short_name:ja":"ハーグ"},"display_name":"Den Haag, Zuid-Holland, Nederland","address":{"city":"Den Haag","state":"Zuid-Holland","ISO3166-2-lvl4":"NL-ZH","country":"Nederland","country_code":"nl"},"population":525745,"osm_type":"node","osm_id":235857686,"type":"city","location":[4.3113461,52.0799838],"bbox":[4.1513461,51.9199838,4.4713461,52.2399838],"border":[{"name":"Den Haag","other_names":{"name:ar":"لاهاي","name:ca":"La Haia","name:da":"Haag","name:de":"Den Haag","name:el":"Χάγη","name:en":"The Hague","name:eo":"Hago","name:es":"La Haya","name:et":"Haag","name:fi":"Haag","name:fr":"La Haye","name:fy":"De Haach","name:he":"האג","name:hr":"Hag","name:hu":"Hága","name:it":"L'Aia","name:ja":"デン・ハーグ","name:ko":"헤이그","name:la":"Haga","name:lt":"Haga","name:mk":"Хаг","name:nl":"Den Haag","name:pl":"Haga","name:pt":"A Haia","name:ro":"Haga","name:ru":"Гаага","name:sk":"Haag","name:sr":"Хаг","name:tt":"Гаага","name:uk":"Гаага","name:vi":"La Hay","name:zh":"海牙","name:nds":"Den Haag","name:pcd":"La Haye","name:tzl":"Scravenac'ha","nat_name":"'s-Gravenhage","alt_name:ja":"スフラーフェンハーヘ","alt_name:la":"Haga Comitis;Haga Comitum","name:zh-Hans":"海牙","name:zh-Hant":"海牙","official_name":"'s-Gravenhage","name:am":"ደን ሃግ","name:az":"Haaqa","name:be":"Гаага","name:bg":"Хага","name:bn":"হেগ","name:ce":"Гаага","name:cs":"Haag","name:cv":"Гаага","name:eu":"Haga","name:fa":"لاهه","name:fo":"Haag","name:ga":"An Háig","name:gl":"A Haia","name:ha":"Hague","name:hi":"हेग","name:ht":"Layè","name:hy":"Հաագա","name:is":"Haag","name:ka":"ჰააგა","name:ki":"Hague","name:kk":"Гаага","name:ky":"Гаага","name:li":"D'n Haag","name:lv":"Hāga","name:ml":"ഹേഗ്","name:mn":"Хааг","name:mr":"हेग","name:my":"ဟိတ်မြို့တော်","name:nb":"Haag","name:nn":"Haag","name:oc":"L'Aia","name:os":"Гаагæ","name:pa":"ਹੇਗ","name:ps":"دِن هاخ","name:sd":"هيگ","name:sl":"Haag","name:so":"Den Haakh","name:sq":"Haga","name:su":"Dén Haag","name:sv":"Haag","name:ta":"டென் ஹாக்","name:tg":"Гаага","name:th":"เดอะเฮก","name:tl":"Ang Haya","name:tr":"Lahey","name:ug":"لاھەي","name:ur":"ہیگ","name:uz":"Gaaga","name:vo":"'s-Gravenhage","name:wa":"Li Hår","name:yi":"דען האג","alt_name":"'s-Gravenhage","alt_name:ml":"ഹാഗ്","name:carnaval":"Kreesiedentie","short_name:ja":"ハーグ"},"display_name":"Den Haag, Zuid-Holland, Nederland","address":{"city":"Den Haag","state":"Zuid-Holland","ISO3166-2-lvl4":"NL-ZH","country":"Nederland","country_code":"nl"},"population":562839,"osm_type":"relation","osm_id":192736,"type":"administrative","location":[4.3113461,52.0799838],"bbox":[4.1849984,52.0148484,4.4224897,52.1350362]},{"name":"Den Haag","other_names":{"name:ar":"لاهاي","name:bs":"Hag","name:ca":"La Haia","name:da":"Haag","name:de":"Den Haag","name:el":"Χάγη","name:en":"The Hague","name:eo":"Hago","name:es":"La Haya","name:et":"Haag","name:fi":"Haag","name:fr":"La Haye","name:fy":"De Haach","name:he":"האג","name:hr":"Hag","name:hu":"Hága","name:it":"L'Aia","name:ja":"デン・ハーグ","name:ko":"헤이그","name:la":"Haga","name:lt":"Haga","name:mk":"Хаг","name:nl":"Den Haag","name:pl":"Haga","name:pt":"A Haia","name:ro":"Haga","name:ru":"Гаага","name:sk":"Haag","name:sr":"Хаг","name:tt":"Гаага","name:uk":"Гаага","name:vi":"La Hay","name:zh":"海牙","alt_name":"'s-Gravenhage","name:nds":"Den Haag","name:pcd":"La Haye","name:tzl":"Scravenac'ha","alt_name:ja":"スフラーフェンハーヘ","alt_name:la":"Haga Comitis;Haga Comitum","name:zh-Hans":"海牙","name:zh-Hant":"海牙","official_name":"'s-Gravenhage","name:am":"ደን ሃግ","name:az":"Haaqa","name:be":"Гаага","name:bg":"Хага","name:bn":"হেগ","name:ce":"Гаага","name:cs":"Haag","name:cv":"Гаага","name:eu":"Haga","name:fa":"لاهه","name:fo":"Haag","name:ga":"An Háig","name:gl":"A Haia","name:ha":"Hague","name:hi":"हेग","name:ht":"Layè","name:hy":"Հաագա","name:is":"Haag","name:ka":"ჰააგა","name:ki":"Hague","name:kk":"Гаага","name:ky":"Гаага","name:li":"D'n Haag","name:lv":"Hāga","name:ml":"ഹേഗ്","name:mn":"Хааг","name:mr":"हेग","name:my":"ဟိတ်မြို့တော်","name:nb":"Haag","name:nn":"Haag","name:oc":"L'Aia","name:os":"Гаагæ","name:pa":"ਹੇਗ","name:ps":"دِن هاخ","name:sd":"هيگ","name:sl":"Haag","name:so":"Den Haakh","name:sq":"Haga","name:su":"Dén Haag","name:sv":"Haag","name:ta":"டென் ஹாக்","name:tg":"Гаага","name:th":"เดอะเฮก","name:tl":"Ang Haya","name:tr":"Lahey","name:ug":"لاھەي","name:ur":"ہیگ","name:uz":"Gaaga","name:vo":"'s-Gravenhage","name:wa":"Li Hår","name:yi":"דען האג","alt_name:ml":"ഹാഗ്","name:carnaval":"Kreesiedentie","short_name:ja":"ハーグ"},"display_name":"Den Haag, Zuid-Holland, Nederland","address":{"city":"Den Haag","state":"Zuid-Holland","ISO3166-2-lvl4":"NL-ZH","country":"Nederland","country_code":"nl"},"population":525745,"osm_type":"relation","osm_id":192737,"type":"administrative","location":[4.3113461,52.0799838],"bbox":[4.1849984,52.0148484,4.4224897,52.1350362]}]}
{"name":"Deventer","other_names":{"name:de":"Deventer","name:fy":"Dimter","name:hu":"Deventer","name:la":"Daventria","name:ml":"ഡേവെൻ്റർ","name:nl":"Deventer","name:ru":"Девентер","name:sr":"Девентер","name:uk":"Девентер","name:nds":"Dèventer","name:nds-nl":"Deamter","name:carnaval":"Stokvissengat"},"display_name":"Deventer, Overijssel, Nederland","address":{"city":"Deventer","municipality":"Deventer","state":"Overijssel","ISO3166-2-lvl4":"NL-OV","country":"Nederland","country_code":"nl"},"population":81505,"osm_type":"node","osm_id":3247433861,"type":"city","location":[6.1584725,52.2532272],"bbox":[5.9984725,52.0932272,6.3184725,52.4132272],"border":[{"name":"Deventer","display_name":"Deventer, Overijssel, Nederland","address":{"municipality":"Deventer","state":"Overijssel","ISO3166-2-lvl4":"NL-OV","country":"Nederland","country_code":"nl"},"population":102781,"osm_type":"relation","osm_id":1002142,"type":"administrative","location":[6.236488628052996,52.26948965],"bbox":[6.1013204,52.2174383,6.3819118,52.3211219]},{"name":"Deventer","other_names":{"name:nl":"Deventer","name:de":"Deventer","name:fy":"Dimter","name:hu":"Deventer","name:la":"Daventria","name:ml":"ഡേവെൻ്റർ","name:ru":"Девентер","name:sr":"Девентер","name:uk":"Девентер","name:nds":"Dèventer","name:nds-nl":"Deamter","name:carnaval":"Stokvissengat"},"display_name":"Deventer, Overijssel, Nederland","address":{"city":"Deventer","municipality":"Deventer","state":"Overijssel","ISO3166-2-lvl4":"NL-OV","country":"Nederland","country_code":"nl"},"population":81505,"osm_type":"relation","osm_id":1002146,"type":"administrative","location":[6.1584725,52.2532272],"bbox":[6.1211093,52.2174383,6.2759235,52.2811093]}]}
{"name":"Dordrecht","other_names":{"name:en":"Dordrecht","name:fr":"Dort","name:fy":"Doardt","name:la":"Dordracum","name:lt":"Dordrechtas","name:mk":"Дордрехт","name:ml":"ഡോർഡ്രെക്റ്റ്","name:nl":"Dordrecht","name:ru":"Дордрехт","name:sr":"Дордрехт","name:uk":"Дордрехт","loc_name":"Dordt","alt_name:la":"Dordrectum;Dorteraeum;Dortracum;Durdracum","name:zh-Hans":"多德雷赫特","name:zh-Hant":"多德雷赫特","name:carnaval":"Ooi- en Ramsgat"},"display_name":"Dordrecht, Zuid-Holland, Nederland","address":{"city":"Dordrecht","state":"Zuid-Holland","ISO3166-2-lvl4":"NL-ZH","country":"Nederland","country_code":"nl"},"population":122070,"osm_type":"node","osm_id":235874404,"type":"city","location":[4.6692438,51.814429],"bbox":[4.5092438,51.654429,4.8292438,51.974429],"border":[{"name":"Dordrecht","other_names":{"name:fr":"Dort","name:la":"Dordracum","name:nl":"Dordrecht","alt_name:la":"Dordrectum;Dorteraeum;Dortracum;Durdracum","name:en":"Dordrecht","name:fy":"Doardt","name:lt":"Dordrechtas","name:mk":"Дордрехт","name:ml":"ഡോർഡ്രെക്റ്റ്","name:ru":"Дордрехт","name:sr":"Дордрехт","name:uk":"Дордрехт","loc_name":"Dordt","name:zh-Hans":"多德雷赫特","name:zh-Hant":"多德雷赫特","name:carnaval":"Ooi- en Ramsgat"},"display_name":"Dordrecht, Zuid-Holland, Nederland","address":{"city":"Dordrecht","state":"Zuid-Holland","ISO3166-2-lvl4":"NL-ZH","country":"Nederland","country_code":"nl"},"population":121434,"osm_type":"relation","osm_id":309478,"type":"administrative","location":[4.6692438,51.814429],"bbox":[4.620404,51.7141233,4.8846426,51.8233583]},{"name":"Dordrecht","other_names":{"name:fr":"Dort","name:la":"Dordracum","name:nl":"Dordrecht","alt_name:la":"Dordrectum;Dorteraeum;Dortracum;Durdracum"},"display_name":"Dordrecht, Zuid-Holland, Nederland","address":{"administrative":"Dordrecht","state":"Zuid-Holland","ISO3166-2-lvl4":"NL-ZH","country":"Nederland","country_code":"nl"},"osm_type":"relation","osm_id":272914,"type":"administrative","location":[4.686789054617023,51.7689546],"bbox":[4.620404,51.7141233,4.8846426,51.8233583]}]}
{"name":"Ede","other_names":{"name:ml":"ഏഡെ","name:nl":"Ede","name:ru":"Эде","name:sr":"Еде","name:uk":"Еде","name:zh-Hans":"埃德","name:zh-Hant":"埃德"},"display_name":"Ede, Gelderland, Nederland","address":{"city":"Ede","municipality":"Ede","state":"Gelderland","ISO3166-2-lvl4":"NL-GE","country":"Nederland","country_code":"nl"},"population":123550,"osm_type":"node","osm_id":760382981,"type":"city","location":[5.6702011,52.0458265],"bbox":[5.5102011,51.8858265,5.8302011,52.2058265],"border":[{"name":"Ede","display_name":"Ede, Gelderland, Nederland","address":{"municipality":"Ede","state":"Gelderland","ISO3166-2-lvl4":"NL-GE","country":"Nederland","country_code":"nl"},"population":122012,"osm_type":"relation","osm_id":418760,"type":"administrative","location":[5.745510631034939,52.07168255],"bbox":[5.5467449,51.9909515,5.9514658,52.1522285]},{"name":"Ede","other_names":{"name:nl":"Ede","name:ml":"ഏഡെ","name:ru":"Эде","name:sr":"Еде","name:uk":"Еде","name:zh-Hans":"埃德","name:zh-Hant":"埃德"},"display_name":"Ede, Gelderland, Nederland","address":{"city":"Ede","municipality":"Ede","state":"Gelderland","ISO3166-2-lvl4":"NL-GE","country":"Nederland","country_code":"nl"},"population":123550,"osm_type":"relation","osm_id":334640,"type":"administrative","location":[5.6702011,52.0458265],"bbox":[5.5860147,52.0109216,5.8186507,52.0923147]}]}
{"name":"Eemshaven","other_names":{"name:de":"Emshafen","name:nl":"Eemshaven"},"display_name":"Eemshaven, Het Hogeland, Groningen, Nederland","address":{"city":"Eemshaven","municipality":"Het Hogeland","state":"Groningen","ISO3166-2-lvl4":"NL-GR","country":"Nederland","country_code":"nl"},"osm_type":"relation","osm_id":2518795,"type":"administrative","location":[6.849962702578557,53.44847365],"bbox":[6.7812714,53.407826,6.911786,53.4894081],"inferred_type":"city"}
{"name":"Eindhoven","other_names":{"name:el":"Αϊντχόφεν","name:he":"איינדהובן","name:ja":"アイントホーフェン","name:la":"Endhovia","name:lt":"Eindhovenas","name:mk":"Ајндховен","name:ml":"ഐൻഡ്ഹോവൻ","name:ru":"Эйндховен","name:sr":"Ајндховен","name:uk":"Ейндговен","name:zh":"埃因霍温","name:zh-Hans":"埃因霍温","name:zh-Hant":"愛因荷芬","name:carnaval":"Lampegat"},"display_name":"Eindhoven, Noord-Brabant, Nederland","address":{"city":"Eindhoven","state":"Noord-Brabant","ISO3166-2-lvl4":"NL-NB","country":"Nederland","country_code":"nl"},"population":235923,"osm_type":"node","osm_id":42616340,"type":"city","location":[5.478633,51.4392648],"bbox":[5.318633,51.2792648,5.638633,51.5992648],"border":[{"name":"Eindhoven","other_names":{"name:nl":"Eindhoven","name:el":"Αϊντχόφεν","name:he":"איינדהובן","name:ja":"アイントホーフェン","name:la":"Endhovia","name:lt":"Eindhovenas","name:mk":"Ајндховен","name:ml":"ഐൻഡ്ഹോവൻ","name:ru":"Эйндховен","name:sr":"Ајндховен","name:uk":"Ейндговен","name:zh":"埃因霍温","name:zh-Hans":"埃因霍温","name:zh-Hant":"愛因荷芬","name:carnaval":"Lampegat"},"display_name":"Eindhoven, Noord-Brabant, Nederland","address":{"city":"Eindhoven","state":"Noord-Brabant","ISO3166-2-lvl4":"NL-NB","country":"Nederland","country_code":"nl"},"population":243730,"osm_type":"relation","osm_id":47504,"type":"administrative","location":[5.478633,51.4392648],"bbox":[5.3567184,51.4000475,5.5488528,51.4970779]},{"name":"Eindhoven","other_names":{"name:nl":"Eindhoven","name:el":"Αϊντχόφεν","name:he":"איינדהובן","name:ja":"アイントホーフェン","name:la":"Endhovia","name:lt":"Eindhovenas","name:mk":"Ајндховен","name:ml":"ഐൻഡ്ഹോവൻ","name:ru":"Эйндховен","name:sr":"Ајндховен","name:uk":"Ейндговен","name:zh":"埃因霍温","name:zh-Hans":"埃因霍温","name:zh-Hant":"愛因荷芬","name:carnaval":"Lampegat"},"display_name":"Eindhoven, Noord-Brabant, Nederland","address":{"city":"Eindhoven","state":"Noord-Brabant","ISO3166-2-lvl4":"NL-NB","country":"Nederland","country_code":"nl"},"population":235923,"osm_type":"relation","osm_id":296014,"type":"administrative","location":[5.478633,51.4392648],"bbox":[5.3567184,51.4000475,5.5488528,51.4970779]}]}
{"name":"Emmen","other_names":{"name:ar":"إمن","name:fa":"امن","name:la":"Emn","name:lt":"Emenas","name:ml":"എമൻ","name:ru":"Эммен","name:sr":"Емен","name:uk":"Еммен","old_name":"Curtis Emne"},"display_name":"Emmen, Drenthe, Nederland","address":{"city":"Emmen","municipality":"Emmen","state":"Drenthe","ISO3166-2-lvl4":"NL-DR","country":"Nederland","country_code":"nl"},"population":56113,"osm_type":"node","osm_id":868430925,"type":"city","location":[6.8939001,52.788937],"bbox":[6.7339001,52.628937,7.0539001,52.948937],"border":[{"name":"Emmen","other_names":{"name:ar":"إمن","name:fa":"امن","name:nl":"Emmen"},"display_name":"Emmen, Drenthe, Nederland","address":{"municipality":"Emmen","state":"Drenthe","ISO3166-2-lvl4":"NL-DR","country":"Nederland","country_code":"nl"},"population":108765,"osm_type":"relation","osm_id":413536,"type":"administrative","location":[6.952513466208563,52.75286615],"bbox":[6.8263609,52.6327058,7.0927397,52.873012]},{"name":"Emmen","other_names":{"name:nl":"Emmen","name:ar":"إمن","name:fa":"امن","name:la":"Emn","name:lt":"Emenas","name:ml":"എമൻ","name:ru":"Эммен","name:sr":"Емен","name:uk":"Еммен","old_name":"Curtis Emne"},"display_name":"Emmen, Drenthe, Nederland","address":{"city":"Emmen","municipality":"Emmen","state":"Drenthe","ISO3166-2-lvl4":"NL-DR","country":"Nederland","country_code":"nl"},"population":56113,"osm_type":"relation","osm_id":1423541,"type":"administrative","location":[6.8939001,52.788937],"bbox":[6.8308505,52.7256047,6.9794729,52.8378978]}]}
{"name":"Enschede","other_names":{"name:ar":"أنسخديه","name:de":"Enschede","name:fa":"انسخده","name:fy":"Ynskedee","name:la":"Enscheda","name:ml":"എൻസ്കഡെ","name:nl":"Enschede","name:ru":"Энсхеде","name:sr":"Енсхеде","name:ur":"انسخدئے","name:nds":"Eanske","name:pnb":"انشیدے","alt_name:de":"Enscheid","name:zh-Hans":"恩斯赫德","name:zh-Hant":"恩斯赫德","name:carnaval":"Krekkelstad"},"display_name":"Enschede, Overijssel, Nederland","address":{"city":"Enschede","state":"Overijssel","ISO3166-2-lvl4":"NL-OV","country":"Nederland","country_code":"nl"},"population":151041,"osm_type":"node","osm_id":3836540471,"type":"city","location":[6.8940537,52.2209855],"bbox":[6.7340537,52.0609855,7.0540537,52.3809855],"border":[{"name":"Enschede","other_names":{"name:ar":"أنسخديه","name:de":"Enscheid","name:fa":"انسخده","name:la":"Enscheda","name:nl":"Enschede","name:ur":"انسخدئے","name:pnb":"انشیدے","name:fy":"Ynskedee","name:ml":"എൻസ്കഡെ","name:ru":"Энсхеде","name:sr":"Енсхеде","name:nds":"Eanske","alt_name:de":"Enscheid","name:zh-Hans":"恩斯赫德","name:zh-Hant":"恩斯赫德","name:carnaval":"Krekkelstad","alt:de":"Enschede"},"display_name":"Enschede, Overijssel, Nederland","address":{"city":"Enschede","state":"Overijssel","ISO3166-2-lvl4":"NL-OV","country":"Nederland","country_code":"nl"},"population":161235,"osm_type":"relation","osm_id":415473,"type":"administrative","location":[6.8940537,52.2209855],"bbox":[6.7558928,52.1612059,6.9811001,52.2855057]},{"name":"Enschede","other_names":{"name:ar":"أنسخديه","name:de":"Enschede","name:la":"Enscheda","name:nl":"Enschede"},"display_name":"Enschede, Overijssel, Nederland","address":{"administrative":"Enschede","state":"Overijssel","ISO3166-2-lvl4":"NL-OV","country":"Nederland","country_code":"nl"},"osm_type":"relation","osm_id":1380244,"type":"administrative","location":[6.870595664097989,52.22336325],"bbox":[6.7558928,52.1612059,6.9811001,52.2855057]}]}
{"name":"Groningen","other_names":{"name:ar":"خرونينغن","name:az":"Qroningen","name:be":"Гронінген","name:bg":"Гронинген","name:bn":"খ্রোনিঙেন","name:br":"Groningen","name:cv":"Гронинген","name:cy":"Groningen","name:de":"Groningen","name:el":"Χρόνινγκεν","name:en":"Groningen","name:eo":"Groningo","name:es":"Groninga","name:eu":"Groningen","name:fa":"خرونینگن","name:fr":"Groningue","name:fy":"Grins","name:gl":"Groninga","name:gv":"Groningen","name:he":"חרונינגן","name:hu":"Groningen","name:hy":"Գրոնինգեն","name:ia":"Groningen","name:id":"Groningen","name:it":"Groninga","name:ja":"フローニンゲン","name:ka":"გრონინგენი","name:kk":"Гронинген","name:ko":"흐로닝언","name:ku":"Groningen","name:la":"Groninga","name:li":"Groninge","name:lt":"Groningenas","name:lv":"Groningena","name:ml":"ഗ്രോനിങ്കൻ","name:mn":"Гронинген","name:mr":"ग्रोनिंगन","name:ms":"Groningen","name:nb":"Groningen","name:nl":"Groningen","name:oc":"Groninga","name:os":"Гронинген","name:ps":"خرونینګن","name:pt":"Groninga","name:ro":"Groningen","name:ru":"Гронинген","name:sk":"Groningen","name:sr":"Гронинген","name:tg":"Гронинген","name:th":"โกรนิงเงิน","name:tt":"Грониңен","name:uk":"Гронінген","name:ur":"خرونیگین","name:uz":"Groningen","name:vi":"Groningen","name:vo":"Groningen","name:zh":"格罗宁根","loc_name":"Stad","name:nds":"Grunnen","name:pcd":"Groningue","name:vls":"Groniengn","name:zh-Hans":"格罗宁根","name:zh-Hant":"格羅寧根"},"display_name":"Groningen, Nederland","address":{"city":"Groningen","municipality":"Groningen","state":"Groningen","ISO3166-2-lvl4":"NL-GR","country":"Nederland","country_code":"nl"},"population":201242,"osm_type":"node","osm_id":3125538288,"type":"city","location":[6.5680077,53.2190652],"bbox":[6.4080077,53.0590652,6.7280077,53.3790652],"border":[{"name":"Groningen","other_names":{"name:ar":"خرونينغن","name:eo":"Groningo","name:fr":"Groningue","name:fy":"Grins","name:nl":"Groningen","name:uk":"Гронінген","name:pcd":"Groningue","name:vls":"Groniengn"},"display_name":"Groningen, Nederland","address":{"municipality":"Groningen","state":"Groningen","ISO3166-2-lvl4":"NL-GR","country":"Nederland","country_code":"nl"},"population":238147,"osm_type":"relation","osm_id":409862,"type":"administrative","location":[6.5727542209199195,53.2096623],"bbox":[6.4627456,53.1061987,6.7725268,53.3129637]},{"name":"Groningen","other_names":{"name:ar":"خرونينغن","name:de":"Groningen","name:eo":"Groningo","name:es":"Groninga","name:fr":"Groningue","name:lv":"Groningena","name:nl":"Groningen","name:pt":"Groningen","name:zh":"格罗宁根","name:pcd":"Groningue","name:vls":"Groniengn","name:az":"Qroningen","name:be":"Гронінген","name:bg":"Гронинген","name:bn":"খ্রোনিঙেন","name:br":"Groningen","name:cv":"Гронинген","name:cy":"Groningen","name:el":"Χρόνινγκεν","name:en":"Groningen","name:eu":"Groningen","name:fa":"خرونینگن","name:fy":"Grins","name:gl":"Groninga","name:gv":"Groningen","name:he":"חרונינגן","name:hu":"Groningen","name:hy":"Գրոնինգեն","name:ia":"Groningen","name:id":"Groningen","name:it":"Groninga","name:ja":"フローニンゲン","name:ka":"გრონინგენი","name:kk":"Гронинген","name:ko":"흐로닝언","name:ku":"Groningen","name:la":"Groninga","name:li":"Groninge","name:lt":"Groningenas","name:ml":"ഗ്രോനിങ്കൻ","name:mn":"Гронинген","name:mr":"ग्रोनिंगन","name:ms":"Groningen","name:nb":"Groningen","name:oc":"Groninga","name:os":"Гронинген","name:ps":"خرونینګن","name:ro":"Groningen","name:ru":"Гронинген","name:sk":"Groningen","name:sr":"Гронинген","name:tg":"Гронинген","name:th":"โกรนิงเงิน","name:tt":"Грониңен","name:uk":"Гронінген","name:ur":"خرونیگین","name:uz":"Groningen","name:vi":"Groningen","name:vo":"Groningen","loc_name":"Stad","name:nds":"Grunnen","name:zh-Hans":"格罗宁根","name:zh-Hant":"格羅寧根","alt:pt":"Groninga"},"display_name":"Groningen, Nederland","address":{"city":"Groningen","municipality":"Groningen","state":"Groningen","ISO3166-2-lvl4":"NL-GR","country":"Nederland","country_code":"nl"},"population":201242,"osm_type":"relation","osm_id":409863,"type":"administrative","location":[6.5680077,53.2190652],"bbox":[6.4627456,53.1786103,6.6668727,53.2649469]}]}
{"name":"Haarlem","other_names":{"name:ar":"هارلم","name:de":"Haarlem","name:en":"Haarlem","name:eo":"Harlemo","name:es":"Haarlem","name:fr":"Haarlem","name:fy":"Haarlim","name:he":"הארלם","name:ja":"ハールレム","name:ka":"ჰაარლემი","name:la":"Harlemum","name:lt":"Harlemas","name:ml":"ഹാർലെം","name:nl":"Haarlem","name:ru":"Харлем","name:sr":"Харлем","name:uk":"Гарлем","name:zh":"哈勒姆","loc_name":"Spaarnestad","name:zh-Hans":"哈勒姆","name:zh-Hant":"哈倫","name:carnaval":"Muggendonk"},"display_name":"Haarlem, Noord-Holland, Nederland","address":{"city":"Haarlem","state":"Noord-Holland","ISO3166-2-lvl4":"NL-NH","country":"Nederland","country_code":"nl"},"population":158593,"osm_type":"node","osm_id":296054949,"type":"city","location":[4.6388048,52.3885317],"bbox":[4.4788048,52.2285317,4.7988048,52.5485317],"border":[{"name":"Haarlem","other_names":{"name:eo":"Harlemo","name:la":"Harlemum","name:nl":"Haarlem","name:ar":"هارلم","name:de":"Haarlem","name:en":"Haarlem","name:es":"Haarlem","name:fr":"Haarlem","name:fy":"Haarlim","name:he":"הארלם","name:ja":"ハールレム","name:ka":"ჰაარლემი","name:lt":"Harlemas","name:ml":"ഹാർലെം","name:ru":"Харлем","name:sr":"Харлем","name:uk":"Гарлем","name:zh":"哈勒姆","loc_name":"Spaarnestad","name:zh-Hans":"哈勒姆","name:zh-Hant":"哈倫","name:carnaval":"Muggendonk"},"display_name":"Haarlem, Noord-Holland, Nederland","address":{"city":"Haarlem","state":"Noord-Holland","ISO3166-2-lvl4":"NL-NH","country":"Nederland","country_code":"nl"},"population":165396,"osm_type":"relation","osm_id":47534,"type":"administrative","location":[4.6388048,52.3885317],"bbox":[4.5995157,52.3389061,4.6869212,52.4285697]},{"name":"Haarlem","other_names":{"name:eo":"Harlemo","name:la":"Harlemum","name:nl":"Haarlem"},"display_name":"Haarlem, Noord-Holland, Nederland","address":{"city_district":"Haarlem","city":"Haarlem","state":"Noord-Holland","ISO3166-2-lvl4":"NL-NH","country":"Nederland","country_code":"nl"},"osm_type":"relation","osm_id":2712154,"type":"administrative","location":[4.643559696559635,52.383705750000004],"bbox":[4.5995157,52.3389061,4.6869212,52.4285697]}]}
{"name":"Heerlen","other_names":{"name:fy":"Hearlen","name:la":"Coriovallum","name:li":"Heële","name:ml":"ഹേർലൻ","name:nl":"Heerlen","name:ru":"Херлен","name:zh-Hans":"海尔伦","name:zh-Hant":"海爾倫","name:carnaval":"Sjpassemig"},"display_name":"Heerlen, Limburg, Nederland","address":{"city":"Heerlen","municipality":"Heerlen","state":"Limburg","ISO3166-2-lvl4":"NL-LI","country":"Nederland","country_code":"nl"},"population":67943,"osm_type":"node","osm_id":2667692112,"type":"city","location":[5.9773285,50.8876735],"bbox":[5.8173285,50.7276735,6.1373285,51.0476735],"border":[{"name":"Heerlen","other_names":{"name:fy":"Hearlen","name:la":"Coriovallum","name:li":"Heële","name:nl":"Heerlen","name:ru":"Херлен","name:zh-Hans":"海尔伦","name:zh-Hant":"海爾倫"},"display_name":"Heerlen, Limburg, Nederland","address":{"municipality":"Heerlen","state":"Limburg","ISO3166-2-lvl4":"NL-LI","country":"Nederland","country_code":"nl"},"population":87086,"osm_type":"relation","osm_id":406105,"type":"administrative","location":[5.981506585454879,50.8775239],"bbox":[5.8954092,50.8184032,6.0263794,50.9366122]},{"name":"Heerlen","other_names":{"name:fy":"Hearlen","name:la":"Coriovallum","name:li":"Heële","name:nl":"Heerlen","name:ru":"Херлен","name:zh-Hans":"海尔伦","name:zh-Hant":"海爾倫","name:ml":"ഹേർലൻ","name:carnaval":"Sjpassemig"},"display_name":"Heerlen, Limburg, Nederland","address":{"city":"Heerlen","municipality":"Heerlen","state":"Limburg","ISO3166-2-lvl4":"NL-LI","country":"Nederland","country_code":"nl"},"population":67943,"osm_type":"relation","osm_id":1411782,"type":"administrative","location":[5.9773285,50.8876735],"bbox":[5.9163049,50.8184032,6.0263794,50.9342223]}]}
{"name":"Helmond","other_names":{"name:ru":"Хелмонд","name:sr":"Хелмонд","name:uk":"Гелмонд","name:zh-Hans":"赫尔蒙德","name:zh-Hant":"海爾蒙德","name:carnaval":"Kattegat"},"display_name":"Helmond, Noord-Brabant, Nederland","address":{"city":"Helmond","state":"Noord-Brabant","ISO3166-2-lvl4":"NL-NB","country":"Nederland","country_code":"nl"},"population":90609,"osm_type":"node","osm_id":299144900,"type":"city","location":[5.6557686,51.4790956],"bbox":[5.4957686,51.3190956,5.8157686,51.6390956],"border":[{"name":"Helmond","other_names":{"name:nl":"Helmond","name:ru":"Хелмонд","name:sr":"Хелмонд","name:zh-Hans":"赫尔蒙德","name:zh-Hant":"海爾蒙德","name:carnaval":"Kattegat","name:uk":"Гелмонд"},"display_name":"Helmond, Noord-Brabant, Nederland","address":{"city":"Helmond","state":"Noord-Brabant","ISO3166-2-lvl4":"NL-NB","country":"Nederland","country_code":"nl"},"population":92423,"osm_type":"relation","osm_id":299983,"type":"administrative","location":[5.6557686,51.4790956],"bbox":[5.570156,51.43803,5.7360936,51.5092173]},{"name":"Helmond","other_names":{"name:nl":"Helmond","name:ru":"Хелмонд","name:sr":"Хелмонд","name:zh-Hans":"赫尔蒙德","name:zh-Hant":"海爾蒙德","name:carnaval":"Kattegat","name:uk":"Гелмонд"},"display_name":"Helmond, Noord-Brabant, Nederland","address":{"city":"Helmond","state":"Noord-Brabant","ISO3166-2-lvl4":"NL-NB","country":"Nederland","country_code":"nl"},"population":90609,"osm_type":"relation","osm_id":286685,"type":"administrative","location":[5.6557686,51.4790956],"bbox":[5.570156,51.43803,5.7360936,51.5092173]}]}
{"name":"Hilversum","other_names":{"name:fy":"Hilfertsom","name:ml":"ഹിൽവർസും","name:ru":"Хилверсюм","name:sr":"Хилверсум","name:uk":"Гілверсум"},"display_name":"Hilversum, Noord-Holland, Nederland","address":{"city":"Hilversum","state":"Noord-Holland","ISO3166-2-lvl4":"NL-NH","country":"Nederland","country_code":"nl"},"population":93345,"osm_type":"node","osm_id":296056871,"type":"city","location":[5.1719396,52.2241375],"bbox":[5.0119396,52.0641375,5.3319396,52.3841375],"border":[{"name":"Hilversum","other_names":{"name:nl":"Hilversum","name:uk":"Гілверсум","name:fy":"Hilfertsom","name:ml":"ഹിൽവർസും","name:ru":"Хилверсюм","name:sr":"Хилверсум"},"display_name":"Hilversum, Noord-Holland, Nederland","address":{"city":"Hilversum","state":"Noord-Holland","ISO3166-2-lvl4":"NL-NH","country":"Nederland","country_code":"nl"},"population":90831,"osm_type":"relation","osm_id":419190,"type":"administrative","location":[5.1719396,52.2241375],"bbox":[5.1020133,52.1776807,5.2189603,52.2855452]},{"name":"Hilversum","other_names":{"name:nl":"Hilversum","name:fy":"Hilfertsom","name:ml":"ഹിൽവർസും","name:ru":"Хилверсюм","name:sr":"Хилверсум","name:uk":"Гілверсум"},"display_name":"Hilversum, Noord-Holland, Nederland","address":{"city":"Hilversum","state":"Noord-Holland","ISO3166-2-lvl4":"NL-NH","country":"Nederland","country_code":"nl"},"population":93345,"osm_type":"relation","osm_id":271108,"type":"administrative","location":[5.1719396,52.2241375],"bbox":[5.1020133,52.1776807,5.2189603,52.2855452]}]}
{"name":"Leeuwarden","other_names":{"name:ar":"ليوواردن","name:de":"Leeuwarden","name:en":"Leeuwarden","name:es":"Leeuwarden","name:fr":"Leeuwarden","name:fy":"Ljouwert","name:ja":"レーワルデン","name:la":"Leovardia","name:lt":"Leuvardenas","name:ml":"ലേവാർഡൻ","name:nl":"Leeuwarden","name:ru":"Леуварден","name:sr":"Леуварден","name:uk":"Льовет","name:nds":"Liwwadden","alt_name:la":"Lewardum","name:zh-Hans":"吕伐登","name:zh-Hant":"呂伐登"},"display_name":"Leeuwarden, Fryslân, Nederland","address":{"city":"Leeuwarden","municipality":"Leeuwarden","state":"Fryslân","ISO3166-2-lvl4":"NL-FR","country":"Nederland","country_code":"nl"},"population":91992,"osm_type":"node","osm_id":235278210,"type":"city","location":[5.7918548,53.2005936],"bbox":[5.6318548,53.0405936,5.9518548,53.3605936],"border":[{"name":"Leeuwarden","other_names":{"name:ar":"ليوواردن","name:de":"Leeuwarden","name:en":"Leeuwarden","name:es":"Leeuwarden","name:fr":"Leeuwarden","name:fy":"Ljouwert","name:ja":"レーワルデン","name:la":"Leovardia","name:lt":"Leuvardenas","name:nl":"Leeuwarden","name:ru":"Леуварден","name:sr":"Леуварден","name:uk":"Льовет","name:nds":"Liwwadden","alt_name:la":"Lewardum","name:zh-Hans":"吕伐登","name:zh-Hant":"呂伐登"},"display_name":"Leeuwarden, Fryslân, Nederland","address":{"municipality":"Leeuwarden","state":"Fryslân","ISO3166-2-lvl4":"NL-FR","country":"Nederland","country_code":"nl"},"population":127073,"osm_type":"relation","osm_id":162074,"type":"administrative","location":[5.807296927683877,53.1702825],"bbox":[5.6319932,53.0458492,5.9496567,53.294721]},{"name":"Leeuwarden","other_names":{"name:fy":"Ljouwert","name:la":"Leovardia","name:nl":"Leeuwarden","alt_name:la":"Lewardum","name:ar":"ليوواردن","name:de":"Leeuwarden","name:en":"Leeuwarden","name:es":"Leeuwarden","name:fr":"Leeuwarden","name:ja":"レーワルデン","name:lt":"Leuvardenas","name:ml":"ലേവാർഡൻ","name:ru":"Леуварден","name:sr":"Леуварден","name:uk":"Льовет","name:nds":"Liwwadden","name:zh-Hans":"吕伐登","name:zh-Hant":"呂伐登"},"display_name":"Leeuwarden, Fryslân, Nederland","address":{"city":"Leeuwarden","municipality":"Leeuwarden","state":"Fryslân","ISO3166-2-lvl4":"NL-FR","country":"Nederland","country_code":"nl"},"population":91992,"osm_type":"relation","osm_id":162081,"type":"administrative","location":[5.7918548,53.2005936],"bbox":[5.7297688,53.1583048,5.9070999,53.2410981]}]}
{"name":"Leiden","other_names":{"name:fr":"Leyde","name:fy":"Leien","name:it":"Leida","name:ja":"ライデン","name:la":"Lugdunum Batavorum","name:mk":"Лајден","name:ml":"ലെയ്ഡൻ","name:nl":"Leiden","name:pl":"Lejda","name:pt":"Leida","name:ru":"Лейден","name:sr":"Лајден","name:uk":"Лейден","name:zh":"莱顿","alt_name:la":"Lugduni Batavorum","name:zh-Hant":"萊頓"},"display_name":"Leiden, Zuid-Holland, Nederland","address":{"city":"Leiden","state":"Zuid-Holland","ISO3166-2-lvl4":"NL-ZH","country":"Nederland","country_code":"nl"},"population":123753,"osm_type":"node","osm_id":235865586,"type":"city","location":[4.4908843,52.1594747],"bbox":[4.3308843,51.9994747,4.6508843,52.3194747],"border":[{"name":"Leiden","other_names":{"name:fr":"Leyde","name:fy":"Leien","name:ja":"ライデン","name:la":"Lugdunum Batavorum","name:lt":"Leidenas","name:lv":"Leidene","name:nl":"Leiden","name:pl":"Lejda","name:pt":"Leida","alt_name:la":"Lugduni Batavorum","name:it":"Leida","name:mk":"Лајден","name:ml":"ലെയ്ഡൻ","name:ru":"Лейден","name:sr":"Лајден","name:uk":"Лейден","name:zh":"莱顿","name:zh-Hant":"萊頓"},"display_name":"Leiden, Zuid-Holland, Nederland","address":{"city":"Leiden","state":"Zuid-Holland","ISO3166-2-lvl4":"NL-ZH","country":"Nederland","country_code":"nl"},"population":127089,"osm_type":"relation","osm_id":444400,"type":"administrative","location":[4.4908843,52.1594747],"bbox":[4.4388652,52.1189516,4.5240721,52.1846262]},{"name":"Leiden","other_names":{"name:es":"Leiden","name:fr":"Leyde","name:fy":"Leien","name:it":"Leida","name:la":"Lugdunum Batavorum","name:lt":"Leidenas","name:lv":"Leidene","name:nl":"Leiden","name:pl":"Lejda","name:pt":"Leida","alt_name:la":"Lugduni Batavorum","name:ja":"ライデン","name:mk":"Лајден","name:ml":"ലെയ്ഡൻ","name:ru":"Лейден","name:sr":"Лајден","name:uk":"Лейден","name:zh":"莱顿","name:zh-Hant":"萊頓"},"display_name":"Leiden, Zuid-Holland, Nederland","address":{"city":"Leiden","state":"Zuid-Holland","ISO3166-2-lvl4":"NL-ZH","country":"Nederland","country_code":"nl"},"population":123753,"osm_type":"relation","osm_id":295092,"type":"administrative","location":[4.4908843,52.1594747],"bbox":[4.4388652,52.1189516,4.5240721,52.1846262]}]}
{"name":"Lelystad","other_names":{"name:ar":"ليليستاد","name:de":"Lelystad","name:en":"Lelystad","name:es":"Lelystad","name:fa":"لیلی‌استاد","name:fr":"Lelystad","name:fy":"Lelystêd","name:lt":"Lelistadas","name:ml":"ലേലിസ്റ്റാറ്റ്","name:nl":"Lelystad","name:ru":"Лелистад","name:zh":"莱利斯塔德","name:carnaval":"Knarregat"},"display_name":"Lelystad, Flevoland, Nederland, 8223, Nederland","address":{"city":"Lelystad","state":"Flevoland","ISO3166-2-lvl4":"NL-FL","country":"Nederland","postcode":"8223","country_code":"nl"},"population":76969,"osm_type":"node","osm_id":243670659,"type":"city","location":[5.4768915,52.5150949],"bbox":[5.3168915,52.3550949,5.6368915,52.6750949],"border":[{"name":"Lelystad","other_names":{"name:nl":"Lelystad","name:ar":"ليليستاد","name:de":"Lelystad","name:en":"Lelystad","name:es":"Lelystad","name:fa":"لیلی‌استاد","name:fr":"Lelystad","name:fy":"Lelystêd","name:lt":"Lelistadas","name:ml":"ലേലിസ്റ്റാറ്റ്","name:ru":"Лелистад","name:zh":"莱利斯塔德","name:carnaval":"Knarregat"},"display_name":"Lelystad, Flevoland, Nederland","address":{"city":"Lelystad","state":"Flevoland","ISO3166-2-lvl4":"NL-FL","country":"Nederland","country_code":"nl"},"population":78598,"osm_type":"relation","osm_id":409806,"type":"administrative","location":[5.4768915,52.5150949],"bbox":[5.0745865,52.3843774,5.6058706,52.6928447]},{"name":"Lelystad","display_name":"Lelystad, Flevoland, Nederland","address":{"administrative":"Lelystad","state":"Flevoland","ISO3166-2-lvl4":"NL-FL","country":"Nederland","country_code":"nl"},"osm_type":"relation","osm_id":272916,"type":"administrative","location":[5.361043525412799,52.536680950000004],"bbox":[5.0745865,52.3843774,5.6058706,52.6928447]}]}
{"name":"Maastricht","other_names":{"name:ar":"ماستريخت","name:de":"Maastricht","name:en":"Maastricht","name:eo":"Mastriĥto","name:es":"Maastricht","name:fr":"Maastricht","name:he":"מאסטריכט","name:ja":"マーストリヒト","name:la":"Traiectum Mosae","name:li":"Mestreech","name:lt":"Mastrichtas","name:mk":"Мастрихт","name:ml":"മാസ്ട്രിക്റ്റ്","name:nl":"Maastricht","name:ru":"Маастрихт","name:sr":"Мастрихт","name:uk":"Маастрихт","name:wa":"Måstraik","name:zh":"马斯特里赫特","loc_name":"Mestreech","name:nds":"Maastricht","alt_name:la":"Traiectum ad Mosam","alt_name:wa":"Li Trai","old_name:es":"Mastrique","old_name:fr":"Maestricht","name:zh-Hans":"马斯特里赫特","name:zh-Hant":"馬斯特里赫特"},"display_name":"Maastricht, Limburg, Nederland","address":{"city":"Maastricht","state":"Limburg","ISO3166-2-lvl4":"NL-LI","country":"Nederland","country_code":"nl"},"population":120105,"osm_type":"node","osm_id":41977208,"type":"city","location":[5.6909768,50.8512438],"bbox":[5.5309768,50.6912438,5.8509768,51.0112438],"border":[{"name":"Maastricht","other_names":{"name:eo":"Mastriĥto","name:la":"Mosa Trajectum","name:li":"Mestreech","name:nl":"Maastricht","name:wa":"Måstraik","name:zea":"Maestricht","alt_name:la":"Traiectum;Traiectum ad Mosam","alt_name:wa":"Li Trai","old_name:fr":"Maëstricht","name:ar":"ماستريخت","name:de":"Maastricht","name:en":"Maastricht","name:es":"Maastricht","name:fr":"Maastricht","name:he":"מאסטריכט","name:ja":"マーストリヒト","name:lt":"Mastrichtas","name:mk":"Мастрихт","name:ml":"മാസ്ട്രിക്റ്റ്","name:ru":"Маастрихт","name:sr":"Мастрихт","name:uk":"Маастрихт","name:zh":"马斯特里赫特","loc_name":"Mestreech","name:nds":"Maastricht","_place_alt_name:la":"Traiectum ad Mosam","old_name:es":"Mastrique","_place_old_name:fr":"Maestricht","name:zh-Hans":"马斯特里赫特","name:zh-Hant":"馬斯特里赫特","alt:la":"Traiectum Mosae"},"display_name":"Maastricht, Limburg, Nederland","address":{"city":"Maastricht","state":"Limburg","ISO3166-2-lvl4":"NL-LI","country":"Nederland","country_code":"nl"},"population":122734,"osm_type":"relation","osm_id":2078291,"type":"administrative","location":[5.6909768,50.8512438],"bbox":[5.6388661,50.8038053,5.7629249,50.9120028]},{"name":"Maastricht","other_names":{"name:eo":"Mastriĥto","name:li":"Mestreech","name:nl":"Maastricht","name:wa":"Måstraik","alt_name:wa":"Li Trai","name:ar":"ماستريخت","name:de":"Maastricht","name:en":"Maastricht","name:es":"Maastricht","name:fr":"Maastricht","name:he":"מאסטריכט","name:ja":"マーストリヒト","name:la":"Traiectum Mosae","name:lt":"Mastrichtas","name:mk":"Мастрихт","name:ml":"മാസ്ട്രിക്റ്റ്","name:ru":"Маастрихт","name:sr":"Мастрихт","name:uk":"Маастрихт","name:zh":"马斯特里赫特","loc_name":"Mestreech","name:nds":"Maastricht","alt_name:la":"Traiectum ad Mosam","old_name:es":"Mastrique","old_name:fr":"Maestricht","name:zh-Hans":"马斯特里赫特","name:zh-Hant":"馬斯特里赫特"},"display_name":"Maastricht, Limburg, Nederland","address":{"city":"Maastricht","state":"Limburg","ISO3166-2-lvl4":"NL-LI","country":"Nederland","country_code":"nl"},"population":120105,"osm_type":"relation","osm_id":2078292,"type":"administrative","location":[5.6909768,50.8512438],"bbox":[5.6388661,50.8038053,5.7629249,50.9120028]}]}
{"name":"Middelburg","other_names":{"name:ar":"ميديلبورخ","name:de":"Middelburg","name:en":"Middelburg","name:es":"Middelburg","name:fr":"Middelbourg","name:fy":"Middelburch","name:ja":"ミデルブルフ","name:ko":"미델뷔르흐","name:la":"Medioburgum","name:ml":"മിഡൽബർഗ്","name:nl":"Middelburg","name:ru":"Мидделбург","name:sr":"Миделбург","name:uk":"Мідделбург","name:pcd":"Middelbourg","alt_name:la":"Middelburgum","name:zh-Hans":"米德尔堡","name:zh-Hant":"米德爾堡"},"display_name":"Middelburg, Zeeland, Nederland","address":{"city":"Middelburg","municipality":"Middelburg","state":"Zeeland","ISO3166-2-lvl4":"NL-ZE","country":"Nederland","country_code":"nl"},"population":40345,"osm_type":"node","osm_id":3122879753,"type":"city","location":[3.6137371,51.4996784],"bbox":[3.4537371,51.3396784,3.7737371,51.6596784],"border":[{"name":"Middelburg","other_names":{"name:fr":"Middelbourg","name:la":"Medioburgum","name:nl":"Middelburg","name:pcd":"Middelbourg","alt_name:la":"Middelburgum"},"display_name":"Middelburg, Zeeland, Nederland","address":{"municipality":"Middelburg","state":"Zeeland","ISO3166-2-lvl4":"NL-ZE","country":"Nederland","country_code":"nl"},"population":48822,"osm_type":"relation","osm_id":162417,"type":"administrative","location":[3.642080782139768,51.5017183],"bbox":[3.5752964,51.4681394,3.7469435,51.5353033]},{"name":"Middelburg","other_names":{"name:la":"Medioburgum","name:nl":"Middelburg","alt_name:la":"Middelburgum","name:ar":"ميديلبورخ","name:de":"Middelburg","name:en":"Middelburg","name:es":"Middelburg","name:fr":"Middelbourg","name:fy":"Middelburch","name:ja":"ミデルブルフ","name:ko":"미델뷔르흐","name:ml":"മിഡൽബർഗ്","name:ru":"Мидделбург","name:sr":"Миделбург","name:uk":"Мідделбург","name:pcd":"Middelbourg","name:zh-Hans":"米德尔堡","name:zh-Hant":"米德爾堡"},"display_name":"Middelburg, Zeeland, Nederland","address":{"city":"Middelburg","municipality":"Middelburg","state":"Zeeland","ISO3166-2-lvl4":"NL-ZE","country":"Nederland","country_code":"nl"},"population":40345,"osm_type":"relation","osm_id":1579282,"type":"administrative","location":[3.6137371,51.4996784],"bbox":[3.5752964,51.4752946,3.660337,51.5353033]}]}
{"name":"Nijmegen","other_names":{"name:de":"Nimwegen","name:eo":"Nimego","name:es":"Nimega","name:eu":"Nimega","name:fr":"Nimègue","name:fy":"Nymwegen","name:it":"Nimega","name:la":"Noviomagus Batavorum","name:lt":"Neimegenas","name:ml":"നീമേഗൻ","name:nl":"Nijmegen","name:ru":"Неймеген","name:sr":"Најмеген","name:uk":"Неймеген","name:zh":"奈梅亨","name:nds":"Nimwaege","name:pcd":"Nimègue","name:vls":"Nymeegn","old_name:en":"Nimeguen","old_name:dum":"Nieumeghen","old_name:frk":"Numaga","name:carnaval":"Knotsenburg","old_name:la:15B.C.-69A.D.":"Oppidum Batavorum","old_name:la:104-4th_century":"Ulpia Noviomagus Batavorum"},"display_name":"Nijmegen, Gelderland, Nederland","address":{"city":"Nijmegen","state":"Gelderland","ISO3166-2-lvl4":"NL-GE","country":"Nederland","country_code":"nl"},"population":176731,"osm_type":"node","osm_id":867975219,"type":"city","location":[5.8637771,51.8474946],"bbox":[5.7037771,51.6874946,6.0237771,52.0074946],"border":[{"name":"Nijmegen","other_names":{"name:de":"Nimwegen","name:eo":"Nimego","name:fa":"نیمیخن","name:fr":"Nimègue","name:fy":"Nymwegen","name:la":"Noviomagus Batavorum","name:nl":"Nijmegen","name:ru":"Неймеген","name:pcd":"Nimègue","name:vls":"Nymeegn","name:es":"Nimega","name:eu":"Nimega","name:it":"Nimega","name:lt":"Neimegenas","name:ml":"നീമേഗൻ","name:sr":"Најмеген","name:uk":"Неймеген","name:zh":"奈梅亨","name:nds":"Nimwaege","old_name:en":"Nimeguen","old_name:dum":"Nieumeghen","old_name:frk":"Numaga","name:carnaval":"Knotsenburg","old_name:la:15B.C.-69A.D.":"Oppidum Batavorum","old_name:la:104-4th_century":"Ulpia Noviomagus Batavorum"},"display_name":"Nijmegen, Gelderland, Nederland","address":{"city":"Nijmegen","state":"Gelderland","ISO3166-2-lvl4":"NL-GE","country":"Nederland","country_code":"nl"},"population":182480,"osm_type":"relation","osm_id":1201020,"type":"administrative","location":[5.8637771,51.8474946],"bbox":[5.7576206,51.7905891,5.9083469,51.8946209]},{"name":"Nijmegen","other_names":{"name:de":"Nimwegen","name:eo":"Nimego","name:es":"Nijmegen","name:fa":"نیمیخن","name:fr":"Nimègue","name:fy":"Nymwegen","name:la":"Noviomagus Batavorum","name:nl":"Nijmegen","name:ru":"Неймеген","name:pcd":"Nimègue","name:vls":"Nymeegn","old_name:en":"Nimeguen","name:carnaval":"Knotsenburg"},"display_name":"Nijmegen, Gelderland, Nederland","address":{"city_district":"Nijmegen","city":"Nijmegen","state":"Gelderland","ISO3166-2-lvl4":"NL-GE","country":"Nederland","country_code":"nl"},"osm_type":"relation","osm_id":1200994,"type":"administrative","location":[5.838960628748229,51.842574850000005],"bbox":[5.7576206,51.7905891,5.9083469,51.8946209]}]}
{"name":"Oosterzee","other_names":{"name:fy":"Eastersee","name:nl":"Oosterzee"},"display_name":"Oosterzee, De Fryske Marren, Fryslân, Nederland","address":{"city":"Oosterzee","municipality":"De Fryske Marren","state":"Fryslân","ISO3166-2-lvl4":"NL-FR","country":"Nederland","country_code":"nl"},"osm_type":"relation","osm_id":2660313,"type":"administrative","location":[5.7676701847570895,52.87121465],"bbox":[5.7251386,52.8473605,5.7987321,52.8949222],"inferred_type":"city"}
{"name":"Roermond","other_names":{"name:ar":"رورموند","name:fa":"رورموند","name:fr":"Ruremonde","name:la":"Ruremunda","name:li":"Remunj","name:nl":"Roermond","name:ru":"Рурмонд","name:zh-Hans":"鲁尔蒙德","name:zh-Hant":"魯爾蒙德","name:carnaval":"De Sjtad van Sjtuf"},"display_name":"Roermond, Limburg, Nederland","address":{"city":"Roermond","municipality":"Roermond","state":"Limburg","ISO3166-2-lvl4":"NL-LI","country":"Nederland","country_code":"nl"},"population":41225,"osm_type":"node","osm_id":3124096042,"type":"city","location":[5.9882649,51.1933903],"bbox":[5.8282649,51.0333903,6.1482649,51.3533903],"border":[{"name":"Roermond","other_names":{"name:ar":"رورموند","name:fa":"رورموند","name:la":"Ruremunda","name:li":"Remunj","name:nl":"Roermond"},"display_name":"Roermond, Limburg, Nederland","address":{"municipality":"Roermond","state":"Limburg","ISO3166-2-lvl4":"NL-LI","country":"Nederland","country_code":"nl"},"population":58260,"osm_type":"relation","osm_id":405146,"type":"administrative","location":[6.017502562991365,51.20866975],"bbox":[5.9166526,51.1587527,6.0860218,51.258683]},{"name":"Roermond","other_names":{"name:la":"Ruremunda","name:li":"Remunj","name:nl":"Roermond","name:ar":"رورموند","name:fa":"رورموند","name:fr":"Ruremonde","name:ru":"Рурмонд","name:zh-Hans":"鲁尔蒙德","name:zh-Hant":"魯爾蒙德","name:carnaval":"De Sjtad van Sjtuf"},"display_name":"Roermond, Limburg, Nederland","address":{"city":"Roermond","municipality":"Roermond","state":"Limburg","ISO3166-2-lvl4":"NL-LI","country":"Nederland","country_code":"nl"},"population":41225,"osm_type":"relation","osm_id":1414218,"type":"administrative","location":[5.9882649,51.1933903],"bbox":[5.9212473,51.1605423,6.0731414,51.2249911]}]}
{"name":"Rotterdam","other_names":{"name:am":"ሮተርዳም","name:ar":"روتردام","name:ba":"Роттердам","name:be":"Ротэрдам","name:bg":"Ротердам","name:bn":"রতারদাম","name:ce":"Роттердам","name:cv":"Роттердам","name:de":"Rotterdam","name:el":"Ρότερνταμ","name:en":"Rotterdam","name:eo":"Roterdamo","name:es":"Róterdam","name:fa":"روتردام","name:he":"רוטרדם","name:hi":"रॉटर्डम","name:hy":"Ռոտերդամ","name:ja":"ロッテルダム","name:ka":"როტერდამი","name:kk":"Роттердам","name:ko":"로테르담","name:ky":"Роттердам","name:la":"Roterodamum","name:lt":"Roterdamas","name:lv":"Roterdama","name:mk":"Ротердам","name:ml":"റോട്ടർഡാം","name:mn":"Роттердам","name:mr":"रॉटरडॅम","name:my":"ရော်တာဒမ်မြို့","name:nl":"Rotterdam","name:oc":"Rotterdam","name:os":"Роттердам","name:ps":"روتردام","name:pt":"Roterdão","name:ro":"Rotterdam","name:ru":"Роттердам","name:sq":"Roterdami","name:sr":"Ротердам","name:ta":"ராட்டர்டேம்","name:th":"รอตเทอร์ดาม","name:tt":"Роттердам","name:ug":"Rottérdam","name:uk":"Роттердам","name:ur":"روٹرڈم","name:yi":"ראטערדאם","name:zh":"鹿特丹","loc_name":"Maasstad","name:carnaval":"Dwalmdam"},"display_name":"Rotterdam, Zuid-Holland, Nederland","address":{"city":"Rotterdam","municipality":"Rotterdam","state":"Zuid-Holland","ISO3166-2-lvl4":"NL-ZH","country":"Nederland","country_code":"nl"},"population":572392,"osm_type":"node","osm_id":44410812,"type":"city","location":[4.47775,51.9244424],"bbox":[4.31775,51.7644424,4.63775,52.0844424],"border":[{"name":"Rotterdam","other_names":{"name:ar":"روتردام","name:el":"Ρότερνταμ","name:eo":"Roterdamo","name:es":"Róterdam","name:ja":"ロッテルダム","name:nl":"Rotterdam"},"display_name":"Rotterdam, Zuid-Holland, Nederland","address":{"municipality":"Rotterdam","state":"Zuid-Holland","ISO3166-2-lvl4":"NL-ZH","country":"Nederland","country_code":"nl"},"population":663900,"osm_type":"relation","osm_id":324431,"type":"administrative","location":[4.489568107470266,51.9233986],"bbox":[3.9407496,51.8421183,4.6018083,52.0045276]},{"name":"Rotterdam","other_names":{"name:ar":"روتردام","name:el":"Ρότερνταμ","name:eo":"Roterdamo","name:ja":"ロッテルダム","name:mk":"Ротердам","name:nl":"Rotterdam","name:am":"ሮተርዳም","name:ba":"Роттердам","name:be":"Ротэрдам","name:bg":"Ротердам","name:bn":"রতারদাম","name:ce":"Роттердам","name:cv":"Роттердам","name:de":"Rotterdam","name:en":"Rotterdam","name:es":"Róterdam","name:fa":"روتردام","name:he":"רוטרדם","name:hi":"रॉटर्डम","name:hy":"Ռոտերդամ","name:ka":"როტერდამი","name:kk":"Роттердам","name:ko":"로테르담","name:ky":"Роттердам","name:la":"Roterodamum","name:lt":"Roterdamas","name:lv":"Roterdama","name:ml":"റോട്ടർഡാം","name:mn":"Роттердам","name:mr":"रॉटरडॅम","name:my":"ရော်တာဒမ်မြို့","name:oc":"Rotterdam","name:os":"Роттердам","name:ps":"روتردام","name:pt":"Roterdão","name:ro":"Rotterdam","name:ru":"Роттердам","name:sq":"Roterdami","name:sr":"Ротердам","name:ta":"ராட்டர்டேம்","name:th":"รอตเทอร์ดาม","name:tt":"Роттердам","name:ug":"Rottérdam","name:uk":"Роттердам","name:ur":"روٹرڈم","name:yi":"ראטערדאם","name:zh":"鹿特丹","loc_name":"Maasstad","name:carnaval":"Dwalmdam"},"display_name":"Rotterdam, Zuid-Holland, Nederland","address":{"city":"Rotterdam","municipality":"Rotterdam","state":"Zuid-Holland","ISO3166-2-lvl4":"NL-ZH","country":"Nederland","country_code":"nl"},"population":572392,"osm_type":"relation","osm_id":1411101,"type":"administrative","location":[4.47775,51.9244424],"bbox":[4.3793095,51.8616672,4.6018083,51.9942816]}]}
{"name":"Tilburg","other_names":{"name:ar":"تيلبورخ","name:az":"Tilburq","name:be":"Тылбург","name:bg":"Тилбург","name:el":"Τίλμπουρχ","name:eo":"Tilburgo","name:es":"Tilburgo","name:fa":"تیلبورخ","name:fr":"Tilbourg","name:fy":"Tilburch","name:he":"טילבורך","name:hy":"Թիլբուրխ","name:ja":"ティルブルフ","name:ka":"ტილბურგი","name:ko":"틸뷔르흐","name:la":"Tillliburgis","name:lt":"Tilburgas","name:lv":"Tilburga","name:mk":"Тилбург","name:ml":"ടിൽബർഗ്","name:mn":"Тилбург","name:nl":"Tilburg","name:pt":"Tilburgo","name:ru":"Тилбург","name:sr":"Тилбург","name:th":"ติลบืร์ค","name:uk":"Тілбург","name:zh":"蒂尔堡","alt_name:la":"Tilia","name:zh-Hant":"蒂爾堡","name:carnaval":"Kruikenstad"},"display_name":"Tilburg, Noord-Brabant, Nederland","address":{"city":"Tilburg","municipality":"Tilburg","state":"Noord-Brabant","ISO3166-2-lvl4":"NL-NB","country":"Nederland","country_code":"nl"},"population":199128,"osm_type":"node","osm_id":1206763375,"type":"city","location":[5.0886014,51.5562404],"bbox":[4.9286014,51.3962404,5.2486014,51.7162404],"border":[{"name":"Tilburg","other_names":{"name:eo":"Tilburgo","name:fr":"Tilbourg","name:la":"Tillliburgis","name:nl":"Tilburg","alt_name:la":"Tilia"},"display_name":"Tilburg, Noord-Brabant, Nederland","address":{"municipality":"Tilburg","state":"Noord-Brabant","ISO3166-2-lvl4":"NL-NB","country":"Nederland","country_code":"nl"},"population":227707,"osm_type":"relation","osm_id":299231,"type":"administrative","location":[5.0660616131367675,51.58561845],"bbox":[4.947846,51.5295015,5.2107114,51.6416614]},{"name":"Tilburg","other_names":{"name:eo":"Tilburgo","name:fr":"Tilbourg","name:la":"Tillliburgis","name:nl":"Tilburg","alt_name:la":"Tilia","name:ar":"تيلبورخ","name:az":"Tilburq","name:be":"Тылбург","name:bg":"Тилбург","name:el":"Τίλμπουρχ","name:es":"Tilburgo","name:fa":"تیلبورخ","name:fy":"Tilburch","name:he":"טילבורך","name:hy":"Թիլբուրխ","name:ja":"ティルブルフ","name:ka":"ტილბურგი","name:ko":"틸뷔르흐","name:lt":"Tilburgas","name:lv":"Tilburga","name:mk":"Тилбург","name:ml":"ടിൽബർഗ്","name:mn":"Тилбург","name:pt":"Tilburgo","name:ru":"Тилбург","name:sr":"Тилбург","name:th":"ติลบืร์ค","name:uk":"Тілбург","name:zh":"蒂尔堡","name:zh-Hant":"蒂爾堡","name:carnaval":"Kruikenstad"},"display_name":"Tilburg, Noord-Brabant, Nederland","address":{"city":"Tilburg","municipality":"Tilburg","state":"Noord-Brabant","ISO3166-2-lvl4":"NL-NB","country":"Nederland","country_code":"nl"},"population":199128,"osm_type":"relation","osm_id":1411514,"type":"administrative","location":[5.0886014,51.5562404],"bbox":[4.947846,51.5295015,5.1354517,51.6178522]}]}
{"name":"Ursem","other_names":{"name:nl":"Ursem","alt_name":"Ursem"},"display_name":"Ursem, Alkmaar, Noord-Holland, Nederland","address":{"city":"Ursem","municipality":"Alkmaar","state":"Noord-Holland","ISO3166-2-lvl4":"NL-NH","country":"Nederland","country_code":"nl"},"osm_type":"relation","osm_id":300659,"type":"administrative","location":[4.872681195173094,52.62307925],"bbox":[4.8567071,52.6121164,4.8894143,52.6341126],"inferred_type":"city"}
{"name":"Utrecht","other_names":{"name:ar":"أوترخت","name:bg":"Утрехт","name:de":"Utrecht","name:el":"Ουτρέχτη","name:en":"Utrecht","name:eo":"Utreĥto","name:es":"Utrecht","name:fr":"Utrecht","name:fy":"Utert","name:he":"אוטרכט","name:hu":"Utrecht","name:ja":"ユトレヒト","name:lt":"Utrechtas","name:mk":"Утрехт","name:ml":"യൂട്രെക്റ്റ്","name:nl":"Utrecht","name:ro":"Utrecht","name:ru":"Утрехт","name:sr":"Утрехт","name:uk":"Утрехт","name:zh":"乌特勒支","name:nds":"Utrecht","alt_name:la":"Ultraiectum","name:zh-Hans":"乌特勒支","name:zh-Hant":"烏特勒支","name:carnaval":"Leemput","old_name:la:50-719":"Traiectum"},"display_name":"Utrecht, Nederland","address":{"city":"Utrecht","state":"Utrecht","ISO3166-2-lvl4":"NL-UT","country":"Nederland","country_code":"nl"},"population":295591,"osm_type":"node","osm_id":235861650,"type":"city","location":[5.1215634,52.0907006],"bbox":[4.9615634,51.9307006,5.2815634,52.2507006],"border":[{"name":"Utrecht","other_names":{"name:el":"Ουτρέχτη","name:eo":"Utreĥto","name:fy":"Utert","name:ko":"위트레흐트","name:nl":"Utrecht","name:ar":"أوترخت","name:bg":"Утрехт","name:de":"Utrecht","name:en":"Utrecht","name:es":"Utrecht","name:fr":"Utrecht","name:he":"אוטרכט","name:hu":"Utrecht","name:ja":"ユトレヒト","name:lt":"Utrechtas","name:mk":"Утрехт","name:ml":"യൂട്രെക്റ്റ്","name:ro":"Utrecht","name:ru":"Утрехт","name:sr":"Утрехт","name:uk":"Утрехт","name:zh":"乌特勒支","name:nds":"Utrecht","alt_name:la":"Ultraiectum","name:zh-Hans":"乌特勒支","name:zh-Hant":"烏特勒支","name:carnaval":"Leemput","old_name:la:50-719":"Traiectum"},"display_name":"Utrecht, Nederland","address":{"city":"Utrecht","state":"Utrecht","ISO3166-2-lvl4":"NL-UT","country":"Nederland","country_code":"nl"},"population":367947,"osm_type":"relation","osm_id":419203,"type":"administrative","location":[5.1215634,52.0907006],"bbox":[4.970096,52.026282,5.195155,52.1420506]},{"name":"Utrecht","other_names":{"name:el":"Ουτρέχτη","name:eo":"Utreĥto","name:fy":"Utert","name:nl":"Utrecht"},"display_name":"Utrecht, Nederland","address":{"city_district":"Utrecht","city":"Utrecht","state":"Utrecht","ISO3166-2-lvl4":"NL-UT","country":"Nederland","country_code":"nl"},"osm_type":"relation","osm_id":1433619,"type":"administrative","location":[5.12768396945229,52.080985600000005],"bbox":[5.0041822,52.026282,5.195155,52.1356715]}]}
{"name":"Venlo","other_names":{"name:ar":"فينلو","name:de":"Venlo","name:fy":"Fenlo","name:la":"Venlonum","name:ml":"വെൻലോ","name:ru":"Венло","name:sr":"Венло","name:uk":"Венло","name:zh":"文洛","name:nds":"Venlo","name:carnaval":"Jocus Riék"},"display_name":"Venlo, Limburg, Nederland, 5900, Nederland","address":{"city":"Venlo","municipality":"Venlo","state":"Limburg","ISO3166-2-lvl4":"NL-LI","country":"Nederland","postcode":"5900","country_code":"nl"},"population":64339,"osm_type":"node","osm_id":4774930013,"type":"city","location":[6.1688954,51.3702109],"bbox":[6.0088954,51.2102109,6.3288954,51.5302109],"border":[{"name":"Venlo","other_names":{"name:ar":"فينلو","name:nl":"Venlo"},"display_name":"Venlo, Limburg, Nederland","address":{"municipality":"Venlo","state":"Limburg","ISO3166-2-lvl4":"NL-LI","country":"Nederland","country_code":"nl"},"population":103328,"osm_type":"relation","osm_id":405106,"type":"administrative","location":[6.1511724144122955,51.39244885],"bbox":[6.0717807,51.277061,6.2267694,51.5078177]},{"name":"Venlo","other_names":{"name:nl":"Venlo","name:ar":"فينلو","name:de":"Venlo","name:fy":"Fenlo","name:la":"Venlonum","name:ml":"വെൻലോ","name:ru":"Венло","name:sr":"Венло","name:uk":"Венло","name:zh":"文洛","name:nds":"Venlo","name:carnaval":"Jocus Riék"},"display_name":"Venlo, Limburg, Nederland","address":{"city":"Venlo","municipality":"Venlo","state":"Limburg","ISO3166-2-lvl4":"NL-LI","country":"Nederland","country_code":"nl"},"population":64339,"osm_type":"relation","osm_id":1411822,"type":"administrative","location":[6.1688954,51.3702109],"bbox":[6.0717807,51.3335723,6.2267694,51.4213181]}]}
{"name":"Zevenbergschen Hoek","other_names":{"name:nl":"Zevenbergschen Hoek","alt_name":"Den Oek"},"display_name":"Zevenbergschen Hoek, Drimmelen, Noord-Brabant, Nederland","address":{"city":"Zevenbergschen Hoek","municipality":"Drimmelen","state":"Noord-Brabant","ISO3166-2-lvl4":"NL-NB","country":"Nederland","country_code":"nl"},"osm_type":"relation","osm_id":1576195,"type":"administrative","location":[4.7040024495754125,51.6649259],"bbox":[4.684903,51.6545928,4.7256633,51.6752392],"inferred_type":"city"}
{"name":"Zoetermeer","other_names":{"name:fy":"Soetermar","name:he":"זוטרמר","name:ja":"ズーテルメール","name:ko":"주테르메이르","name:lt":"Zutermeras","name:ml":"സൂട്ടർമേർ","name:nl":"Zoetermeer","name:ru":"Зутермер","name:sr":"Зутермер","name:uk":"Зутермер","name:zh":"祖特梅尔","name:zh-Hans":"祖特梅尔","name:zh-Hant":"祖特梅爾"},"display_name":"Zoetermeer, Zuid-Holland, Nederland","address":{"city":"Zoetermeer","state":"Zuid-Holland","ISO3166-2-lvl4":"NL-ZH","country":"Nederland","country_code":"nl"},"population":124780,"osm_type":"node","osm_id":868039529,"type":"city","location":[4.4901218,52.0622531],"bbox":[4.3301218,51.9022531,4.6501218,52.2222531],"border":[{"name":"Zoetermeer","other_names":{"name:nl":"Zoetermeer","name:fy":"Soetermar","name:he":"זוטרמר","name:ja":"ズーテルメール","name:ko":"주테르메이르","name:lt":"Zutermeras","name:ml":"സൂട്ടർമേർ","name:ru":"Зутермер","name:sr":"Зутермер","name:uk":"Зутермер","name:zh":"祖特梅尔","name:zh-Hans":"祖特梅尔","name:zh-Hant":"祖特梅爾"},"display_name":"Zoetermeer, Zuid-Holland, Nederland","address":{"city":"Zoetermeer","state":"Zuid-Holland","ISO3166-2-lvl4":"NL-ZH","country":"Nederland","country_code":"nl"},"population":126998,"osm_type":"relation","osm_id":444099,"type":"administrative","location":[4.4901218,52.0622531],"bbox":[4.4152309,52.0312806,4.5576864,52.0932903]},{"name":"Zoetermeer","display_name":"Zoetermeer, Zuid-Holland, Nederland","address":{"administrative":"Zoetermeer","city":"Zoetermeer","state":"Zuid-Holland","ISO3166-2-lvl4":"NL-ZH","country":"Nederland","country_code":"nl"},"osm_type":"relation","osm_id":295091,"type":"administrative","location":[4.487754536970652,52.06228915],"bbox":[4.4152309,52.0312806,4.5576864,52.0932903]}]}
{"name":"Zwolle","other_names":{"name:ar":"زفوله","name:az":"Zvolle","name:ba":"Зволле","name:be":"Зволе","name:bg":"Зволе","name:de":"Zwolle","name:el":"Ζβόλε","name:en":"Zwolle","name:es":"Zwolle","name:fa":"زووله","name:fr":"Zwolle","name:fy":"Swol","name:he":"זוולה","name:hy":"Զվոլե","name:ja":"ズヴォレ","name:ka":"ზვოლე","name:kk":"Зволле","name:ko":"즈볼러","name:la":"Suvolla","name:lt":"Zvolė","name:lv":"Zvolle","name:mk":"Зволе","name:ml":"സ്വൊല","name:mr":"झ्वोला","name:nl":"Zwolle","name:os":"Зволле","name:ps":"زووله","name:ru":"Зволле","name:sr":"Зволе","name:th":"ซโวลเลอ","name:tt":"Зволле","name:uk":"Зволле","name:ur":"زوولے","name:zh":"兹沃勒","name:nds":"Zwolle","name:zh-Hans":"兹沃勒","name:zh-Hant":"茲沃勒","name:carnaval":"Sassendonk"},"display_name":"Zwolle, Overijssel, Nederland","address":{"city":"Zwolle","state":"Overijssel","ISO3166-2-lvl4":"NL-OV","country":"Nederland","country_code":"nl"},"population":124505,"osm_type":"node","osm_id":235886826,"type":"city","location":[6.0943765,52.5089759],"bbox":[5.9343765,52.3489759,6.2543765,52.6689759],"border":[{"name":"Zwolle","other_names":{"name:nl":"Zwolle","name:ar":"زفوله","name:az":"Zvolle","name:ba":"Зволле","name:be":"Зволе","name:bg":"Зволе","name:de":"Zwolle","name:el":"Ζβόλε","name:en":"Zwolle","name:es":"Zwolle","name:fa":"زووله","name:fr":"Zwolle","name:fy":"Swol","name:he":"זוולה","name:hy":"Զվոլե","name:ja":"ズヴォレ","name:ka":"ზვოლე","name:kk":"Зволле","name:ko":"즈볼러","name:la":"Suvolla","name:lt":"Zvolė","name:lv":"Zvolle","name:mk":"Зволе","name:ml":"സ്വൊല","name:mr":"झ्वोला","name:os":"Зволле","name:ps":"زووله","name:ru":"Зволле","name:sr":"Зволе","name:th":"ซโวลเลอ","name:tt":"Зволле","name:uk":"Зволле","name:ur":"زوولے","name:zh":"兹沃勒","name:nds":"Zwolle","name:zh-Hans":"兹沃勒","name:zh-Hant":"茲沃勒","name:carnaval":"Sassendonk"},"display_name":"Zwolle, Overijssel, Nederland","address":{"city":"Zwolle","state":"Overijssel","ISO3166-2-lvl4":"NL-OV","country":"Nederland","country_code":"nl"},"population":132411,"osm_type":"relation","osm_id":414720,"type":"administrative","location":[6.0943765,52.5089759],"bbox":[6.0036191,52.4405307,6.2108108,52.5879404]},{"name":"Zwolle","display_name":"Zwolle, Overijssel, Nederland","address":{"administrative":"Zwolle","state":"Overijssel","ISO3166-2-lvl4":"NL-OV","country":"Nederland","country_code":"nl"},"osm_type":"relation","osm_id":1433721,"type":"administrative","location":[6.097720359677693,52.514565250000004],"bbox":[6.0036191,52.4405307,6.2108108,52.5879404]}]}
