{"name":"Ålesund","other_names":{"name:is":"Álasund","name:ru":"Олесунн","name:uk":"Олесунн"},"display_name":"Ålesund, Møre og Romsdal, 6004, Norge","address":{"city":"Ålesund","municipality":"Ålesund","county":"Møre og Romsdal","ISO3166-2-lvl4":"NO-15","postcode":"6004","country":"Norge","country_code":"no"},"population":55684,"osm_type":"node","osm_id":31264149,"type":"city","location":[6.1551755,62.4711412],"bbox":[5.9951755,62.3111412,6.3151755,62.6311412],"border":{"name":"Ålesund","other_names":{"ref":"1508","name:is":"Álasund"},"display_name":"Ålesund, Møre og Romsdal, Norge","address":{"municipality":"Ålesund","county":"Møre og Romsdal","ISO3166-2-lvl4":"NO-15","country":"Norge","country_code":"no"},"population":59198,"osm_type":"relation","osm_id":16873323,"type":"administrative","location":[6.555073940277875,62.48023635],"bbox":[5.8878228,62.3943575,7.1204593,63.0913315]}}
{"name":"Arendal","other_names":{"name:is":"Arnardalur","name:ru":"Арендал","name:zh":"阿伦达尔"},"display_name":"Arendal, Agder, 4836, Norge","address":{"city":"Arendal","municipality":"Arendal","county":"Agder","ISO3166-2-lvl4":"NO-42","postcode":"4836","country":"Norge","country_code":"no"},"population":45332,"osm_type":"node","osm_id":31264073,"type":"city","location":[8.765288,58.4600196],"bbox":[8.605288,58.3000196,8.925288,58.6200196],"border":{"name":"Arendal","other_names":{"ref":"4203","name:is":"Arnardalur","old_ref":"0906"},"display_name":"Arendal, Agder, Norge","address":{"municipality":"Arendal","county":"Agder","ISO3166-2-lvl4":"NO-42","country":"Norge","country_code":"no"},"population":46568,"osm_type":"relation","osm_id":406036,"type":"administrative","location":[8.94694911492874,58.42673005],"bbox":[8.4997466,58.2502715,9.3640875,58.603528]}}
{"name":"Bergen","other_names":{"name:am":"በርግን","name:an":"Bergen","name:ar":"برغن","name:be":"Берген","name:bg":"Берген","name:bn":"বার্গেন","name:br":"Bergen","name:ce":"Берген","name:de":"Bergen","name:el":"Μπέργκεν","name:eo":"Bergen","name:fa":"برگن","name:fr":"Bergen","name:fy":"Bergen","name:gd":"A' Bheirbh","name:gu":"બર્ગેન","name:he":"ברגן","name:hi":"बर्गेन","name:hu":"Bergen","name:hy":"Բերգեն","name:ie":"Bergen","name:is":"Björgvin","name:ja":"ベルゲン","name:ka":"ბერგენი","name:ko":"베르겐","name:la":"Berga","name:lb":"Bergen","name:li":"Bergen","name:lt":"Bergenas","name:lv":"Bergena","name:mk":"Берген","name:mr":"बार्गन","name:mt":"Bergen","name:nl":"Bergen","name:os":"Берген","name:ps":"برګين","name:ro":"Bergen","name:ru":"Берген","name:se":"Birgon","name:sr":"Берген","name:ta":"பேர்கன்","name:te":"బర్గెన్","name:th":"บาร์เกิน","name:tr":"Bergen","name:tt":"Берген","name:uk":"Берген","name:ur":"برگن","name:vo":"Bergen","name:zh":"卑爾根","name:gsw":"Barje","old_name":"Bjørgvin","alt_name:ar":"برجن","alt_name:gd":"A' Bhoirbh;Beirbhe;Boirbhe","name:zh-Hans":"卑尔根","name:zh-Hant":"卑爾根"},"display_name":"Bergen, Vestland, Norge","address":{"city":"Bergen","municipality":"Bergen","county":"Vestland","ISO3166-2-lvl4":"NO-46","country":"Norge","country_code":"no"},"population":272125,"osm_type":"node","osm_id":21261083,"type":"city","location":[5.3259192,60.3943055],"bbox":[5.1659192,60.2343055,5.4859192,60.5543055],"border":{"name":"Bergen","other_names":{"ref":"4601","name:ar":"برغن","name:el":"Μπέργκεν","name:gd":"A' Bheirbh","name:nn":"Bergen","name:no":"Bergen","name:ps":"برګين","old_ref":"1201","name:fkv":"Peruna","alt_name:ar":"برجن","alt_name:gd":"A' Bhoirbh;Beirbhe;Boirbhe","name:am":"በርግን","name:an":"Bergen","name:be":"Берген","name:bg":"Берген","name:bn":"বার্গেন","name:br":"Bergen","name:ce":"Берген","name:de":"Bergen","name:eo":"Bergen","name:fa":"برگن","name:fr":"Bergen","name:fy":"Bergen","name:gu":"બર્ગેન","name:he":"ברגן","name:hi":"बर्गेन","name:hu":"Bergen","name:hy":"Բերգեն","name:ie":"Bergen","name:is":"Björgvin","name:ja":"ベルゲン","name:ka":"ბერგენი","name:ko":"베르겐","name:la":"Berga","name:lb":"Bergen","name:li":"Bergen","name:lt":"Bergenas","name:lv":"Bergena","name:mk":"Берген","name:mr":"बार्गन","name:mt":"Bergen","name:nl":"Bergen","name:os":"Берген","name:ro":"Bergen","name:ru":"Берген","name:se":"Birgon","name:sr":"Берген","name:ta":"பேர்கன்","name:te":"బర్గెన్","name:th":"บาร์เกิน","name:tr":"Bergen","name:tt":"Берген","name:uk":"Берген","name:ur":"برگن","name:vo":"Bergen","name:zh":"卑爾根","name:gsw":"Barje","old_name":"Bjørgvin","name:zh-Hans":"卑尔根","name:zh-Hant":"卑爾根"},"display_name":"Bergen, Vestland, Norge","address":{"municipality":"Bergen","county":"Vestland","ISO3166-2-lvl4":"NO-46","country":"Norge","country_code":"no"},"population":293709,"osm_type":"relation","osm_id":404159,"type":"administrative","location":[5.3259192,60.3943055],"bbox":[5.1445788,60.1760905,5.6867918,60.5360925]}}
{"name":"Bodø","other_names":{"name:be":"Будзё","name:bg":"Будьо","name:de":"Bodø","name:fr":"Bodø","name:ja":"ボードー","name:ko":"보되","name:lt":"Budė","name:mk":"Боде","name:no":"Bodø","name:os":"Будё","name:ru":"Будё","name:se":"Budejju","name:sr":"Боде","name:uk":"Буде","name:zh":"博德","name:bpy":"বোডা","name:gsw":"Bodö","name:pnb":"بوڈو","name:sje":"Buvdda","name:smj":"Bådåddjo","old_name":"Hundholmen","name:bat-smg":"Bodė","name:be-tarask":"Будэ"},"display_name":"Bodø, Nordland, Norge","address":{"city":"Bodø","municipality":"Bodø","county":"Nordland","ISO3166-2-lvl4":"NO-18","country":"Norge","country_code":"no"},"population":43322,"osm_type":"node","osm_id":1773877380,"type":"city","location":[14.3817503,67.2844313],"bbox":[14.2217503,67.1244313,14.5417503,67.4444313],"border":{"name":"Bodø","other_names":{"ref":"1804","name:sma":"Budejju","name:be":"Будзё","name:bg":"Будьо","name:de":"Bodø","name:fr":"Bodø","name:ja":"ボードー","name:ko":"보되","name:lt":"Budė","name:mk":"Боде","name:no":"Bodø","name:os":"Будё","name:ru":"Будё","name:se":"Budejju","name:sr":"Боде","name:uk":"Буде","name:zh":"博德","name:bpy":"বোডা","name:gsw":"Bodö","name:pnb":"بوڈو","name:sje":"Buvdda","name:smj":"Bådåddjo","old_name":"Hundholmen","name:bat-smg":"Bodė","name:be-tarask":"Будэ"},"display_name":"Bodø, Nordland, Norge","address":{"municipality":"Bodø","county":"Nordland","ISO3166-2-lvl4":"NO-18","country":"Norge","country_code":"no"},"population":53725,"osm_type":"relation","osm_id":409037,"type":"administrative","location":[14.3817503,67.2844313],"bbox":[12.7299708,66.9205542,15.364907,67.6996192]}}
{"name":"Drammen","other_names":{"name:no":"Drammen","name:ps":"درامين","name:ru":"Драммен","name:zh":"德拉门"},"display_name":"Drammen, Buskerud, 3017, Norge","address":{"city":"Drammen","municipality":"Drammen","county":"Buskerud","ISO3166-2-lvl4":"NO-33","postcode":"3017","country":"Norge","country_code":"no"},"population":124540,"osm_type":"node","osm_id":31264080,"type":"city","location":[10.2043644,59.7436802],"bbox":[10.0443644,59.5836802,10.3643644,59.9036802],"border":{"name":"Drammen","other_names":{"ref":"3301","alt_name":"Municipality of Drammen"},"display_name":"Drammen, Buskerud, Norge","address":{"municipality":"Drammen","county":"Buskerud","ISO3166-2-lvl4":"NO-33","country":"Norge","country_code":"no"},"population":105452,"osm_type":"relation","osm_id":10483726,"type":"administrative","location":[10.175641950012762,59.6964936],"bbox":[9.9432166,59.5304326,10.4244968,59.8625436]}}
{"name":"Fredrikstad","other_names":{"name:no":"Fredrikstad","name:ru":"Фредрикстад"},"display_name":"Fredrikstad, Østfold, 1607, Norge","address":{"city":"Fredrikstad","municipality":"Fredrikstad","county":"Østfold","ISO3166-2-lvl4":"NO-31","postcode":"1607","country":"Norge","country_code":"no"},"population":71296,"osm_type":"node","osm_id":31264088,"type":"city","location":[10.9361604,59.2133614],"bbox":[10.7761604,59.0533614,11.0961604,59.3733614],"border":{"name":"Fredrikstad","other_names":{"ref":"3107","old_ref":"0106"},"display_name":"Fredrikstad, Østfold, Norge","address":{"municipality":"Fredrikstad","county":"Østfold","ISO3166-2-lvl4":"NO-31","country":"Norge","country_code":"no"},"population":85862,"osm_type":"relation","osm_id":406077,"type":"administrative","location":[10.868024107971442,59.186201249999996],"bbox":[10.6050122,59.0448769,11.1307181,59.3240315]}}
{"name":"Hamar","other_names":{"name:ps":"هامار"},"display_name":"Hamar, Innlandet, 2317, Norge","address":{"city":"Hamar","municipality":"Hamar","county":"Innlandet","ISO3166-2-lvl4":"NO-34","postcode":"2317","country":"Norge","country_code":"no"},"population":30030,"osm_type":"node","osm_id":29880578,"type":"city","location":[11.0680555,60.7947205],"bbox":[10.9080555,60.6347205,11.2280555,60.9547205],"border":{"name":"Hamar","other_names":{"ref":"3403","name:ps":"هامار","old_ref":"0403","alt_name:ps":"هامار"},"display_name":"Hamar, Innlandet, Norge","address":{"municipality":"Hamar","county":"Innlandet","ISO3166-2-lvl4":"NO-34","country":"Norge","country_code":"no"},"population":33441,"osm_type":"relation","osm_id":410882,"type":"administrative","location":[11.16479641006573,61.0014937],"bbox":[10.9809795,60.7689841,11.2796864,61.2360447]}}
{"name":"Haugesund","other_names":{"name:is":"Haugasund","name:ru":"Хёугесунн"},"display_name":"Haugesund, Rogaland, 5527, Norge","address":{"city":"Haugesund","municipality":"Haugesund","county":"Rogaland","ISO3166-2-lvl4":"NO-11","postcode":"5527","country":"Norge","country_code":"no"},"population":47020,"osm_type":"node","osm_id":21717610,"type":"city","location":[5.2681249,59.413807],"bbox":[5.1081249,59.253807,5.4281249,59.573807],"border":{"name":"Haugesund","other_names":{"ref":"1106"},"display_name":"Haugesund, Rogaland, Norge","address":{"municipality":"Haugesund","county":"Rogaland","ISO3166-2-lvl4":"NO-11","country":"Norge","country_code":"no"},"population":38441,"osm_type":"relation","osm_id":405834,"type":"administrative","location":[5.082761213563481,59.46824785],"bbox":[4.5689183,59.3831214,5.3972594,59.5581632]}}
{"name":"Kristiansand","other_names":{"name:is":"Kristjánssandur","name:lt":"Kristiansandas","name:lv":"Krisjānsanna","name:ps":"کريستيان ساند","name:ru":"Кристиансанн","name:zh":"克里斯蒂安桑","alt_name":"Kristiansand S"},"display_name":"Kristiansand, Agder, 4611, Norge","address":{"city":"Kristiansand","municipality":"Kristiansand","county":"Agder","ISO3166-2-lvl4":"NO-42","postcode":"4611","country":"Norge","country_code":"no"},"population":67372,"osm_type":"node","osm_id":31264100,"type":"city","location":[7.9957333,58.14615],"bbox":[7.8357333,57.98615,8.1557333,58.30615],"border":{"name":"Kristiansand","other_names":{"ref":"4204","name:ps":"کريستيان ساند","alt_name":"Kristiansand S"},"display_name":"Kristiansand, Agder, Norge","address":{"municipality":"Kristiansand","county":"Agder","ISO3166-2-lvl4":"NO-42","country":"Norge","country_code":"no"},"population":118221,"osm_type":"relation","osm_id":10152440,"type":"administrative","location":[7.93185802875815,58.085627599999995],"bbox":[7.5272986,57.8020345,8.3716803,58.3689526]}}
{"name":"Moss","other_names":{"name:ru":"Мосс","name:zh":"莫斯"},"display_name":"Moss, Østfold, 1531, Norge","address":{"city":"Moss","municipality":"Moss","county":"Østfold","ISO3166-2-lvl4":"NO-31","postcode":"1531","country":"Norge","country_code":"no"},"population":50214,"osm_type":"node","osm_id":31264121,"type":"city","location":[10.6619753,59.4347974],"bbox":[10.5019753,59.2747974,10.8219753,59.5947974],"border":{"name":"Moss","other_names":{"ref":"3103"},"display_name":"Moss, Østfold, Norge","address":{"municipality":"Moss","county":"Østfold","ISO3166-2-lvl4":"NO-31","country":"Norge","country_code":"no"},"population":52646,"osm_type":"relation","osm_id":10155463,"type":"administrative","location":[10.659657776223916,59.414667449999996],"bbox":[10.5366786,59.2938793,10.8207674,59.5345809]}}
{"name":"Oslo","other_names":{"name:am":"ኦስሎ","name:ar":"أوسلو","name:av":"Осло","name:ba":"Осло","name:be":"Осла","name:bg":"Осло","name:bh":"ओस्लो","name:bn":"অসলো","name:bo":"ཨོ་སི་ལོ།","name:br":"Oslo","name:ca":"Oslo","name:ce":"Осло","name:co":"Oslu","name:cu":"Осло","name:cv":"Осло","name:de":"Oslo","name:el":"Όσλο","name:en":"Oslo","name:eo":"Oslo","name:es":"Oslo","name:fa":"اسلو","name:fr":"Oslo","name:ga":"Osló","name:gu":"ઓસ્લો","name:he":"אוסלו","name:hi":"ओस्लो","name:hu":"Oslo","name:hy":"Օսլո","name:is":"Ósló","name:it":"Oslo","name:ja":"オスロ","name:ka":"ოსლო","name:kk":"Осло","name:ko":"오슬로","name:ku":"Oslo","name:kv":"Осло","name:ky":"Осло","name:la":"Asloa","name:lt":"Oslas","name:mi":"Ōhoro","name:mk":"Осло","name:ml":"ഓസ്ലൊ","name:mn":"Осло","name:mr":"ओस्लो","name:my":"အော့စလိုမြို့","name:ne":"ओस्लो","name:nn":"Oslo","name:no":"Oslo","name:nv":"Tsį́į́haltsooí","name:oc":"Òslo","name:os":"Осло","name:pa":"ਓਸਲੋ","name:pl":"Oslo","name:ps":"اوسلو","name:pt":"Oslo","name:qu":"Uslu","name:ro":"Oslo","name:ru":"Осло","name:sd":"اوسلو","name:sr":"Осло","name:sv":"Oslo","name:ta":"ஒஸ்லோ","name:te":"ఓస్లో","name:tg":"Осло","name:th":"ออสโล","name:tr":"Oslo","name:tt":"Осло","name:ug":"ئوسلو","name:uk":"Осло","name:ur":"اوسلو","name:yi":"אסלא","name:zh":"奧斯陸","name:arc":"ܐܘܣܠܘ","name:ast":"Oslo","name:bpy":"ওসলো","name:ckb":"ئۆسلۆ","name:gsw":"Oslo","name:lez":"Осло","name:lzh":"奧斯陸","name:mrj":"Осло","name:myv":"Осло ош","name:mzn":"اسلو","name:nds":"Oslo","name:pms":"Òslo","name:pnb":"اوسلو","name:sah":"Осло","name:scn":"Oslu","name:sma":"Oslove","name:sme":"Oslove","name:smj":"Oslove","name:udm":"Осло","name:yue":"奧斯陸","old_name:cs":"Kristiania","old_name:en":"Christiania","name:bat-smg":"Uoslos","name:zh-Hans":"奥斯陆","name:be-tarask":"Осьлё","old_name:1624-1924":"Christiania"},"display_name":"Oslo, Norge","address":{"city":"Oslo","county":"Oslo","ISO3166-2-lvl4":"NO-03","country":"Norge","country_code":"no"},"population":1098061,"osm_type":"node","osm_id":20981158,"type":"city","location":[10.7389701,59.9133301],"bbox":[10.5789701,59.7533301,10.8989701,60.0733301],"border":[{"name":"Oslo","other_names":{"ref":"03","name:bg":"Осло","name:en":"Oslo","name:eo":"Oslo","name:ko":"오슬로","name:no":"Oslo","name:pt":"Oslo","name:ro":"Oslo","name:ru":"Осло","alt_name":"Oslo fylke","ISO3166-2":"NO-03","name:am":"ኦስሎ","name:ar":"أوسلو","name:av":"Осло","name:ba":"Осло","name:be":"Осла","name:bh":"ओस्लो","name:bn":"অসলো","name:bo":"ཨོ་སི་ལོ།","name:br":"Oslo","name:ca":"Oslo","name:ce":"Осло","name:co":"Oslu","name:cu":"Осло","name:cv":"Осло","name:de":"Oslo","name:el":"Όσλο","name:es":"Oslo","name:fa":"اسلو","name:fr":"Oslo","name:ga":"Osló","name:gu":"ઓસ્લો","name:he":"אוסלו","name:hi":"ओस्लो","name:hu":"Oslo","name:hy":"Օսլո","name:is":"Ósló","name:it":"Oslo","name:ja":"オスロ","name:ka":"ოსლო","name:kk":"Осло","name:ku":"Oslo","name:kv":"Осло","name:ky":"Осло","name:la":"Asloa","name:lt":"Oslas","name:mi":"Ōhoro","name:mk":"Осло","name:ml":"ഓസ്ലൊ","name:mn":"Осло","name:mr":"ओस्लो","name:my":"အော့စလိုမြို့","name:ne":"ओस्लो","name:nn":"Oslo","name:nv":"Tsį́į́haltsooí","name:oc":"Òslo","name:os":"Осло","name:pa":"ਓਸਲੋ","name:pl":"Oslo","name:ps":"اوسلو","name:qu":"Uslu","name:sd":"اوسلو","name:sr":"Осло","name:sv":"Oslo","name:ta":"ஒஸ்லோ","name:te":"ఓస్లో","name:tg":"Осло","name:th":"ออสโล","name:tr":"Oslo","name:tt":"Осло","name:ug":"ئوسلو","name:uk":"Осло","name:ur":"اوسلو","name:yi":"אסלא","name:zh":"奧斯陸","name:arc":"ܐܘܣܠܘ","name:ast":"Oslo","name:bpy":"ওসলো","name:ckb":"ئۆسلۆ","name:gsw":"Oslo","name:lez":"Осло","name:lzh":"奧斯陸","name:mrj":"Осло","name:myv":"Осло ош","name:mzn":"اسلو","name:nds":"Oslo","name:pms":"Òslo","name:pnb":"اوسلو","name:sah":"Осло","name:scn":"Oslu","name:sma":"Oslove","name:sme":"Oslove","name:smj":"Oslove","name:udm":"Осло","name:yue":"奧斯陸","old_name:cs":"Kristiania","old_name:en":"Christiania","name:bat-smg":"Uoslos","name:zh-Hans":"奥斯陆","name:be-tarask":"Осьлё","old_name:1624-1924":"Christiania"},"display_name":"Oslo, Norge","address":{"county":"Oslo","ISO3166-2-lvl4":"NO-03","country":"Norge","country_code":"no"},"population":1098061,"osm_type":"relation","osm_id":406091,"type":"administrative","location":[10.7389701,59.9133301],"bbox":[10.4891652,59.8093113,10.9513894,60.1351064]},{"name":"Oslo","other_names":{"ref":"0301","name:ru":"Осло"},"display_name":"Oslo, Norge","address":{"municipality":"Oslo","city":"Oslo","ISO3166-2-lvl4":"NO-03","country":"Norge","country_code":"no"},"population":724290,"osm_type":"relation","osm_id":2775550,"type":"administrative","location":[10.775729194051895,59.97239745],"bbox":[10.4891652,59.8093113,10.9513894,60.1351064]}]}
{"name":"Porsgrunn","other_names":{"name:is":"Porsgrund","name:ru":"Порсгрунн"},"display_name":"Porsgrunn, Telemark, 3915, Norge","address":{"city":"Porsgrunn","municipality":"Porsgrunn","county":"Telemark","ISO3166-2-lvl4":"NO-40","postcode":"3915","country":"Norge","country_code":"no"},"population":34903,"osm_type":"node","osm_id":31264126,"type":"city","location":[9.6562495,59.140759],"bbox":[9.4962495,58.980759,9.8162495,59.300759],"border":{"name":"Porsgrunn","other_names":{"ref":"4001","name:is":"Porsgrund","old_ref":"0805"},"display_name":"Porsgrunn, Telemark, Norge","address":{"municipality":"Porsgrunn","county":"Telemark","ISO3166-2-lvl4":"NO-40","country":"Norge","country_code":"no"},"population":37289,"osm_type":"relation","osm_id":405171,"type":"administrative","location":[9.736353765927529,59.103735],"bbox":[9.6063317,58.9978122,9.8964165,59.2092317]}}
{"name":"Sandefjord","other_names":{"name:ru":"Саннефьорд"},"display_name":"Sandefjord, Vestfold, 3210, Norge","address":{"city":"Sandefjord","municipality":"Sandefjord","county":"Vestfold","ISO3166-2-lvl4":"NO-39","postcode":"3210","country":"Norge","country_code":"no"},"population":46926,"osm_type":"node","osm_id":31264134,"type":"city","location":[10.2255602,59.1300112],"bbox":[10.0655602,58.9700112,10.3855602,59.2900112],"border":{"name":"Sandefjord","other_names":{"ref":"3907","name:is":"Sandar","old_ref":"0710"},"display_name":"Sandefjord, Vestfold, Norge","address":{"municipality":"Sandefjord","county":"Vestfold","ISO3166-2-lvl4":"NO-39","country":"Norge","country_code":"no"},"population":66758,"osm_type":"relation","osm_id":404592,"type":"administrative","location":[10.28043216859497,59.07990035],"bbox":[9.9925625,58.7712773,10.3812932,59.3885175]}}
{"name":"Sandnes","other_names":{"name:no":"Sandnes","name:ru":"Саннес"},"display_name":"Sandnes, Rogaland, 4306, Norge","address":{"city":"Sandnes","municipality":"Sandnes","county":"Rogaland","ISO3166-2-lvl4":"NO-11","postcode":"4306","country":"Norge","country_code":"no"},"population":66963,"osm_type":"node","osm_id":305653806,"type":"city","location":[5.737547,58.8519701],"bbox":[5.577547,58.6919701,5.897547,59.0119701],"border":{"name":"Sandnes","other_names":{"ref":"1108"},"display_name":"Sandnes, Rogaland, Norge","address":{"municipality":"Sandnes","county":"Rogaland","ISO3166-2-lvl4":"NO-11","country":"Norge","country_code":"no"},"population":84908,"osm_type":"relation","osm_id":10150660,"type":"administrative","location":[6.394641047340787,58.983132049999995],"bbox":[5.6097063,58.7768064,6.9391726,59.1925893]}}
{"name":"Sarpsborg","other_names":{"name:ru":"Сарпсборг"},"display_name":"Sarpsborg, Østfold, 1707, Norge","address":{"city":"Sarpsborg","municipality":"Sarpsborg","county":"Østfold","ISO3166-2-lvl4":"NO-31","postcode":"1707","country":"Norge","country_code":"no"},"population":50383,"osm_type":"node","osm_id":31264130,"type":"city","location":[11.1096115,59.2838792],"bbox":[10.9496115,59.1238792,11.2696115,59.4438792],"border":{"name":"Sarpsborg","other_names":{"ref":"3105","old_ref":"0105"},"display_name":"Sarpsborg, Østfold, Norge","address":{"municipality":"Sarpsborg","county":"Østfold","ISO3166-2-lvl4":"NO-31","country":"Norge","country_code":"no"},"population":60139,"osm_type":"relation","osm_id":406078,"type":"administrative","location":[11.229781140849298,59.254955],"bbox":[10.9477581,59.0926181,11.3480427,59.4172717]}}
{"name":"Skien","other_names":{"name:is":"Skiðan","name:ru":"Шиен","name:zh":"希恩"},"display_name":"Skien, Telemark, 3717, Norge","address":{"city":"Skien","municipality":"Skien","county":"Telemark","ISO3166-2-lvl4":"NO-40","postcode":"3717","country":"Norge","country_code":"no"},"population":51273,"osm_type":"node","osm_id":31264139,"type":"city","location":[9.607544,59.2091003],"bbox":[9.447544,59.0491003,9.767544,59.3691003],"border":{"name":"Skien","other_names":{"ref":"4003","name:is":"Skiðan","old_ref":"0806"},"display_name":"Skien, Telemark, Norge","address":{"municipality":"Skien","county":"Telemark","ISO3166-2-lvl4":"NO-40","country":"Norge","country_code":"no"},"population":56866,"osm_type":"relation","osm_id":405166,"type":"administrative","location":[9.531135447537467,59.2662883],"bbox":[9.227647,59.0452565,9.7797042,59.4872544]}}
{"name":"Stavanger","other_names":{"name:ar":"ستافانغر","name:fr":"Stavanger","name:is":"Stafangur","name:ps":"ستوانګر","name:ru":"Ставангер","name:uk":"Ставангер","name:zh":"斯塔萬格","name:gsw":"Stavànger","alt_name:ar":"ستافانجر"},"display_name":"Stavanger, Rogaland, Norge","address":{"city":"Stavanger","municipality":"Stavanger","county":"Rogaland","ISO3166-2-lvl4":"NO-11","country":"Norge","country_code":"no"},"population":239055,"osm_type":"node","osm_id":30421326,"type":"city","location":[5.7318101,58.9699675],"bbox":[5.5718101,58.8099675,5.8918101,59.1299675],"border":{"name":"Stavanger","other_names":{"ref":"1103","name:is":"Stafangur","name:ps":"ستوانګر","name:ar":"ستافانغر","name:fr":"Stavanger","name:ru":"Ставангер","name:uk":"Ставангер","name:zh":"斯塔萬格","name:gsw":"Stavànger","alt_name:ar":"ستافانجر"},"display_name":"Stavanger, Rogaland, Norge","address":{"municipality":"Stavanger","county":"Rogaland","ISO3166-2-lvl4":"NO-11","country":"Norge","country_code":"no"},"population":150123,"osm_type":"relation","osm_id":10150658,"type":"administrative","location":[5.7318101,58.9699675],"bbox":[5.499034,58.8846585,6.1313107,59.3121017]}}
{"name":"Tønsberg","other_names":{"name:ru":"Тёнсберг"},"display_name":"Tønsberg, Vestfold, 3126, Norge","address":{"city":"Tønsberg","municipality":"Tønsberg","county":"Vestfold","ISO3166-2-lvl4":"NO-39","postcode":"3126","country":"Norge","country_code":"no"},"population":55939,"osm_type":"node","osm_id":31264143,"type":"city","location":[10.4080715,59.2677363],"bbox":[10.2480715,59.1077363,10.5680715,59.4277363],"border":{"name":"Tønsberg","other_names":{"ref":"3905","name:is":"Túnsberg"},"display_name":"Tønsberg, Vestfold, Norge","address":{"municipality":"Tønsberg","county":"Vestfold","ISO3166-2-lvl4":"NO-39","country":"Norge","country_code":"no"},"population":59830,"osm_type":"relation","osm_id":10152542,"type":"administrative","location":[10.282049110877239,59.3549795],"bbox":[10.042614,59.2275836,10.590795,59.4824534]}}
{"name":"Tromsø","other_names":{"name:de":"Tromsö","name:fi":"Tromssa","name:fr":"Tromsø","name:lt":"Trumsė","name:lv":"Tromse","name:no":"Tromsø","name:ru":"Тромсё","name:se":"Romsa","name:tr":"Tromso","name:zh":"特羅姆瑟","name:fkv":"Tromssa","name:gsw":"Tromsö","name:zh-Hans":"特罗姆瑟"},"display_name":"Tromsø, Troms, Norge","address":{"city":"Tromsø","municipality":"Tromsø","county":"Troms","ISO3166-2-lvl4":"NO-55","country":"Norge","country_code":"no"},"population":42782,"osm_type":"node","osm_id":3554636995,"type":"city","location":[18.9558585,69.6516345],"bbox":[18.7958585,69.4916345,19.1158585,69.8116345],"border":{"name":"Tromsø","other_names":{"ref":"5501","name:ar":"ترومسو","name:fi":"Tromssa","name:he":"טרומסה","name:ja":"トロムソ","name:ko":"트롬쇠","name:la":"Tromsonda","name:lt":"Trumsė","name:lv":"Trumse","name:no":"Tromsø","name:ru":"Тромсё","name:se":"Romsa","name:th":"ทรมเซอ","name:zh":"特罗姆瑟","old_ref":"1902","name:pnb":"ٹرومسو","alt_name:se":"Tromsa","name:de":"Tromsö","name:fr":"Tromsø","name:tr":"Tromso","name:fkv":"Tromssa","name:gsw":"Tromsö","name:zh-Hans":"特罗姆瑟","alt:lv":"Tromse","alt:zh":"特羅姆瑟"},"display_name":"Tromsø, Troms, Norge","address":{"municipality":"Tromsø","county":"Troms","ISO3166-2-lvl4":"NO-55","country":"Norge","country_code":"no"},"population":79421,"osm_type":"relation","osm_id":407754,"type":"administrative","location":[18.9558585,69.6516345],"bbox":[17.1600465,69.2820889,20.0436387,70.1684167]}}
{"name":"Trondheim","other_names":{"name:ar":"تروندهايم","name:de":"Trondheim","name:fr":"Trondheim","name:is":"Þrándheimur","name:lt":"Trondheimas","name:lv":"Trondheima","name:no":"Trondheim","name:ru":"Тронхейм","name:se":"Troandin","name:sr":"Трондхејм","name:sv":"Trondheim","name:zh":"特隆赫姆","name:bpy":"ট্রোনডেহিম","name:gsw":"Trondheim","name:sma":"Tråante","name:smj":"Tråante","old_name":"Kaupangen;Nidaros;Throndhjem;Trondhjem","alt_name:ar":"ترونديم","old_name:de":"Drontheim","old_name:is":"Niðarós"},"display_name":"Trondheim, Trøndelag, Norge","address":{"city":"Trondheim","municipality":"Trondheim","county":"Trøndelag","ISO3166-2-lvl4":"NO-50","country":"Norge","country_code":"no"},"population":198777,"osm_type":"node","osm_id":31264142,"type":"city","location":[10.3952118,63.4304475],"bbox":[10.2352118,63.2704475,10.5552118,63.5904475],"border":{"name":"Trondheim","other_names":{"ref":"5001","name:ar":"تروندهايم","name:ps":"تروندهايم","name:se":"Troandin","name:sma":"Tråante","name:smj":"Tråante","alt_name:ar":"ترونديم","alt_name:ps":"تروندهايم","name:de":"Trondheim","name:fr":"Trondheim","name:is":"Þrándheimur","name:lt":"Trondheimas","name:lv":"Trondheima","name:no":"Trondheim","name:ru":"Тронхейм","name:sr":"Трондхејм","name:sv":"Trondheim","name:zh":"特隆赫姆","name:bpy":"ট্রোনডেহিম","name:gsw":"Trondheim","old_name":"Kaupangen;Nidaros;Throndhjem;Trondhjem","old_name:de":"Drontheim","old_name:is":"Niðarós"},"display_name":"Trondheim, Trøndelag, Norge","address":{"municipality":"Trondheim","county":"Trøndelag","ISO3166-2-lvl4":"NO-50","country":"Norge","country_code":"no"},"population":216518,"osm_type":"relation","osm_id":10143487,"type":"administrative","location":[10.3952118,63.4304475],"bbox":[10.0035259,63.1598985,10.7251987,63.5165949]}}
