{"name":"Adjud","other_names":{"name:hu":"Egyedhalma","name:ml":"അഡ്ജുഡ്","name:ru":"Аджуд","name:uk":"Аджуд"},"display_name":"Adjud, Vrancea, 625100, România","address":{"city":"Adjud","county":"Vrancea","ISO3166-2-lvl4":"RO-VN","postcode":"625100","country":"România","country_code":"ro"},"population":17554,"osm_type":"node","osm_id":110432972,"type":"city","location":[27.179941,46.1008679],"bbox":[27.019941,45.9408679,27.339941,46.2608679],"border":[{"name":"Adjud","display_name":"Adjud, Vrancea, 625100, România","address":{"city":"Adjud","county":"Vrancea","ISO3166-2-lvl4":"RO-VN","postcode":"625100","country":"România","country_code":"ro"},"osm_type":"way","osm_id":75222161,"type":"city","location":[27.180610727765846,46.10020085],"bbox":[27.1634203,46.0876776,27.1972758,46.1133969]},{"name":"Adjud","other_names":{"name:ro":"Adjud","name:hu":"Egyedhalma","name:ml":"അഡ്ജുഡ്","name:ru":"Аджуд","name:uk":"Аджуд"},"display_name":"Adjud, Vrancea, România","address":{"city":"Adjud","county":"Vrancea","ISO3166-2-lvl4":"RO-VN","country":"România","country_code":"ro"},"population":17554,"osm_type":"relation","osm_id":10715570,"type":"administrative","location":[27.179941,46.1008679],"bbox":[27.123624,46.0429142,27.2544176,46.1814713]}]}
{"name":"Aiud","other_names":{"name:de":"Straßburg am Mieresch","name:hu":"Nagyenyed","name:la":"Brucla","name:lt":"Ajudas","name:ml":"ഐയൂഡ്","name:ro":"Aiud","name:ru":"Аюд","name:uk":"Аюд"},"display_name":"Aiud, Alba, 515200, România","address":{"city":"Aiud","county":"Alba","ISO3166-2-lvl4":"RO-AB","postcode":"515200","country":"România","country_code":"ro"},"population":24619,"osm_type":"node","osm_id":114310670,"type":"city","location":[23.7188181,46.3108893],"bbox":[23.5588181,46.1508893,23.8788181,46.4708893],"border":{"name":"Aiud","other_names":{"name:hu":"Nagyenyed","name:ro":"Aiud","name:de":"Straßburg am Mieresch","name:la":"Brucla","name:lt":"Ajudas","name:ml":"ഐയൂഡ്","name:ru":"Аюд","name:uk":"Аюд"},"display_name":"Aiud, Alba, România","address":{"city":"Aiud","county":"Alba","ISO3166-2-lvl4":"RO-AB","country":"România","country_code":"ro"},"population":24619,"osm_type":"relation","osm_id":10631058,"type":"administrative","location":[23.7188181,46.3108893],"bbox":[23.5602947,46.2355917,23.7978431,46.3680918]}}
{"name":"Alba Iulia","other_names":{"name:be":"Алба-Юлія","name:bg":"Алба Юлия","name:cs":"Alba Iulia","name:de":"Alba Iulia","name:el":"Άλμπα Ιούλια","name:en":"Alba Iulia","name:fr":"Alba Iulia","name:he":"אלבה יוליה","name:hr":"Alba Iulia","name:hu":"Gyulafehérvár","name:ka":"ალბა-იულია","name:la":"Apulum","name:lt":"Alba Julija","name:ml":"ആൽബ യൂലിയ","name:ro":"Alba Iulia","name:ru":"Алба-Юлия","name:sl":"Alba Iulia","name:sr":"Алба Јулија","name:tr":"Erdel Belgradı","name:uk":"Алба-Юлія","old_name":"Bălgrad;Bălgărad","alt_name:hu":"Erdélyifehérvár","old_name:de":"Karlsburg;Weißenburg"},"display_name":"Alba Iulia, Alba, România","address":{"city":"Alba Iulia","county":"Alba","ISO3166-2-lvl4":"RO-AB","country":"România","country_code":"ro"},"population":63536,"osm_type":"node","osm_id":422868186,"type":"city","location":[23.5704398,46.0687385],"bbox":[23.4104398,45.9087385,23.7304398,46.2287385],"border":{"name":"Alba Iulia","other_names":{"name:hu":"Gyulafehérvár","name:ro":"Alba Iulia","name:be":"Алба-Юлія","name:bg":"Алба Юлия","name:cs":"Alba Iulia","name:de":"Alba Iulia","name:el":"Άλμπα Ιούλια","name:en":"Alba Iulia","name:fr":"Alba Iulia","name:he":"אלבה יוליה","name:hr":"Alba Iulia","name:ka":"ალბა-იულია","name:la":"Apulum","name:lt":"Alba Julija","name:ml":"ആൽബ യൂലിയ","name:ru":"Алба-Юлия","name:sl":"Alba Iulia","name:sr":"Алба Јулија","name:tr":"Erdel Belgradı","name:uk":"Алба-Юлія","old_name":"Bălgrad;Bălgărad","alt_name:hu":"Erdélyifehérvár","old_name:de":"Karlsburg;Weißenburg"},"display_name":"Alba Iulia, Alba, România","address":{"city":"Alba Iulia","county":"Alba","ISO3166-2-lvl4":"RO-AB","country":"România","country_code":"ro"},"population":63536,"osm_type":"relation","osm_id":10630982,"type":"administrative","location":[23.5704398,46.0687385],"bbox":[23.446963,45.9956705,23.6269039,46.1366445]}}
{"name":"Alexandria","other_names":{"name:ar":"أليكساندريا","name:bg":"Александрия","name:de":"Alexandria","name:el":"Αλεξάντρια","name:en":"Alexandria","name:es":"Alexandria","name:fr":"Alexandria","name:hr":"Alexandria","name:hu":"Alexandria","name:lt":"Aleksandrija","name:ml":"അലക്സാണ്ട്രിയ","name:pl":"Aleksandria","name:ro":"Alexandria","name:ru":"Александрия","name:sr":"Александрија","name:uk":"Александрія"},"display_name":"Alexandria, Teleorman, România","address":{"city":"Alexandria","county":"Teleorman","ISO3166-2-lvl4":"RO-TR","country":"România","country_code":"ro"},"population":45434,"osm_type":"node","osm_id":140154764,"type":"city","location":[25.3288462,43.9702236],"bbox":[25.1688462,43.8102236,25.4888462,44.1302236],"border":[{"name":"Alexandria","other_names":{"name:ro":"Alexandria","name:ru":"Александрия"},"display_name":"Alexandria, Teleorman, România","address":{"city":"Alexandria","county":"Teleorman","ISO3166-2-lvl4":"RO-TR","country":"România","country_code":"ro"},"osm_type":"way","osm_id":45949100,"type":"city","location":[25.3329630288697,43.96714335],"bbox":[25.3022366,43.9492797,25.3568443,43.9855008]},{"name":"Alexandria","other_names":{"name:ro":"Alexandria","name:ru":"Александрия","name:ar":"أليكساندريا","name:bg":"Александрия","name:de":"Alexandria","name:el":"Αλεξάντρια","name:en":"Alexandria","name:es":"Alexandria","name:fr":"Alexandria","name:hr":"Alexandria","name:hu":"Alexandria","name:lt":"Aleksandrija","name:ml":"അലക്സാണ്ട്രിയ","name:pl":"Aleksandria","name:sr":"Александрија","name:uk":"Александрія"},"display_name":"Alexandria, Teleorman, România","address":{"city":"Alexandria","county":"Teleorman","ISO3166-2-lvl4":"RO-TR","country":"România","country_code":"ro"},"population":45434,"osm_type":"relation","osm_id":10664091,"type":"administrative","location":[25.3288462,43.9702236],"bbox":[25.2653764,43.9186709,25.4525676,44.0451247]}]}
{"name":"Arad - Vinga","other_names":{"name:hu":"Arad - Vinga","name:ro":"Arad - Vinga"},"display_name":"Arad - Vinga, Arad, România","address":{"city":"Arad - Vinga","county":"Arad","ISO3166-2-lvl4":"RO-AR","country":"România","country_code":"ro"},"osm_type":"way","osm_id":1042927046,"type":"administrative","location":[21.16159084187979,46.05393005],"bbox":[21.1520139,46.0447539,21.178716,46.0624297],"inferred_type":"city"}
{"name":"Arad","other_names":{"name:ar":"أراد","name:bg":"Арад","name:de":"Arad","name:en":"Arad","name:es":"Arad","name:fr":"Arad","name:hr":"Arad","name:hu":"Arad","name:la":"Aradinum","name:ml":"അരാദ്","name:ro":"Arad","name:ru":"Арад","name:sr":"Арад","name:uk":"Арад"},"display_name":"Arad, România","address":{"city":"Arad","county":"Arad","ISO3166-2-lvl4":"RO-AR","country":"România","country_code":"ro"},"population":159074,"osm_type":"node","osm_id":25721593,"type":"city","location":[21.3196342,46.1753793],"bbox":[21.1596342,46.0153793,21.4796342,46.3353793],"border":{"name":"Arad","other_names":{"name:hu":"Arad","name:ro":"Arad","name:ar":"أراد","name:bg":"Арад","name:de":"Arad","name:en":"Arad","name:es":"Arad","name:fr":"Arad","name:hr":"Arad","name:la":"Aradinum","name:ml":"അരാദ്","name:ru":"Арад","name:sr":"Арад","name:uk":"Арад"},"display_name":"Arad, România","address":{"city":"Arad","county":"Arad","ISO3166-2-lvl4":"RO-AR","country":"România","country_code":"ro"},"population":159074,"osm_type":"relation","osm_id":10488682,"type":"administrative","location":[21.3196342,46.1753793],"bbox":[21.1513602,46.0447539,21.4146784,46.2618206]}}
{"name":"Bacău","other_names":{"name:de":"Barchau","name:el":"Μπακάου","name:he":"בקאו","name:hu":"Bákó","name:la":"Bacovia","name:lt":"Bakeu","name:ml":"ബാക്കോവ്","name:pl":"Baków","name:ro":"Bacău","name:ru":"Бакэу","name:sr":"Бакау","name:uk":"Бакеу"},"display_name":"Bacău, România","address":{"city":"Bacău","county":"Bacău","ISO3166-2-lvl4":"RO-BC","country":"România","country_code":"ro"},"population":144307,"osm_type":"node","osm_id":1308825513,"type":"city","location":[26.9153557,46.5560493],"bbox":[26.7553557,46.3960493,27.0753557,46.7160493],"border":{"name":"Bacău","other_names":{"name:hu":"Bákó","name:ro":"Bacău","name:de":"Barchau","name:el":"Μπακάου","name:he":"בקאו","name:la":"Bacovia","name:lt":"Bakeu","name:ml":"ബാക്കോവ്","name:pl":"Baków","name:ru":"Бакэу","name:sr":"Бакау","name:uk":"Бакеу"},"display_name":"Bacău, România","address":{"city":"Bacău","county":"Bacău","ISO3166-2-lvl4":"RO-BC","country":"România","country_code":"ro"},"population":144307,"osm_type":"relation","osm_id":10715726,"type":"administrative","location":[26.9153557,46.5560493],"bbox":[26.8629898,46.5057551,26.9546634,46.6215354]}}
{"name":"Baia Mare","other_names":{"name:de":"Baia Mare","name:hu":"Nagybánya","name:la":"Rivulus Dominarum","name:ml":"ബായ-മാറെ","name:ru":"Бая-Маре","name:sk":"Veľká Baňa","name:sr":"Баја Маре","name:uk":"Бая-Маре","alt_name:de":"Neustadt","old_name:de":"Frauenbach"},"display_name":"Baia Mare, Maramureș, România","address":{"city":"Baia Mare","county":"Maramureș","ISO3166-2-lvl4":"RO-MM","country":"România","country_code":"ro"},"population":123738,"osm_type":"node","osm_id":128510650,"type":"city","location":[23.5719843,47.6565584],"bbox":[23.4119843,47.4965584,23.7319843,47.8165584],"border":{"name":"Baia Mare","other_names":{"name:hu":"Nagybánya","name:ro":"Baia Mare","old_name:hu":"Asszonypataka","name:de":"Baia Mare","name:la":"Rivulus Dominarum","name:ml":"ബായ-മാറെ","name:ru":"Бая-Маре","name:sk":"Veľká Baňa","name:sr":"Баја Маре","name:uk":"Бая-Маре","alt_name:de":"Neustadt","old_name:de":"Frauenbach"},"display_name":"Baia Mare, Maramureș, România","address":{"city":"Baia Mare","county":"Maramureș","ISO3166-2-lvl4":"RO-MM","country":"România","country_code":"ro"},"population":123738,"osm_type":"relation","osm_id":10743062,"type":"administrative","location":[23.5719843,47.6565584],"bbox":[23.4820483,47.6227393,23.7116437,47.8588053]}}
{"name":"Băilești","other_names":{"name:ml":"ബൈലെഷ്ട്","name:ru":"Бэйлешти","name:sr":"Баилешти","name:uk":"Беїлешть"},"display_name":"Băilești, Dolj, 205100, România","address":{"city":"Băilești","county":"Dolj","ISO3166-2-lvl4":"RO-DJ","postcode":"205100","country":"România","country_code":"ro"},"population":21696,"osm_type":"node","osm_id":130308534,"type":"city","location":[23.3450079,44.0230929],"bbox":[23.1850079,43.8630929,23.5050079,44.1830929],"border":{"name":"Băilești","other_names":{"name:ro":"Băilești","name:ml":"ബൈലെഷ്ട്","name:ru":"Бэйлешти","name:sr":"Баилешти","name:uk":"Беїлешть"},"display_name":"Băilești, Dolj, România","address":{"city":"Băilești","county":"Dolj","ISO3166-2-lvl4":"RO-DJ","country":"România","country_code":"ro"},"population":21696,"osm_type":"relation","osm_id":6689723,"type":"administrative","location":[23.3450079,44.0230929],"bbox":[23.2153448,43.9419118,23.4037039,44.075726]}}
{"name":"Bârlad","other_names":{"name:az":"Birlad","name:be":"Бырлад","name:bg":"Бърлад","name:cs":"Bârlad","name:de":"Bârlad","name:en":"Bârlad","name:he":"ברלאד","name:hr":"Bârlad","name:hu":"Barlád","name:ka":"ბირლადი","name:ko":"비를라드","name:lt":"Birladas","name:ml":"ബർലാഡ്","name:ro":"Bârlad","name:ru":"Бырлад","name:sr":"Барлад","name:uk":"Бирлад","alt_name":"Bîrlad","old_name:de":"Bariach"},"display_name":"Bârlad, Vaslui, 731184, România","address":{"city":"Bârlad","county":"Vaslui","ISO3166-2-lvl4":"RO-VS","postcode":"731184","country":"România","country_code":"ro"},"population":77518,"osm_type":"node","osm_id":245900016,"type":"city","location":[27.66897,46.227535],"bbox":[27.50897,46.067535,27.82897,46.387535],"border":{"name":"Bârlad","other_names":{"name:ro":"Bârlad","name:ru":"Бырлад","name:az":"Birlad","name:be":"Бырлад","name:bg":"Бърлад","name:cs":"Bârlad","name:de":"Bârlad","name:en":"Bârlad","name:he":"ברלאד","name:hr":"Bârlad","name:hu":"Barlád","name:ka":"ბირლადი","name:ko":"비를라드","name:lt":"Birladas","name:ml":"ബർലാഡ്","name:sr":"Барлад","name:uk":"Бирлад","alt_name":"Bîrlad","old_name:de":"Bariach"},"display_name":"Bârlad, Vaslui, România","address":{"city":"Bârlad","county":"Vaslui","ISO3166-2-lvl4":"RO-VS","country":"România","country_code":"ro"},"population":77518,"osm_type":"relation","osm_id":10715611,"type":"administrative","location":[27.66897,46.227535],"bbox":[27.6413765,46.1942076,27.7031016,46.2724878]}}
{"name":"Beiuș","other_names":{"name:de":"Binsch","name:hu":"Belényes","name:ml":"ബെയൂഷ്","name:ru":"Беюш"},"display_name":"Beiuș, Bihor, 415200, România","address":{"city":"Beiuș","county":"Bihor","ISO3166-2-lvl4":"RO-BH","postcode":"415200","country":"România","country_code":"ro"},"population":11923,"osm_type":"node","osm_id":137940520,"type":"city","location":[22.3527085,46.6667533],"bbox":[22.1927085,46.5067533,22.5127085,46.8267533],"border":{"name":"Beiuș","other_names":{"name:hu":"Belényes","name:ro":"Beiuș","name:de":"Binsch","name:ml":"ബെയൂഷ്","name:ru":"Беюш"},"display_name":"Beiuș, Bihor, România","address":{"city":"Beiuș","county":"Bihor","ISO3166-2-lvl4":"RO-BH","country":"România","country_code":"ro"},"population":11923,"osm_type":"relation","osm_id":10718901,"type":"administrative","location":[22.3527085,46.6667533],"bbox":[22.3077608,46.6458505,22.3928722,46.7117642]}}
{"name":"Bistrița","other_names":{"name:de":"Bistrița","name:hu":"Beszterce","name:lt":"Bistrica","name:ml":"ബിസ്ട്രിറ്റ്സ","name:pl":"Bystrzyca","name:ru":"Бистрица","name:sk":"Sedmohradská Bystrica","name:sr":"Бистрица","name:uk":"Бистриця","name:gem":"Bistriz","old_name":"Bistritz","alt_name:de":"Nösen","old_name:de":"Bistritz"},"display_name":"Bistrița, Bistrița-Năsăud, România","address":{"city":"Bistrița","county":"Bistrița-Năsăud","ISO3166-2-lvl4":"RO-BN","country":"România","country_code":"ro"},"population":75076,"osm_type":"node","osm_id":128561166,"type":"city","location":[24.4963949,47.1327012],"bbox":[24.3363949,46.9727012,24.6563949,47.2927012],"border":{"name":"Bistrița","other_names":{"name:hu":"Beszterce","name:ro":"Bistrița","name:de":"Bistrița","name:lt":"Bistrica","name:ml":"ബിസ്ട്രിറ്റ്സ","name:pl":"Bystrzyca","name:ru":"Бистрица","name:sk":"Sedmohradská Bystrica","name:sr":"Бистрица","name:uk":"Бистриця","name:gem":"Bistriz","old_name":"Bistritz","alt_name:de":"Nösen","old_name:de":"Bistritz"},"display_name":"Bistrița, Bistrița-Năsăud, România","address":{"city":"Bistrița","county":"Bistrița-Năsăud","ISO3166-2-lvl4":"RO-BN","country":"România","country_code":"ro"},"population":75076,"osm_type":"relation","osm_id":10744563,"type":"administrative","location":[24.4963949,47.1327012],"bbox":[24.3865066,47.0505464,24.6517864,47.2285103]}}
{"name":"Blaj","other_names":{"name:de":"Blasendorf","name:hu":"Balázsfalva","name:ml":"ബ്ലാജ്","name:ro":"Blaj","name:ru":"Блаж","name:gem":"Blosendref"},"display_name":"Blaj, Alba, 515400, România","address":{"city":"Blaj","county":"Alba","ISO3166-2-lvl4":"RO-AB","postcode":"515400","country":"România","country_code":"ro"},"population":15714,"osm_type":"node","osm_id":422868211,"type":"city","location":[23.9224826,46.1741571],"bbox":[23.7624826,46.0141571,24.0824826,46.3341571],"border":{"name":"Blaj","other_names":{"name:hu":"Balázsfalva","name:ro":"Blaj","name:de":"Blasendorf","name:ml":"ബ്ലാജ്","name:ru":"Блаж","name:gem":"Blosendref"},"display_name":"Blaj, Alba, România","address":{"city":"Blaj","county":"Alba","ISO3166-2-lvl4":"RO-AB","country":"România","country_code":"ro"},"population":15714,"osm_type":"relation","osm_id":10631057,"type":"administrative","location":[23.9224826,46.1741571],"bbox":[23.8340539,46.0899065,24.0364654,46.2221626]}}
{"name":"Botoșani","other_names":{"name:bg":"Ботошани","name:de":"Botoșani","name:el":"Μποτοσάνι","name:en":"Botoșani","name:he":"בוטושאן","name:hr":"Botoșani","name:hu":"Botosány","name:ml":"ബോറ്റോഷാൻ","name:pl":"Botoszany","name:ro":"Botoșani","name:ru":"Ботошаны","name:sr":"Ботошани","name:uk":"Ботошані","alt_name:pl":"Botoszań","old_name:de":"Botoschan"},"display_name":"Botoșani, România","address":{"city":"Botoșani","county":"Botoșani","ISO3166-2-lvl4":"RO-BT","country":"România","country_code":"ro"},"population":106847,"osm_type":"node","osm_id":130388465,"type":"city","location":[26.6599858,47.7450706],"bbox":[26.4999858,47.5850706,26.8199858,47.9050706],"border":{"name":"Botoșani","other_names":{"name:ro":"Botoșani","name:bg":"Ботошани","name:de":"Botoșani","name:el":"Μποτοσάνι","name:en":"Botoșani","name:he":"בוטושאן","name:hr":"Botoșani","name:hu":"Botosány","name:ml":"ബോറ്റോഷാൻ","name:pl":"Botoszany","name:ru":"Ботошаны","name:sr":"Ботошани","name:uk":"Ботошані","alt_name:pl":"Botoszań","old_name:de":"Botoschan"},"display_name":"Botoșani, România","address":{"city":"Botoșani","county":"Botoșani","ISO3166-2-lvl4":"RO-BT","country":"România","country_code":"ro"},"population":106847,"osm_type":"relation","osm_id":6661741,"type":"administrative","location":[26.6599858,47.7450706],"bbox":[26.6105684,47.7037494,26.741471,47.802869]}}
{"name":"Brad","other_names":{"name:de":"Tannenhof","name:hu":"Brád","name:ml":"ബ്രാഡ്","name:ru":"Брад"},"display_name":"Brad, Hunedoara, 335200, România","address":{"city":"Brad","county":"Hunedoara","ISO3166-2-lvl4":"RO-HD","postcode":"335200","country":"România","country_code":"ro"},"population":16180,"osm_type":"node","osm_id":34088251,"type":"city","location":[22.7921521,46.1302414],"bbox":[22.6321521,45.9702414,22.9521521,46.2902414],"border":{"name":"Brad","other_names":{"name:hu":"Brád","name:ro":"Brad","name:de":"Tannenhof","name:ml":"ബ്രാഡ്","name:ru":"Брад"},"display_name":"Brad, Hunedoara, România","address":{"city":"Brad","county":"Hunedoara","ISO3166-2-lvl4":"RO-HD","country":"România","country_code":"ro"},"population":16180,"osm_type":"relation","osm_id":10718851,"type":"administrative","location":[22.7921521,46.1302414],"bbox":[22.7126246,46.0779534,22.8733086,46.2166861]}}
{"name":"Brăila","other_names":{"name:bg":"Браила","name:de":"Brăila","name:el":"Βραΐλα","name:en":"Brăila","name:he":"בראילה","name:hr":"Brăila","name:hu":"Brajla","name:ka":"ბრეილა","name:la":"Proilabum","name:lt":"Breila","name:ml":"ബ്രൈല","name:pl":"Braiła","name:ro":"Brăila","name:ru":"Брэила","name:sk":"Braila","name:sr":"Браила","name:tr":"Berâil","name:uk":"Бреїла","alt_name:la":"Proilava"},"display_name":"Brăila, România","address":{"city":"Brăila","county":"Brăila","ISO3166-2-lvl4":"RO-BR","country":"România","country_code":"ro"},"population":180302,"osm_type":"node","osm_id":27511706,"type":"city","location":[27.9742932,45.2716092],"bbox":[27.8142932,45.1116092,28.1342932,45.4316092],"border":{"name":"Brăila","other_names":{"name:pl":"Braiła","name:ro":"Brăila","name:ru":"Брэила","name:sk":"Braila","name:bg":"Браила","name:de":"Brăila","name:el":"Βραΐλα","name:en":"Brăila","name:he":"בראילה","name:hr":"Brăila","name:hu":"Brajla","name:ka":"ბრეილა","name:la":"Proilabum","name:lt":"Breila","name:ml":"ബ്രൈല","name:sr":"Браила","name:tr":"Berâil","name:uk":"Бреїла","alt_name:la":"Proilava"},"display_name":"Brăila, România","address":{"city":"Brăila","county":"Brăila","ISO3166-2-lvl4":"RO-BR","country":"România","country_code":"ro"},"population":180302,"osm_type":"relation","osm_id":7509955,"type":"administrative","location":[27.9742932,45.2716092],"bbox":[27.908531,45.2310041,28.022869,45.3134918]}}
{"name":"Brașov","other_names":{"name:bg":"Брашов","name:cs":"Brašov","name:de":"Kronstadt","name:en":"Brasov","name:hr":"Brašov","name:hu":"Brassó","name:ja":"ブラショヴ","name:ml":"ബ്രാഷോവ്","name:pl":"Braszów","name:ro":"Brașov","name:ru":"Брашов","name:sk":"Brašov","name:sr":"Брашов","name:tr":"Braşov","name:uk":"Брашов","name:gem":"Kruunen","old_name":"Stalin","name:ja-Hira":"ぶらしょぶ"},"display_name":"Brașov, Zona Metropolitană Brașov, Brașov, România","address":{"city":"Brașov","municipality":"Zona Metropolitană Brașov","county":"Brașov","ISO3166-2-lvl4":"RO-BV","country":"România","country_code":"ro"},"population":253200,"osm_type":"node","osm_id":265006357,"type":"city","location":[25.6105654,45.6525105],"bbox":[25.4505654,45.4925105,25.7705654,45.8125105],"border":{"name":"Brașov","other_names":{"name:hu":"Brassó","name:ja":"ブラショヴ","name:ro":"Brașov","name:sk":"Brašov","name:ja-Hira":"ぶらしょぶ","name:bg":"Брашов","name:cs":"Brašov","name:de":"Kronstadt","name:en":"Brasov","name:hr":"Brašov","name:ml":"ബ്രാഷോവ്","name:pl":"Braszów","name:ru":"Брашов","name:sr":"Брашов","name:tr":"Braşov","name:uk":"Брашов","name:gem":"Kruunen","old_name":"Stalin"},"display_name":"Brașov, Zona Metropolitană Brașov, Brașov, România","address":{"city":"Brașov","municipality":"Zona Metropolitană Brașov","county":"Brașov","ISO3166-2-lvl4":"RO-BV","country":"România","country_code":"ro"},"population":253200,"osm_type":"relation","osm_id":10367676,"type":"administrative","location":[25.6105654,45.6525105],"bbox":[25.5035642,45.499647,25.6889236,45.752328]}}
{"name":"București","other_names":{"name:af":"Boekarest","name:am":"ቡካረስት","name:an":"Bucarest","name:ar":"بوخارست","name:ay":"Bukuresti","name:az":"Buxarest","name:ba":"Бухарест","name:be":"Бухарэст","name:bg":"Букурещ","name:bn":"বুখারেস্ট","name:bo":"པུ་ཁ་རེ་སིད།","name:br":"Bukarest","name:bs":"Bukurešt","name:ca":"Bucarest","name:ce":"Бухарест","name:co":"Bucarest","name:cs":"Bukurešť","name:cu":"Боукоурєщь","name:cv":"Бухарест","name:cy":"Bucureşti","name:da":"Bukarest","name:de":"Bukarest","name:ee":"Bucharest","name:el":"Βουκουρέστι","name:en":"Bucharest","name:eo":"Bukareŝto","name:es":"Bucarest","name:et":"Bukarest","name:eu":"Bukarest","name:fa":"بخارست","name:fi":"Bukarest","name:fo":"Bukarest","name:fr":"Bucarest","name:fy":"Bûkarest","name:ga":"Búcairist","name:gd":"Bucharest","name:gl":"Bucarest","name:gn":"Mbukaréte","name:gv":"Bucharest","name:ha":"Bukarest","name:he":"בוקרשט","name:hi":"बुखारेस्ट","name:hr":"Bukurešt","name:ht":"Boukarès","name:hu":"Bukarest","name:hy":"Բուխարեստ","name:ia":"Bucarest","name:id":"Bukares","name:ie":"Bucarest","name:io":"Bucarest","name:is":"Búkarest","name:it":"Bucarest","name:ja":"ブカレスト","name:jv":"Bukarès","name:ka":"ბუქარესტი","name:kk":"Бухарест","name:kn":"ಬುಕುರೆಶ್ತಿ","name:ko":"부쿠레슈티","name:ku":"Bûkareşt","name:kv":"Бухарест","name:ky":"Бухарест","name:la":"Bucaresta","name:lb":"Bukarest","name:li":"Boekares","name:ln":"Bukaresti","name:lt":"Bukareštas","name:lv":"Bukareste","name:mg":"Bucharest","name:mi":"Bucharest","name:mk":"Букурешт","name:ml":"ബുക്കാറെസ്റ്റ്","name:mn":"Бухарест","name:mr":"बुखारेस्ट","name:ms":"Bucharest","name:mt":"Bukarest","name:my":"ဗူးခရက်မြို့","name:na":"Bucuresti","name:ne":"बुखारेस्ट","name:nl":"Boekarest","name:nn":"Bucureşti","name:no":"București","name:nv":"Chéchʼiltó","name:oc":"Bucarèst","name:os":"Бухарест","name:pa":"ਬੁਖ਼ਾਰੈਸਟ","name:pl":"Bukareszt","name:ps":"بخارست","name:pt":"Bucareste","name:qu":"Bukuresti","name:rm":"Bucarest","name:ro":"București","name:ru":"Бухарест","name:sc":"Bucarest","name:sd":"بخاريسٽ","name:sh":"Bukurešt","name:sk":"Bukurešť","name:sl":"Bukarešta","name:so":"Buqarest","name:sq":"Bukureshti","name:sr":"Букурешт","name:st":"Bucharest","name:sv":"Bukarest","name:sw":"Bukarest","name:ta":"புக்கரெஸ்ட்","name:tg":"Бухарест","name:th":"บูคาเรสต์","name:tk":"Buharest","name:tl":"Bucharest","name:tr":"Bükreş","name:tt":"Бухарест","name:tw":"Bukarest","name:ug":"بۇخارېست","name:uk":"Бухарест","name:ur":"بخارسٹ","name:uz":"Buxarest","name:vi":"Bucharest","name:vo":"Bucureşti","name:wa":"Bucaresse","name:wo":"Bukarest","name:yi":"בוקארעשט","name:yo":"Bucharest","name:zh":"布加勒斯特","name:ace":"Bucharèst","name:arz":"بوخارست","name:ast":"Bucarest","name:ckb":"بوخارێست","name:crh":"Bükreș","name:csb":"Bùkareszt","name:diq":"Bukreș","name:ext":"Bucarest","name:frp":"Bucarèst","name:hif":"Bucharest","name:kab":"Bukarest","name:lad":"Bukureshti","name:lij":"Bucarest","name:lmo":"Bucarest","name:nan":"Bucharest","name:nap":"Bucarest","name:nov":"Bukareshti","name:pms":"Bùcarest","name:pnb":"بخارسٹ","name:rmy":"Bukureshti","name:sah":"Бухарест","name:scn":"Bucarest","name:sco":"Bucharest","name:szl":"Bukareszt","name:tet":"Bukareste","name:tpi":"Busares","name:udm":"Бухарест","name:vec":"Bùcarest","name:vep":"Buharest","name:war":"Bucharest","ISO3166-2":"RO-B","alt_name:gl":"Bucureşti","name:simple":"Bucharest","name:bat-smg":"Bukarėštos","name:roa-rup":"Bucureshci","name:zh-Hans":"布加勒斯特","name:zh-Hant":"布加勒斯特","name:roa-tara":"Bucarest","name:be-tarask":"Бухарэст"},"display_name":"București, România","address":{"city":"București","ISO3166-2-lvl2":"RO-B","ISO3166-2-lvl4":"RO-B","country":"România","country_code":"ro"},"population":1883425,"osm_type":"node","osm_id":96209423,"type":"city","location":[26.1027202,44.4361414],"bbox":[25.9427202,44.2761414,26.2627202,44.5961414],"border":{"name":"București","other_names":{"name:af":"Boekarest","name:am":"ቡካረስት","name:an":"Bucarest","name:ar":"بوخارست","name:az":"Buxarest","name:be":"Бухарэст","name:bg":"Букурещ","name:bn":"বুখারেস্ট","name:bo":"པུ་ཁ་རེ་སིད།","name:bs":"Bukurešt","name:ca":"Bucarest","name:co":"Bucarest","name:cs":"Bukurešť","name:cv":"Бухарест","name:cy":"Bucureşti","name:da":"Bukarest","name:de":"Bukarest","name:ee":"Bucharest","name:el":"Βουκουρέστι","name:en":"Bucharest","name:eo":"Bukareŝto","name:es":"Bucarest","name:et":"Bukarest","name:fa":"بخارست","name:fi":"Bukarest","name:fr":"Bucarest","name:fy":"Bûkarest","name:ga":"Búcairist","name:gd":"Bucharest","name:gl":"Bucarest","name:gv":"Bucharest","name:he":"בוקרשט","name:hi":"बुखारेस्ट","name:hr":"Bukurešt","name:ht":"Boukarès","name:hu":"Bukarest","name:hy":"Բուխարեստ","name:ia":"Bucarest","name:id":"Bukares","name:ie":"Bucarest","name:io":"Bucarest","name:is":"Búkarest","name:it":"Bucarest","name:ja":"ブカレスト","name:jv":"Bukarès","name:ka":"ბუქარესტი","name:kk":"Бухарест","name:kn":"ಬುಕುರೆಶ್ತಿ","name:ko":"부쿠레슈티","name:ku":"Bûkareşt","name:kv":"Бухарест","name:la":"Bucaresta","name:li":"Boekares","name:ln":"Bukaresti","name:lt":"Bukareštas","name:lv":"Bukareste","name:mi":"Bucharest","name:mk":"Букурешт","name:ml":"ബുക്കാറെസ്റ്റ്","name:mr":"बुखारेस्ट","name:ms":"Bucharest","name:my":"ဗူးခရက်မြို့","name:na":"Bucuresti","name:ne":"बुखारेस्ट","name:nl":"Boekarest","name:nn":"Bucureşti","name:no":"București","name:oc":"Bucarèst","name:os":"Бухарест","name:pl":"Bukareszt","name:ps":"بخارست","name:pt":"Bucareste","name:qu":"Bukuresti","name:rm":"Bucarest","name:ro":"București","name:ru":"Бухарест","name:sh":"Bukurešt","name:sk":"Bukurešť","name:sl":"Bukarešta","name:sq":"Bukureshti","name:sr":"Букурешт","name:sv":"Bukarest","name:ta":"புக்கரெஸ்ட்","name:tg":"Бухарест","name:th":"บูคาเรสต์","name:tl":"Bucharest","name:tr":"Bukres","name:ug":"بۇخارېست","name:uk":"Бухарест","name:ur":"بخارسٹ","name:vi":"Bucharest","name:vo":"Bucureşti","name:yi":"בוקארעשט","name:yo":"Bucharest","name:zh":"布加勒斯特","alt_name":"Municipiul București","name:ace":"Bucharèst","name:arz":"بوخارست","name:ast":"Bucarest","name:ckb":"بوخارێست","name:crh":"Bükreș","name:csb":"Bùkareszt","name:diq":"Bukreș","name:ext":"Bucarest","name:frp":"Bucarèst","name:hif":"Bucharest","name:lad":"Bukureshti","name:lij":"Bucarest","name:lmo":"Bucarest","name:nan":"Bucharest","name:nap":"Bucarest","name:nov":"Bukareshti","name:pms":"Bùcarest","name:pnb":"بخارسٹ","name:rmy":"Bukureshti","name:sah":"Бухарест","name:scn":"Bucarest","name:sco":"Bucharest","name:szl":"Bukareszt","name:tet":"Bukareste","name:tpi":"Busares","name:udm":"Бухарест","name:vec":"Bùcarest","name:vep":"Buharest","name:war":"Bucharest","ISO3166-2":"RO-B","alt_name:gl":"Bucureşti","name:simple":"Bucharest","name:bat-smg":"Bukarėštos","name:roa-rup":"Bucureshci","name:roa-tara":"Bucarest","name:ay":"Bukuresti","name:ba":"Бухарест","name:br":"Bukarest","name:ce":"Бухарест","name:cu":"Боукоурєщь","name:eu":"Bukarest","name:fo":"Bukarest","name:gn":"Mbukaréte","name:ha":"Bukarest","name:ky":"Бухарест","name:lb":"Bukarest","name:mg":"Bucharest","name:mn":"Бухарест","name:mt":"Bukarest","name:nv":"Chéchʼiltó","name:pa":"ਬੁਖ਼ਾਰੈਸਟ","name:sc":"Bucarest","name:sd":"بخاريسٽ","name:so":"Buqarest","name:st":"Bucharest","name:sw":"Bukarest","name:tk":"Buharest","name:tt":"Бухарест","name:tw":"Bukarest","name:uz":"Buxarest","name:wa":"Bucaresse","name:wo":"Bukarest","name:be-tarask":"Бухарэст","name:kab":"Bukarest","name:zh-Hans":"布加勒斯特","name:zh-Hant":"布加勒斯特","alt:tr":"Bükreş"},"display_name":"București, România","address":{"city":"București","ISO3166-2-lvl4":"RO-B","country":"România","country_code":"ro"},"population":1883425,"osm_type":"relation","osm_id":377733,"type":"administrative","location":[26.1027202,44.4361414],"bbox":[25.9666745,44.3342466,26.2255768,44.5413964]}}
{"name":"Buzău","other_names":{"name:az":"Buzeu","name:be":"Бузэў","name:bg":"Бузъу","name:de":"Buzău","name:el":"Μπουζάου","name:en":"Buzău","name:fr":"Buzău","name:he":"בוזאו","name:hr":"Buzău","name:hu":"Bodzavásár","name:lt":"Buzeu","name:ml":"ബുസൗ","name:ro":"Buzău","name:ru":"Бузэу","name:sr":"Бузау","name:uk":"Бузеу","old_name":"Busäu","alt_name:hu":"Oláhbodza"},"display_name":"Buzău, România","address":{"city":"Buzău","county":"Buzău","ISO3166-2-lvl4":"RO-BZ","country":"România","country_code":"ro"},"population":115494,"osm_type":"node","osm_id":60710142,"type":"city","location":[26.8306557,45.1490064],"bbox":[26.6706557,44.9890064,26.9906557,45.3090064],"border":[{"name":"Buzău","display_name":"Buzău, România","address":{"city":"Buzău","county":"Buzău","ISO3166-2-lvl4":"RO-BZ","country":"România","country_code":"ro"},"population":115494,"osm_type":"way","osm_id":75214643,"type":"city","location":[26.827883635297155,45.146324500000006],"bbox":[26.7681834,45.1159309,26.8600335,45.1766933]},{"name":"Buzău","other_names":{"name:ro":"Buzău","name:az":"Buzeu","name:be":"Бузэў","name:bg":"Бузъу","name:de":"Buzău","name:el":"Μπουζάου","name:en":"Buzău","name:fr":"Buzău","name:he":"בוזאו","name:hr":"Buzău","name:hu":"Bodzavásár","name:lt":"Buzeu","name:ml":"ബുസൗ","name:ru":"Бузэу","name:sr":"Бузау","name:uk":"Бузеу","old_name":"Busäu","alt_name:hu":"Oláhbodza"},"display_name":"Buzău, România","address":{"city":"Buzău","county":"Buzău","ISO3166-2-lvl4":"RO-BZ","country":"România","country_code":"ro"},"population":115494,"osm_type":"relation","osm_id":10576599,"type":"administrative","location":[26.8306557,45.1490064],"bbox":[26.7146919,45.0916067,26.925872,45.1837471]}]}
{"name":"Calafat","other_names":{"name:ar":"كالافات","name:de":"Calafat","name:en":"Calafat","name:es":"Calafat","name:fr":"Calafat","name:sr":"Калафат","name:uk":"Калафат","alt_name":"Kalafat","int_name":"Calafat"},"display_name":"Calafat, Dolj, 205200, România","address":{"city":"Calafat","county":"Dolj","ISO3166-2-lvl4":"RO-DJ","postcode":"205200","country":"România","country_code":"ro"},"population":18500,"osm_type":"node","osm_id":1244326406,"type":"city","location":[22.9337027,43.9942983],"bbox":[22.7737027,43.8342983,23.0937027,44.1542983],"border":{"name":"Calafat","other_names":{"name:bg":"Калафат","name:en":"Calafat","name:ro":"Calafat","name:ru":"Калафат","name:ar":"كالافات","name:de":"Calafat","name:es":"Calafat","name:fr":"Calafat","name:sr":"Калафат","name:uk":"Калафат","alt_name":"Kalafat","int_name":"Calafat"},"display_name":"Calafat, Dolj, România","address":{"city":"Calafat","county":"Dolj","ISO3166-2-lvl4":"RO-DJ","country":"România","country_code":"ro"},"population":18500,"osm_type":"relation","osm_id":2021225,"type":"administrative","location":[22.9337027,43.9942983],"bbox":[22.8414337,43.863524,23.10189,44.0354346]}}
{"name":"Călărași","other_names":{"name:ar":"كالاراش","name:bg":"Кълъраш","name:cs":"Călăraşi","name:el":"Καλαράσι","name:en":"Călărași","name:es":"Călărași","name:fa":"کلرش","name:fr":"Calarasi","name:hr":"Călăraşi","name:id":"Călăraşi","name:it":"Călăraşi","name:ja":"カララシ","name:ko":"컬러라시","name:lt":"Kelerašis","name:ml":"കലറാഷ്","name:ms":"Călăraşi","name:nl":"Călărași","name:nn":"Călăraşi","name:pl":"Călăraşi","name:pt":"Călăraşi","name:ru":"Кэлэраши","name:sr":"Калараш","name:tg":"Кэлэраши","name:uk":"Келераші","name:zh":"克勒拉希"},"display_name":"Călărași, România","address":{"city":"Călărași","county":"Călărași","ISO3166-2-lvl4":"RO-CL","country":"România","country_code":"ro"},"population":65181,"osm_type":"node","osm_id":142256099,"type":"city","location":[27.3313233,44.1961646],"bbox":[27.1713233,44.0361646,27.4913233,44.3561646],"border":[{"name":"Călărași","other_names":{"name:ar":"كالاراش","name:bg":"Кълъраш","name:cs":"Călăraşi","name:el":"Καλαράσι","name:es":"Călărași","name:fa":"کلرش","name:hr":"Călăraşi","name:id":"Călăraşi","name:it":"Călăraşi","name:ja":"カララシ","name:ko":"컬러라시","name:lt":"Kelerašis","name:ms":"Călăraşi","name:nl":"Călărași","name:nn":"Călăraşi","name:pl":"Călăraşi","name:pt":"Călăraşi","name:ro":"Călărași","name:ru":"Кэлэраши","name:sr":"Калараш","name:tg":"Кэлэраши","name:uk":"Келераші","name:zh":"克勒拉希"},"display_name":"Călărași, România","address":{"city":"Călărași","county":"Călărași","ISO3166-2-lvl4":"RO-CL","country":"România","country_code":"ro"},"population":65181,"osm_type":"way","osm_id":74475990,"type":"city","location":[27.333816685369055,44.202031000000005],"bbox":[27.2901887,44.1794735,27.3742565,44.2220235]},{"name":"Călărași","other_names":{"name:ro":"Călărași","name:ar":"كالاراش","name:bg":"Кълъраш","name:cs":"Călăraşi","name:el":"Καλαράσι","name:en":"Călărași","name:es":"Călărași","name:fa":"کلرش","name:fr":"Calarasi","name:hr":"Călăraşi","name:id":"Călăraşi","name:it":"Călăraşi","name:ja":"カララシ","name:ko":"컬러라시","name:lt":"Kelerašis","name:ml":"കലറാഷ്","name:ms":"Călăraşi","name:nl":"Călărași","name:nn":"Călăraşi","name:pl":"Călăraşi","name:pt":"Călăraşi","name:ru":"Кэлэраши","name:sr":"Калараш","name:tg":"Кэлэраши","name:uk":"Келераші","name:zh":"克勒拉希"},"display_name":"Călărași, România","address":{"city":"Călărași","county":"Călărași","ISO3166-2-lvl4":"RO-CL","country":"România","country_code":"ro"},"population":65181,"osm_type":"relation","osm_id":10697530,"type":"administrative","location":[27.3313233,44.1961646],"bbox":[27.268679,44.1278997,27.4034176,44.3174075]}]}
{"name":"Câmpia Turzii","other_names":{"name:de":"Jerischmarkt","name:hu":"Aranyosgyéres","name:ru":"Кымпия-Турзий","old_name":"Ghiriș-Arieș","alt_name:de":"Gieresch"},"display_name":"Câmpia Turzii, Cluj, 405100, România","address":{"city":"Câmpia Turzii","county":"Cluj","ISO3166-2-lvl4":"RO-CJ","postcode":"405100","country":"România","country_code":"ro"},"population":26377,"osm_type":"node","osm_id":118103814,"type":"city","location":[23.8869669,46.5471807],"bbox":[23.7269669,46.3871807,24.0469669,46.7071807],"border":{"name":"Câmpia Turzii","other_names":{"name:hu":"Aranyosgyéres","name:ro":"Câmpia Turzii","name:ru":"Кымпия-Турзий","name:de":"Jerischmarkt","old_name":"Ghiriș-Arieș","alt_name:de":"Gieresch"},"display_name":"Câmpia Turzii, Cluj, 405100, România","address":{"city":"Câmpia Turzii","county":"Cluj","ISO3166-2-lvl4":"RO-CJ","postcode":"405100","country":"România","country_code":"ro"},"population":26377,"osm_type":"relation","osm_id":10631155,"type":"administrative","location":[23.8869669,46.5471807],"bbox":[23.8382759,46.5124925,23.9196396,46.5705738]}}
{"name":"Câmpina","other_names":{"name:lt":"Kimpina","name:ml":"കിംപിന","name:ru":"Кымпина","name:uk":"Кимпіна","int_name":"Campina"},"display_name":"Câmpina, Prahova, 105600, România","address":{"city":"Câmpina","county":"Prahova","ISO3166-2-lvl4":"RO-PH","postcode":"105600","country":"România","country_code":"ro"},"population":41554,"osm_type":"node","osm_id":60014312,"type":"city","location":[25.7348044,45.1256956],"bbox":[25.5748044,44.9656956,25.8948044,45.2856956],"border":[{"name":"Câmpina","display_name":"Câmpina, Prahova, 105600, România","address":{"city":"Câmpina","county":"Prahova","ISO3166-2-lvl4":"RO-PH","postcode":"105600","country":"România","country_code":"ro"},"osm_type":"way","osm_id":74663468,"type":"city","location":[25.73902889503418,45.13447195],"bbox":[25.7136911,45.104715,25.7668243,45.1637182]},{"name":"Câmpina","other_names":{"name:ro":"Câmpina","name:lt":"Kimpina","name:ml":"കിംപിന","name:ru":"Кымпина","name:uk":"Кимпіна","int_name":"Campina"},"display_name":"Câmpina, Prahova, 105600, România","address":{"city":"Câmpina","county":"Prahova","ISO3166-2-lvl4":"RO-PH","postcode":"105600","country":"România","country_code":"ro"},"population":41554,"osm_type":"relation","osm_id":14701878,"type":"administrative","location":[25.7348044,45.1256956],"bbox":[25.7120738,45.1003602,25.7702637,45.1794153]}]}
{"name":"Câmpulung Moldovenesc","other_names":{"name:de":"Kimpolung","name:he":"קמפולונג מולדובנסק","name:hu":"Moldvahosszúmező","name:lt":"Kimpulung Moldoveneskas","name:ml":"കിംപുലുംഗ്","name:pl":"Kimpulung Mołdawski","name:ru":"Кымпулунг-Молдовенеск","name:uk":"Кимполунг","alt_name:de":"Kimpulung"},"display_name":"Câmpulung Moldovenesc, Suceava, 725100, România","address":{"city":"Câmpulung Moldovenesc","county":"Suceava","ISO3166-2-lvl4":"RO-SV","postcode":"725100","country":"România","country_code":"ro"},"population":22143,"osm_type":"node","osm_id":464340975,"type":"city","location":[25.5597482,47.5297764],"bbox":[25.3997482,47.3697764,25.7197482,47.6897764],"border":{"name":"Câmpulung Moldovenesc","other_names":{"name:de":"Kimpolung","name:he":"קמפולונג מולדובנסק","name:hu":"Moldvahosszúmező","name:lt":"Kimpulung Moldoveneskas","name:pl":"Kimpulung Mołdawski","name:ro":"Câmpulung Moldovenesc","name:ru":"Кымпулунг-Молдовенеск","name:uk":"Кимполунг","name:ml":"കിംപുലുംഗ്","alt_name:de":"Kimpulung"},"display_name":"Câmpulung Moldovenesc, Suceava, 725100, România","address":{"city":"Câmpulung Moldovenesc","county":"Suceava","ISO3166-2-lvl4":"RO-SV","postcode":"725100","country":"România","country_code":"ro"},"population":22143,"osm_type":"relation","osm_id":10495796,"type":"administrative","location":[25.5597482,47.5297764],"bbox":[25.4919493,47.4037582,25.6851727,47.5834125]}}
{"name":"Câmpulung","other_names":{"name:de":"Langenau","name:ja":"クンプルング","name:lt":"Kimpulungas","name:ru":"Кымпулунг","name:uk":"Кимпулунг","alt_name":"Câmpulung Muscel","name:ja-Hira":"くんぷるんぐ"},"display_name":"Câmpulung, Argeș, 115100, România","address":{"city":"Câmpulung","county":"Argeș","ISO3166-2-lvl4":"RO-AG","postcode":"115100","country":"România","country_code":"ro"},"population":43552,"osm_type":"node","osm_id":130609433,"type":"city","location":[25.0438643,45.2697704],"bbox":[24.8838643,45.1097704,25.2038643,45.4297704]}
{"name":"Câmpulung","other_names":{"name:ro":"Câmpulung","name:ru":"Кымпулунг"},"display_name":"Câmpulung, Argeș, România","address":{"city":"Câmpulung","county":"Argeș","ISO3166-2-lvl4":"RO-AG","country":"România","country_code":"ro"},"osm_type":"way","osm_id":74728417,"type":"city","location":[25.01560031141379,45.2239595],"bbox":[25.003623,45.214346,25.021938,45.2342996],"border":{"name":"Câmpulung","other_names":{"name:ja":"クンプルング","name:ro":"Câmpulung","name:ja-Hira":"くんぷるんぐ","name:de":"Langenau","name:lt":"Kimpulungas","name:ru":"Кымпулунг","name:uk":"Кимпулунг","alt_name":"Câmpulung Muscel"},"display_name":"Câmpulung, Argeș, România","address":{"city":"Câmpulung","county":"Argeș","ISO3166-2-lvl4":"RO-AG","country":"România","country_code":"ro"},"population":43552,"osm_type":"relation","osm_id":10664180,"type":"administrative","location":[25.0438643,45.2697704],"bbox":[24.9952052,45.2080098,25.1011149,45.3046063]}}
{"name":"Caracal","other_names":{"name:be":"Каракал","name:bg":"Каракал","name:de":"Caracal","name:en":"Caracal","name:fr":"Caracal","name:hr":"Caracal","name:hu":"Caracal","name:lt":"Karakalis","name:ml":"കാറക്കാൽ","name:ro":"Caracal","name:ru":"Каракал","name:sr":"Каракал","name:uk":"Каракал"},"display_name":"Caracal, Olt, 235200, România","address":{"city":"Caracal","county":"Olt","ISO3166-2-lvl4":"RO-OT","postcode":"235200","country":"România","country_code":"ro"},"population":34603,"osm_type":"node","osm_id":135011471,"type":"city","location":[24.3463095,44.1123292],"bbox":[24.1863095,43.9523292,24.5063095,44.2723292],"border":[{"name":"Caracal","other_names":{"name:ro":"Caracal","name:ru":"Каракал"},"display_name":"Caracal, Olt, 235200, România","address":{"city":"Caracal","county":"Olt","ISO3166-2-lvl4":"RO-OT","postcode":"235200","country":"România","country_code":"ro"},"population":34625,"osm_type":"way","osm_id":457166960,"type":"city","location":[24.349097469657558,44.1135177],"bbox":[24.3134305,44.0927553,24.3882142,44.1351655]},{"name":"Caracal","other_names":{"name:ro":"Caracal","name:ru":"Каракал","name:be":"Каракал","name:bg":"Каракал","name:de":"Caracal","name:en":"Caracal","name:fr":"Caracal","name:hr":"Caracal","name:hu":"Caracal","name:lt":"Karakalis","name:ml":"കാറക്കാൽ","name:sr":"Каракал","name:uk":"Каракал"},"display_name":"Caracal, Olt, România","address":{"city":"Caracal","county":"Olt","ISO3166-2-lvl4":"RO-OT","country":"România","country_code":"ro"},"population":34603,"osm_type":"relation","osm_id":9742520,"type":"administrative","location":[24.3463095,44.1123292],"bbox":[24.2651889,44.0779089,24.4340242,44.1566544]}]}
{"name":"Caransebeș","other_names":{"name:de":"Karansebesch","name:hr":"Karansebeš","name:hu":"Karánsebes","name:lt":"Karansebešas","name:ml":"കറാൻസെബെഷ്","name:ru":"Карансебеш","name:sr":"Карансебеш","name:uk":"Карансебеш"},"display_name":"Caransebeș, Caraș-Severin, 325400, România","address":{"city":"Caransebeș","county":"Caraș-Severin","ISO3166-2-lvl4":"RO-CS","postcode":"325400","country":"România","country_code":"ro"},"population":31389,"osm_type":"node","osm_id":34088249,"type":"city","location":[22.2182232,45.4106108],"bbox":[22.0582232,45.2506108,22.3782232,45.5706108],"border":{"name":"Caransebeș","other_names":{"name:hu":"Karánsebes","name:ro":"Caransebeș","name:de":"Karansebesch","name:hr":"Karansebeš","name:lt":"Karansebešas","name:ml":"കറാൻസെബെഷ്","name:ru":"Карансебеш","name:sr":"Карансебеш","name:uk":"Карансебеш"},"display_name":"Caransebeș, Caraș-Severin, România","address":{"city":"Caransebeș","county":"Caraș-Severin","ISO3166-2-lvl4":"RO-CS","country":"România","country_code":"ro"},"population":31389,"osm_type":"relation","osm_id":10643278,"type":"administrative","location":[22.2182232,45.4106108],"bbox":[22.1219204,45.3665123,22.2803621,45.4770612]}}
{"name":"Carei","other_names":{"name:bg":"Карей","name:cs":"Carei","name:de":"Großkarol","name:en":"Carei","name:fr":"Carei","name:he":"קאריי","name:hr":"Carei","name:hu":"Nagykároly","name:ml":"കാറെയ്","name:pl":"Carei","name:ro":"Carei","name:ru":"Карей","name:sl":"Carei","name:sr":"Кареј","name:uk":"Карей","old_name":"Careii Mari","old_name:de":"Großkarl","old_name:hr":"Veliki Karolj"},"display_name":"Carei, Satu Mare, 445100, România","address":{"city":"Carei","county":"Satu Mare","ISO3166-2-lvl4":"RO-SM","postcode":"445100","country":"România","country_code":"ro"},"population":25911,"osm_type":"node","osm_id":128555565,"type":"city","location":[22.4695102,47.6829338],"bbox":[22.3095102,47.5229338,22.6295102,47.8429338],"border":{"name":"Carei","other_names":{"name:hu":"Nagykároly","name:ro":"Carei","name:bg":"Карей","name:cs":"Carei","name:de":"Großkarol","name:en":"Carei","name:fr":"Carei","name:he":"קאריי","name:hr":"Carei","name:ml":"കാറെയ്","name:pl":"Carei","name:ru":"Карей","name:sl":"Carei","name:sr":"Кареј","name:uk":"Карей","old_name":"Careii Mari","old_name:de":"Großkarl","old_name:hr":"Veliki Karolj"},"display_name":"Carei, Satu Mare, România","address":{"city":"Carei","county":"Satu Mare","ISO3166-2-lvl4":"RO-SM","country":"România","country_code":"ro"},"population":25911,"osm_type":"relation","osm_id":10743031,"type":"administrative","location":[22.4695102,47.6829338],"bbox":[22.3821279,47.5957067,22.5878621,47.7240225]}}
{"name":"Cluj-Napoca","other_names":{"name:ar":"كلوج نابوكا","name:az":"Kluj-Napoka","name:ba":"Клуж-Напока","name:be":"Клуж-Напока","name:bg":"Клуж-Напока","name:bn":"ক্লুজ-নাপোকা","name:ce":"Клуж-Напока","name:cs":"Kluž","name:de":"Klausenburg","name:el":"Κλουζ-Ναπόκα","name:en":"Cluj-Napoca","name:eo":"Kluĵo","name:fa":"کلوژ-نپوکا","name:fr":"Cluj-Napoca","name:he":"קלוז'-נאפוקה","name:hr":"Cluj-Napoca","name:hu":"Kolozsvár","name:hy":"Կլուժ-Նապոկա","name:ja":"クルジュ＝ナポカ","name:ka":"კლუჟ-ნაპოკა","name:ko":"클루지나포카","name:la":"Claudiopolis","name:lt":"Klužas","name:lv":"Kluža-Napoka","name:mk":"Клуж-Напока","name:ml":"ക്ലൂജ്-നാപ്പോക്ക","name:mn":"Клуж-Напока","name:mr":"क्लुज-नापोका","name:os":"Клуж-Напокæ","name:pl":"Kluż-Napoka","name:ps":"کلوژ-ناپوکا","name:ro":"Cluj-Napoca","name:ru":"Клуж-Напока","name:sk":"Kluž","name:sq":"Kluzh-Napoka","name:sr":"Клуж-Напока","name:tg":"Клуж-Напока","name:th":"กลุฌ-นาปอกา","name:tr":"Kaloşvar","name:tt":"Клуж-Напока","name:ug":"كلۇژ","name:uk":"Клуж-Напока","name:ur":"کلوژ ناپوکا","name:uz":"Kluj-napoka","name:yi":"קלויזנבורג","name:zh":"克卢日-纳波卡","alt_name":"Cluj","short_name":"Cluj","alt_name:hr":"Kluž","old_name:hr":"Kološvar","old_name:-1974":"Cluj"},"display_name":"Cluj-Napoca, Zona Metropolitană Cluj, Cluj, România","address":{"city":"Cluj-Napoca","municipality":"Zona Metropolitană Cluj","county":"Cluj","ISO3166-2-lvl4":"RO-CJ","country":"România","country_code":"ro"},"population":324576,"osm_type":"node","osm_id":32591050,"type":"city","location":[23.5899542,46.769379],"bbox":[23.4299542,46.609379,23.7499542,46.929379],"border":{"name":"Cluj-Napoca","other_names":{"name:de":"Klausenburg","name:hu":"Kolozsvár","name:la":"Claudiopolis","name:ro":"Cluj-Napoca","name:ru":"Клуж-Напока","name:sk":"Kluž","name:ar":"كلوج نابوكا","name:az":"Kluj-Napoka","name:ba":"Клуж-Напока","name:be":"Клуж-Напока","name:bg":"Клуж-Напока","name:bn":"ক্লুজ-নাপোকা","name:ce":"Клуж-Напока","name:cs":"Kluž","name:el":"Κλουζ-Ναπόκα","name:en":"Cluj-Napoca","name:eo":"Kluĵo","name:fa":"کلوژ-نپوکا","name:fr":"Cluj-Napoca","name:he":"קלוז'-נאפוקה","name:hr":"Cluj-Napoca","name:hy":"Կլուժ-Նապոկա","name:ja":"クルジュ＝ナポカ","name:ka":"კლუჟ-ნაპოკა","name:ko":"클루지나포카","name:lt":"Klužas","name:lv":"Kluža-Napoka","name:mk":"Клуж-Напока","name:ml":"ക്ലൂജ്-നാപ്പോക്ക","name:mn":"Клуж-Напока","name:mr":"क्लुज-नापोका","name:os":"Клуж-Напокæ","name:pl":"Kluż-Napoka","name:ps":"کلوژ-ناپوکا","name:sq":"Kluzh-Napoka","name:sr":"Клуж-Напока","name:tg":"Клуж-Напока","name:th":"กลุฌ-นาปอกา","name:tr":"Kaloşvar","name:tt":"Клуж-Напока","name:ug":"كلۇژ","name:uk":"Клуж-Напока","name:ur":"کلوژ ناپوکا","name:uz":"Kluj-napoka","name:yi":"קלויזנבורג","name:zh":"克卢日-纳波卡","alt_name":"Cluj","short_name":"Cluj","alt_name:hr":"Kluž","old_name:hr":"Kološvar","old_name:-1974":"Cluj"},"display_name":"Cluj-Napoca, Zona Metropolitană Cluj, Cluj, România","address":{"city":"Cluj-Napoca","municipality":"Zona Metropolitană Cluj","county":"Cluj","ISO3166-2-lvl4":"RO-CJ","country":"România","country_code":"ro"},"population":324576,"osm_type":"relation","osm_id":3277038,"type":"administrative","location":[23.5899542,46.769379],"bbox":[23.499243,46.6899711,23.7183267,46.861832]}}
{"name":"Codlea","other_names":{"name:de":"Zeiden","name:hu":"Feketehalom","name:ml":"കോഡ്ലിയ","name:ru":"Кодля","int_name":"Codlea","name:gem":"Zooidn"},"display_name":"Codlea, Zona Metropolitană Brașov, Brașov, 505100, România","address":{"city":"Codlea","municipality":"Zona Metropolitană Brașov","county":"Brașov","ISO3166-2-lvl4":"RO-BV","postcode":"505100","country":"România","country_code":"ro"},"population":24547,"osm_type":"node","osm_id":139950254,"type":"city","location":[25.4490362,45.6924431],"bbox":[25.2890362,45.5324431,25.6090362,45.8524431],"border":{"name":"Codlea","other_names":{"name:hu":"Feketehalom","name:ro":"Codlea","name:de":"Zeiden","name:ml":"കോഡ്ലിയ","name:ru":"Кодля","int_name":"Codlea","name:gem":"Zooidn"},"display_name":"Codlea, Zona Metropolitană Brașov, Brașov, 505100, România","address":{"city":"Codlea","municipality":"Zona Metropolitană Brașov","county":"Brașov","ISO3166-2-lvl4":"RO-BV","postcode":"505100","country":"România","country_code":"ro"},"population":24547,"osm_type":"relation","osm_id":10515006,"type":"administrative","location":[25.4490362,45.6924431],"bbox":[25.2783356,45.6573373,25.5287685,45.7715705]}}
{"name":"Constanța","other_names":{"name:an":"Constancia (Rumanía)","name:ar":"كونستانتسا","name:az":"Konstansa","name:ba":"Констанца","name:be":"Канстанца","name:bg":"Констанца","name:ce":"Констанца","name:de":"Konstanza","name:el":"Κωνστάντζα","name:en":"Constanța","name:eo":"Konstanco","name:es":"Constanza","name:eu":"Konstantza (Errumania)","name:fa":"کنستانتسا","name:fr":"Constanța","name:gl":"Constancia","name:he":"קונסטנצה","name:hr":"Constanța","name:hu":"Konstanca","name:hy":"Կոնստանցա","name:id":"Constanţa","name:ie":"Constanţa","name:io":"Constanţa","name:is":"Constanţa","name:it":"Costanza","name:ja":"コンスタンツァ","name:ka":"კონსტანცა","name:ko":"콘스탄차","name:ky":"Констанца","name:la":"Constantia","name:lt":"Konstanca","name:lv":"Konstanca","name:mk":"Констанца","name:ml":"കോൺസ്റ്റാന്റ്സ","name:mn":"Констанца","name:mr":"कोन्स्तांत्सा","name:ms":"Constanţa","name:nl":"Constanța","name:os":"Констанцæ","name:pl":"Konstanca","name:pt":"Constança","name:ro":"Constanța","name:ru":"Констанца","name:se":"Constanța guovlu","name:sk":"Konstanca","name:sl":"Konstanca","name:sq":"Konstanca","name:sr":"Констанца","name:tg":"Константса","name:th":"กอนสตันซา","name:tr":"Köstence","name:tt":"Күстәнҗә","name:uk":"Констанца","name:ur":"کونستانتسا","name:uz":"Konstansa","name:vo":"Constanţa","name:zh":"康斯坦察","name:crh":"Köstence","alt_name:de":"Constantza","old_name:la":"Tomis"},"display_name":"Constanța, Zona Metropolitană Constanța, Constanța, România","address":{"city":"Constanța","municipality":"Zona Metropolitană Constanța","county":"Constanța","ISO3166-2-lvl4":"RO-CT","country":"România","country_code":"ro"},"population":283872,"osm_type":"node","osm_id":317989136,"type":"city","location":[28.6507598,44.1767161],"bbox":[28.4907598,44.0167161,28.8107598,44.3367161],"border":[{"name":"Constanța","other_names":{"name:ro":"Constanța","name:tr":"Köstence","name:zh":"康斯坦察"},"display_name":"Constanța, Zona Metropolitană Constanța, Constanța, România","address":{"city":"Constanța","municipality":"Zona Metropolitană Constanța","county":"Constanța","ISO3166-2-lvl4":"RO-CT","country":"România","country_code":"ro"},"osm_type":"relation","osm_id":13404387,"type":"city","location":[28.621515355297706,44.172889600000005],"bbox":[28.5503732,44.1243546,28.6762387,44.2213707]},{"name":"Constanța","other_names":{"name:it":"Costanza","name:ro":"Constanța","name:ru":"Констанца","name:sk":"Konstanca","name:zh":"康斯坦察","name:an":"Constancia (Rumanía)","name:ar":"كونستانتسا","name:az":"Konstansa","name:ba":"Констанца","name:be":"Канстанца","name:bg":"Констанца","name:ce":"Констанца","name:de":"Konstanza","name:el":"Κωνστάντζα","name:en":"Constanța","name:eo":"Konstanco","name:es":"Constanza","name:eu":"Konstantza (Errumania)","name:fa":"کنستانتسا","name:fr":"Constanța","name:gl":"Constancia","name:he":"קונסטנצה","name:hr":"Constanța","name:hu":"Konstanca","name:hy":"Կոնստանցա","name:id":"Constanţa","name:ie":"Constanţa","name:io":"Constanţa","name:is":"Constanţa","name:ja":"コンスタンツァ","name:ka":"კონსტანცა","name:ko":"콘스탄차","name:ky":"Констанца","name:la":"Constantia","name:lt":"Konstanca","name:lv":"Konstanca","name:mk":"Констанца","name:ml":"കോൺസ്റ്റാന്റ്സ","name:mn":"Констанца","name:mr":"कोन्स्तांत्सा","name:ms":"Constanţa","name:nl":"Constanța","name:os":"Констанцæ","name:pl":"Konstanca","name:pt":"Constança","name:se":"Constanța guovlu","name:sl":"Konstanca","name:sq":"Konstanca","name:sr":"Констанца","name:tg":"Константса","name:th":"กอนสตันซา","name:tr":"Köstence","name:tt":"Күстәнҗә","name:uk":"Констанца","name:ur":"کونستانتسا","name:uz":"Konstansa","name:vo":"Constanţa","name:crh":"Köstence","alt_name:de":"Constantza","old_name:la":"Tomis"},"display_name":"Constanța, Zona Metropolitană Constanța, Constanța, România","address":{"city":"Constanța","municipality":"Zona Metropolitană Constanța","county":"Constanța","ISO3166-2-lvl4":"RO-CT","country":"România","country_code":"ro"},"population":283872,"osm_type":"relation","osm_id":10487782,"type":"administrative","location":[28.6507598,44.1767161],"bbox":[28.509112,44.0842094,28.7136041,44.2728127]}]}
{"name":"Craiova","other_names":{"name:ar":"كرايوفا","name:az":"Krayova","name:ba":"Крайова","name:be":"Краёва","name:bg":"Крайова","name:ce":"Крайова","name:de":"Krajowa","name:el":"Κραϊόβα","name:en":"Craiova","name:es":"Craiova","name:fa":"کرایووا","name:fr":"Craiova","name:he":"קראיובה","name:hr":"Craiova","name:hu":"Craiova","name:hy":"Կրայովա","name:ja":"クラヨーヴァ","name:ka":"კრაიოვა","name:ko":"크라이오바","name:lt":"Krajova","name:lv":"Krajova","name:mk":"Крајова","name:ml":"ക്രയോവ","name:mn":"Крайова","name:os":"Крайовæ","name:pl":"Krajowa","name:ps":"کرايووا","name:ro":"Craiova","name:ru":"Крайова","name:sq":"Krajova","name:sr":"Крајова","name:tg":"Крайова","name:th":"กรายอวา","name:tr":"Krayova","name:tt":"Крайова","name:uk":"Крайова","name:ur":"کرایووا","name:zh":"克拉約瓦","old_name:de":"Kragau"},"display_name":"Craiova, Zona Metropolitană Craiova, Dolj, România","address":{"city":"Craiova","municipality":"Zona Metropolitană Craiova","county":"Dolj","ISO3166-2-lvl4":"RO-DJ","country":"România","country_code":"ro"},"population":269506,"osm_type":"node","osm_id":390384649,"type":"city","location":[23.7965614,44.3190159],"bbox":[23.6365614,44.1590159,23.9565614,44.4790159],"border":{"name":"Craiova","other_names":{"name:ro":"Craiova","name:ru":"Крайова","name:ar":"كرايوفا","name:az":"Krayova","name:ba":"Крайова","name:be":"Краёва","name:bg":"Крайова","name:ce":"Крайова","name:de":"Krajowa","name:el":"Κραϊόβα","name:en":"Craiova","name:es":"Craiova","name:fa":"کرایووا","name:fr":"Craiova","name:he":"קראיובה","name:hr":"Craiova","name:hu":"Craiova","name:hy":"Կրայովա","name:ja":"クラヨーヴァ","name:ka":"კრაიოვა","name:ko":"크라이오바","name:lt":"Krajova","name:lv":"Krajova","name:mk":"Крајова","name:ml":"ക്രയോവ","name:mn":"Крайова","name:os":"Крайовæ","name:pl":"Krajowa","name:ps":"کرايووا","name:sq":"Krajova","name:sr":"Крајова","name:tg":"Крайова","name:th":"กรายอวา","name:tr":"Krayova","name:tt":"Крайова","name:uk":"Крайова","name:ur":"کرایووا","name:zh":"克拉約瓦","old_name:de":"Kragau"},"display_name":"Craiova, Zona Metropolitană Craiova, Dolj, România","address":{"city":"Craiova","municipality":"Zona Metropolitană Craiova","county":"Dolj","ISO3166-2-lvl4":"RO-DJ","country":"România","country_code":"ro"},"population":269506,"osm_type":"relation","osm_id":9624263,"type":"administrative","location":[23.7965614,44.3190159],"bbox":[23.7079153,44.2680756,23.9058168,44.3786461]}}
{"name":"Curtea de Argeș","other_names":{"name:de":"Argisch","name:hu":"Argyasudvarhely","name:lt":"Kurtia de Ardžešas","name:ru":"Куртя-де-Арджеш","name:uk":"Куртя-де-Арджеш","old_name:hu":"Argyasudvarhely"},"display_name":"Curtea de Argeș, Argeș, 115300, România","address":{"city":"Curtea de Argeș","county":"Argeș","ISO3166-2-lvl4":"RO-AG","postcode":"115300","country":"România","country_code":"ro"},"population":35107,"osm_type":"node","osm_id":129642766,"type":"city","location":[24.6779826,45.1469341],"bbox":[24.5179826,44.9869341,24.8379826,45.3069341],"border":[{"name":"Curtea de Argeș","other_names":{"name:de":"Argisch","name:hu":"Argyasudvarhely","name:ro":"Curtea de Argeș","name:ru":"Куртя-де-Арджеш"},"display_name":"Curtea de Argeș, Argeș, 115300, România","address":{"city":"Curtea de Argeș","county":"Argeș","ISO3166-2-lvl4":"RO-AG","postcode":"115300","country":"România","country_code":"ro"},"osm_type":"way","osm_id":74728310,"type":"city","location":[24.66954018493955,45.142114],"bbox":[24.632185,45.1040032,24.701304,45.1801364]},{"name":"Curtea de Argeș","other_names":{"name:ro":"Curtea de Argeș","name:de":"Argisch","name:hu":"Argyasudvarhely","name:lt":"Kurtia de Ardžešas","name:ru":"Куртя-де-Арджеш","name:uk":"Куртя-де-Арджеш","old_name:hu":"Argyasudvarhely"},"display_name":"Curtea de Argeș, Argeș, România","address":{"city":"Curtea de Argeș","county":"Argeș","ISO3166-2-lvl4":"RO-AG","country":"România","country_code":"ro"},"population":35107,"osm_type":"relation","osm_id":10664173,"type":"administrative","location":[24.6779826,45.1469341],"bbox":[24.5997309,45.0907224,24.7407214,45.1799824]}]}
{"name":"Dej","other_names":{"name:de":"Deesch","name:hu":"Dés","name:ml":"ഡെജ്","name:ru":"Деж","name:uk":"Деж","old_name:de":"Burglos"},"display_name":"Dej, Cluj, România","address":{"city":"Dej","county":"Cluj","ISO3166-2-lvl4":"RO-CJ","country":"România","country_code":"ro"},"population":33497,"osm_type":"node","osm_id":2266253042,"type":"city","location":[23.8759884,47.1426672],"bbox":[23.7159884,46.9826672,24.0359884,47.3026672],"border":{"name":"Dej","other_names":{"name:hu":"Dés","name:ro":"Dej","name:ru":"Деж","name:de":"Deesch","name:ml":"ഡെജ്","name:uk":"Деж","old_name:de":"Burglos"},"display_name":"Dej, Cluj, România","address":{"city":"Dej","county":"Cluj","ISO3166-2-lvl4":"RO-CJ","country":"România","country_code":"ro"},"population":33497,"osm_type":"relation","osm_id":10631192,"type":"administrative","location":[23.8759884,47.1426672],"bbox":[23.6823768,47.0539147,23.9261858,47.2006354]}}
{"name":"Deva","other_names":{"name:ar":"ديفا","name:de":"Diemrich","name:en":"Deva","name:es":"Deva","name:fr":"Deva","name:hu":"Déva","name:ml":"ഡെവ","name:ru":"Дева","name:sr":"Дева","name:uk":"Дева","old_name":"Déva"},"display_name":"Deva, Hunedoara, România","address":{"city":"Deva","county":"Hunedoara","ISO3166-2-lvl4":"RO-HD","country":"România","country_code":"ro"},"population":61123,"osm_type":"node","osm_id":26980624,"type":"city","location":[22.9008611,45.8817402],"bbox":[22.7408611,45.7217402,23.0608611,46.0417402],"border":{"name":"Deva","other_names":{"name:hu":"Déva","name:ro":"Deva","name:ar":"ديفا","name:de":"Diemrich","name:en":"Deva","name:es":"Deva","name:fr":"Deva","name:ml":"ഡെവ","name:ru":"Дева","name:sr":"Дева","name:uk":"Дева","old_name":"Déva"},"display_name":"Deva, Hunedoara, România","address":{"city":"Deva","county":"Hunedoara","ISO3166-2-lvl4":"RO-HD","country":"România","country_code":"ro"},"population":61123,"osm_type":"relation","osm_id":10494275,"type":"administrative","location":[22.9008611,45.8817402],"bbox":[22.847002,45.8013843,22.9754565,45.9101254]}}
{"name":"Domnești","display_name":"Domnești, Argeș, 117370, România","address":{"city":"Domnești","village":"Domnești","county":"Argeș","ISO3166-2-lvl4":"RO-AG","postcode":"117370","country":"România","country_code":"ro"},"osm_type":"way","osm_id":74728239,"type":"city","location":[24.83753200728668,45.2058375],"bbox":[24.824662,45.194889,24.8517265,45.2168362]}
{"name":"Dorohoi","other_names":{"name:cs":"Dorohoj","name:he":"דורוחוי","name:hu":"Dorohoj","name:ml":"ഡോറോഹോയ്","name:ru":"Дорохой","name:uk":"Дорохой"},"display_name":"Dorohoi, Botoșani, 715200, România","address":{"city":"Dorohoi","county":"Botoșani","ISO3166-2-lvl4":"RO-BT","postcode":"715200","country":"România","country_code":"ro"},"population":32778,"osm_type":"node","osm_id":385240033,"type":"city","location":[26.3969973,47.9537609],"bbox":[26.2369973,47.7937609,26.5569973,48.1137609],"border":[{"name":"Dorohoi","other_names":{"name:ro":"Dorohoi","name:ru":"Дорохой"},"display_name":"Dorohoi, Botoșani, 715200, România","address":{"city":"Dorohoi","county":"Botoșani","ISO3166-2-lvl4":"RO-BT","postcode":"715200","country":"România","country_code":"ro"},"osm_type":"way","osm_id":75538674,"type":"city","location":[26.39985476180046,47.9534685],"bbox":[26.374949,47.935909,26.427015,47.971168]},{"name":"Dorohoi","other_names":{"name:ro":"Dorohoi","name:ru":"Дорохой","name:cs":"Dorohoj","name:he":"דורוחוי","name:hu":"Dorohoj","name:ml":"ഡോറോഹോയ്","name:uk":"Дорохой"},"display_name":"Dorohoi, Botoșani, România","address":{"city":"Dorohoi","county":"Botoșani","ISO3166-2-lvl4":"RO-BT","country":"România","country_code":"ro"},"population":32778,"osm_type":"relation","osm_id":10772196,"type":"administrative","location":[26.3969973,47.9537609],"bbox":[26.3525465,47.9117457,26.508546,48.0216358]}]}
{"name":"Drăgășani","other_names":{"name:el":"Δραγατσάνι","name:ml":"ഡ്രഗഷാൻ","name:ro":"Drăgășani","name:ru":"Дрэгэшани","name:sr":"Драгашани","name:uk":"Дрегешань","name:sr-Latn":"Dragašani"},"display_name":"Drăgășani, Vâlcea, 245700, România","address":{"city":"Drăgășani","county":"Vâlcea","ISO3166-2-lvl4":"RO-VL","postcode":"245700","country":"România","country_code":"ro"},"population":20497,"osm_type":"node","osm_id":140110427,"type":"city","location":[24.2643412,44.6592011],"bbox":[24.1043412,44.4992011,24.4243412,44.8192011],"border":{"name":"Drăgășani","other_names":{"name:ro":"Drăgășani","name:el":"Δραγατσάνι","name:ml":"ഡ്രഗഷാൻ","name:ru":"Дрэгэшани","name:sr":"Драгашани","name:uk":"Дрегешань","name:sr-Latn":"Dragašani"},"display_name":"Drăgășani, Vâlcea, România","address":{"city":"Drăgășani","county":"Vâlcea","ISO3166-2-lvl4":"RO-VL","country":"România","country_code":"ro"},"population":20497,"osm_type":"relation","osm_id":9744249,"type":"administrative","location":[24.2643412,44.6592011],"bbox":[24.2010095,44.6077757,24.316074,44.6929009]}}
{"name":"Drobeta-Turnu Severin","other_names":{"name:ar":"دروبيتا تورنو سيفيرين","name:de":"Turm Severin","name:en":"Drobeta-Turnu Severin","name:es":"Drobeta-Turnu Severin","name:fr":"Drobeta-Turnu Severin","name:hu":"Szörényvár","name:ml":"ഡ്രോബെറ്റ-ടുർനു സെവെറിൻ","name:ru":"Дробета-Турну-Северин","name:sr":"Дробета-Турну Северин","name:uk":"Дробета-Турну-Северін","old_name":"Drobeta"},"display_name":"Drobeta-Turnu Severin, Mehedinți, România","address":{"city":"Drobeta-Turnu Severin","county":"Mehedinți","ISO3166-2-lvl4":"RO-MH","country":"România","country_code":"ro"},"population":92617,"osm_type":"node","osm_id":126278515,"type":"city","location":[22.6531975,44.6257835],"bbox":[22.4931975,44.4657835,22.8131975,44.7857835],"border":{"name":"Drobeta-Turnu Severin","other_names":{"name:ro":"Drobeta-Turnu Severin","name:ar":"دروبيتا تورنو سيفيرين","name:de":"Turm Severin","name:en":"Drobeta-Turnu Severin","name:es":"Drobeta-Turnu Severin","name:fr":"Drobeta-Turnu Severin","name:hu":"Szörényvár","name:ml":"ഡ്രോബെറ്റ-ടുർനു സെവെറിൻ","name:ru":"Дробета-Турну-Северин","name:sr":"Дробета-Турну Северин","name:uk":"Дробета-Турну-Северін","old_name":"Drobeta"},"display_name":"Drobeta-Turnu Severin, Mehedinți, România","address":{"city":"Drobeta-Turnu Severin","county":"Mehedinți","ISO3166-2-lvl4":"RO-MH","country":"România","country_code":"ro"},"population":92617,"osm_type":"relation","osm_id":9711987,"type":"administrative","location":[22.6531975,44.6257835],"bbox":[22.469362,44.6137161,22.7019027,44.7327796]}}
{"name":"Făgăraș","other_names":{"name:de":"Fogarasch","name:hu":"Fogaras","name:lt":"Fegerašas","name:ml":"ഫഗറഷ്","name:pl":"Fogarasz","name:ro":"Făgăraș","name:ru":"Фэгэраш","name:sr":"Фагараш","name:uk":"Фегераш","int_name":"Fagaras","name:gem":"Fugresch"},"display_name":"Făgăraș, Brașov, 505200, România","address":{"city":"Făgăraș","county":"Brașov","ISO3166-2-lvl4":"RO-BV","postcode":"505200","country":"România","country_code":"ro"},"population":30714,"osm_type":"node","osm_id":129950988,"type":"city","location":[24.9703211,45.8449461],"bbox":[24.8103211,45.6849461,25.1303211,46.0049461],"border":{"name":"Făgăraș","other_names":{"name:hu":"Fogaras","name:pl":"Fogarasz","name:ro":"Făgăraș","name:ru":"Фэгэраш","name:de":"Fogarasch","name:lt":"Fegerašas","name:ml":"ഫഗറഷ്","name:sr":"Фагараш","name:uk":"Фегераш","int_name":"Fagaras","name:gem":"Fugresch"},"display_name":"Făgăraș, Brașov, 505200, România","address":{"city":"Făgăraș","county":"Brașov","ISO3166-2-lvl4":"RO-BV","postcode":"505200","country":"România","country_code":"ro"},"population":30714,"osm_type":"relation","osm_id":10367442,"type":"administrative","location":[24.9703211,45.8449461],"bbox":[24.9314478,45.7896994,25.0186736,45.8936508]}}
{"name":"Fălticeni","other_names":{"name:de":"Foltischeni","name:hu":"Falticsén","name:lt":"Feltičenis","name:ml":"ഫൽറ്റിച്ചെൻ","name:ru":"Фэлтичены","name:uk":"Фелтічень","alt_name:hu":"Falticsén"},"display_name":"Fălticeni, Suceava, 725200, România","address":{"city":"Fălticeni","county":"Suceava","ISO3166-2-lvl4":"RO-SV","postcode":"725200","country":"România","country_code":"ro"},"population":31419,"osm_type":"node","osm_id":305967654,"type":"city","location":[26.30255,47.4597637],"bbox":[26.14255,47.2997637,26.46255,47.6197637],"border":{"name":"Fălticeni","other_names":{"name:de":"Foltischeni","name:hu":"Falticsén","name:ro":"Fălticeni","name:lt":"Feltičenis","name:ml":"ഫൽറ്റിച്ചെൻ","name:ru":"Фэлтичены","name:uk":"Фелтічень","alt_name:hu":"Falticsén"},"display_name":"Fălticeni, Suceava, România","address":{"city":"Fălticeni","county":"Suceava","ISO3166-2-lvl4":"RO-SV","country":"România","country_code":"ro"},"population":31419,"osm_type":"relation","osm_id":10495795,"type":"administrative","location":[26.30255,47.4597637],"bbox":[26.265618,47.4292456,26.3518477,47.4964483]}}
{"name":"Focșani","other_names":{"name:be":"Факшані","name:bg":"Фокшани","name:de":"Focșani","name:el":"Φωξάνη","name:en":"Focșani","name:fr":"Focșani","name:hr":"Focșani","name:hu":"Foksány","name:ml":"ഫോക്ഷാനി","name:pl":"Fokszany","name:ro":"Focșani","name:ru":"Фокшаны","name:sr":"Фокшани","name:uk":"Фокшани","old_name:de":"Fokschan"},"display_name":"Focșani, Vrancea, România","address":{"city":"Focșani","county":"Vrancea","ISO3166-2-lvl4":"RO-VN","country":"România","country_code":"ro"},"population":97186,"osm_type":"node","osm_id":27511708,"type":"city","location":[27.1856921,45.697274],"bbox":[27.0256921,45.537274,27.3456921,45.857274],"border":[{"name":"Focșani","other_names":{"name:ro":"Focșani","name:ru":"Фокшаны","place_name":"Focșani"},"display_name":"Focșani, Vrancea, România","address":{"city":"Focșani","county":"Vrancea","ISO3166-2-lvl4":"RO-VN","country":"România","country_code":"ro"},"population":79315,"osm_type":"relation","osm_id":18331351,"type":"city","location":[27.186835598123707,45.69717785],"bbox":[27.1467962,45.670085,27.2276643,45.7250944]},{"name":"Focșani","other_names":{"name:pl":"Fokszany","name:ro":"Focșani","name:be":"Факшані","name:bg":"Фокшани","name:de":"Focșani","name:el":"Φωξάνη","name:en":"Focșani","name:fr":"Focșani","name:hr":"Focșani","name:hu":"Foksány","name:ml":"ഫോക്ഷാനി","name:ru":"Фокшаны","name:sr":"Фокшани","name:uk":"Фокшани","old_name:de":"Fokschan"},"display_name":"Focșani, Vrancea, România","address":{"city":"Focșani","county":"Vrancea","ISO3166-2-lvl4":"RO-VN","country":"România","country_code":"ro"},"population":97186,"osm_type":"relation","osm_id":10715449,"type":"administrative","location":[27.1856921,45.697274],"bbox":[27.1467221,45.6512035,27.2669794,45.7477646]}]}
{"name":"Galați","other_names":{"name:ar":"غالاتس","name:bg":"Галац","name:cs":"Galați","name:de":"Galatz","name:el":"Γκαλάτσι","name:en":"Galați","name:eo":"Galați","name:fa":"گالاتسی","name:he":"גאלאץ","name:hr":"Galați","name:hu":"Galac","name:id":"Galaţi","name:is":"Galaţi","name:ja":"ガラツィ","name:ko":"갈라치","name:la":"Galaţi","name:lt":"Galacis","name:ml":"ഗാലാറ്റ്സ്","name:ms":"Galaţi","name:nl":"Galați","name:nn":"Galaţi","name:pl":"Gałacz","name:pt":"Galați","name:ro":"Galați","name:ru":"Галац","name:sk":"Galac","name:sq":"Galaţi","name:sr":"Галац","name:sv":"Galaţi","name:tg":"Галатс","name:tr":"Galaç","name:uk":"Галац","name:vi":"Galaţi","name:vo":"Galaţi","name:zh":"加拉茨","old_name:tr":"Kalas"},"display_name":"Galați, România","address":{"city":"Galați","county":"Galați","ISO3166-2-lvl4":"RO-GL","country":"România","country_code":"ro"},"population":249432,"osm_type":"node","osm_id":100035698,"type":"city","location":[28.0549395,45.4338215],"bbox":[27.8949395,45.2738215,28.2149395,45.5938215],"border":{"name":"Galați","other_names":{"name:ro":"Galați","name:ru":"Галац","name:sk":"Galac","name:ar":"غالاتس","name:bg":"Галац","name:cs":"Galați","name:de":"Galatz","name:el":"Γκαλάτσι","name:en":"Galați","name:eo":"Galați","name:fa":"گالاتسی","name:he":"גאלאץ","name:hr":"Galați","name:hu":"Galac","name:id":"Galaţi","name:is":"Galaţi","name:ja":"ガラツィ","name:ko":"갈라치","name:la":"Galaţi","name:lt":"Galacis","name:ml":"ഗാലാറ്റ്സ്","name:ms":"Galaţi","name:nl":"Galați","name:nn":"Galaţi","name:pl":"Gałacz","name:pt":"Galați","name:sq":"Galaţi","name:sr":"Галац","name:sv":"Galaţi","name:tg":"Галатс","name:tr":"Galaç","name:uk":"Галац","name:vi":"Galaţi","name:vo":"Galaţi","name:zh":"加拉茨","old_name:tr":"Kalas"},"display_name":"Galați, România","address":{"city":"Galați","county":"Galați","ISO3166-2-lvl4":"RO-GL","country":"România","country_code":"ro"},"population":249432,"osm_type":"relation","osm_id":10487103,"type":"administrative","location":[28.0549395,45.4338215],"bbox":[27.9433558,45.3905188,28.208689,45.6103724]}}
{"name":"Gheorgheni","other_names":{"name:de":"Niklasmarkt","name:hu":"Gyergyószentmiklós","name:ml":"ഗിയോർഗെനി","name:ru":"Георгени"},"display_name":"Gheorgheni, Harghita, 535500, România","address":{"city":"Gheorgheni","county":"Harghita","ISO3166-2-lvl4":"RO-HR","postcode":"535500","country":"România","country_code":"ro"},"population":18377,"osm_type":"node","osm_id":122304857,"type":"city","location":[25.5998915,46.7213467],"bbox":[25.4398915,46.5613467,25.7598915,46.8813467],"border":{"name":"Gheorgheni","other_names":{"name:hu":"Gyergyószentmiklós","name:ro":"Gheorgheni","name:de":"Niklasmarkt","name:ml":"ഗിയോർഗെനി","name:ru":"Георгени"},"display_name":"Gheorgheni, Harghita, România","address":{"city":"Gheorgheni","county":"Harghita","ISO3166-2-lvl4":"RO-HR","country":"România","country_code":"ro"},"population":18377,"osm_type":"relation","osm_id":10760875,"type":"administrative","location":[25.5998915,46.7213467],"bbox":[25.5448447,46.6874647,25.8088257,46.8557365]}}
{"name":"Gherla","other_names":{"name:de":"Armenierstadt","name:hu":"Szamosújvár","name:la":"Armenopolis","name:ml":"ഗെർല","name:ro":"Gherla","name:ru":"Герла","alt_name:de":"Neuschloss"},"display_name":"Gherla, Cluj, 405300, România","address":{"city":"Gherla","county":"Cluj","ISO3166-2-lvl4":"RO-CJ","postcode":"405300","country":"România","country_code":"ro"},"population":25284,"osm_type":"node","osm_id":128545214,"type":"city","location":[23.9077402,47.0287702],"bbox":[23.7477402,46.8687702,24.0677402,47.1887702],"border":{"name":"Gherla","other_names":{"name:hu":"Szamosújvár","name:ro":"Gherla","name:ru":"Герла","name:de":"Armenierstadt","name:la":"Armenopolis","name:ml":"ഗെർല","alt_name:de":"Neuschloss"},"display_name":"Gherla, Cluj, România","address":{"city":"Gherla","county":"Cluj","ISO3166-2-lvl4":"RO-CJ","country":"România","country_code":"ro"},"population":25284,"osm_type":"relation","osm_id":10631191,"type":"administrative","location":[23.9077402,47.0287702],"bbox":[23.8371238,46.9653014,23.9351213,47.0524258]}}
{"name":"Ghiroda - Timișoara","other_names":{"name:hu":"Temesvár - Győröd","name:ro":"Ghiroda - Timișoara"},"display_name":"Ghiroda - Timișoara, Timiș, România","address":{"city":"Ghiroda - Timișoara","county":"Timiș","ISO3166-2-lvl4":"RO-TM","country":"România","country_code":"ro"},"osm_type":"way","osm_id":556215934,"type":"administrative","location":[21.32435125343452,45.7963769],"bbox":[21.3214554,45.7943834,21.3272446,45.7982672],"inferred_type":"city"}
{"name":"Giurgiu","other_names":{"name:az":"Curcu","name:be":"Джурджу","name:bg":"Гюргево","name:de":"Giurgiu","name:el":"Τζιούρτζιου","name:en":"Giurgiu","name:he":"ג'יורג'יו","name:hr":"Giurgiu","name:hu":"Gyurgyevó","name:ka":"ჯურჯუ","name:lt":"Džurdžu","name:mk":"Џурџу","name:ml":"ജൂർജൂ","name:ro":"Giurgiu","name:ru":"Джурджу","name:sr":"Ђурђу","name:tr":"Yergöğü","name:uk":"Джурджу","alt_name:mk":"Ѓурѓево","old_name:de":"Zurz","old_name:hr":"Đurđevo"},"display_name":"Giurgiu, România","address":{"city":"Giurgiu","county":"Giurgiu","ISO3166-2-lvl4":"RO-GR","country":"România","country_code":"ro"},"population":61353,"osm_type":"node","osm_id":119510228,"type":"city","location":[25.9658111,43.8959058],"bbox":[25.8058111,43.7359058,26.1258111,44.0559058],"border":[{"name":"Giurgiu","other_names":{"name:bg":"Гюргево","name:ro":"Giurgiu","name:ru":"Джурджу"},"display_name":"Giurgiu, România","address":{"city":"Giurgiu","county":"Giurgiu","ISO3166-2-lvl4":"RO-GR","country":"România","country_code":"ro"},"population":61353,"osm_type":"way","osm_id":74340198,"type":"city","location":[25.959150744987323,43.904243449999996],"bbox":[25.911357,43.8719401,25.9896172,43.9360638]},{"name":"Giurgiu","other_names":{"name:ro":"Giurgiu","name:az":"Curcu","name:be":"Джурджу","name:bg":"Гюргево","name:de":"Giurgiu","name:el":"Τζιούρτζιου","name:en":"Giurgiu","name:he":"ג'יורג'יו","name:hr":"Giurgiu","name:hu":"Gyurgyevó","name:ka":"ჯურჯუ","name:lt":"Džurdžu","name:mk":"Џурџу","name:ml":"ജൂർജൂ","name:ru":"Джурджу","name:sr":"Ђурђу","name:tr":"Yergöğü","name:uk":"Джурджу","alt_name:mk":"Ѓурѓево","old_name:de":"Zurz","old_name:hr":"Đurđevo"},"display_name":"Giurgiu, România","address":{"city":"Giurgiu","county":"Giurgiu","ISO3166-2-lvl4":"RO-GR","country":"România","country_code":"ro"},"population":61353,"osm_type":"relation","osm_id":10697456,"type":"administrative","location":[25.9658111,43.8959058],"bbox":[25.8811189,43.8591475,26.0339119,43.9360638]}]}
{"name":"Hunedoara","other_names":{"name:de":"Eisenmarkt","name:el":"Χουνεντοάρα","name:he":"חונדוארה","name:hu":"Vajdahunyad","name:la":"Hunnopolis","name:ml":"ഹുനെഡോവാറ","name:ro":"Hunedoara","name:ru":"Хунедоара","name:sr":"Хунедоара","name:uk":"Хунедоара","alt_name:la":"Hunyadiopolis"},"display_name":"Hunedoara, 331066, România","address":{"city":"Hunedoara","county":"Hunedoara","ISO3166-2-lvl4":"RO-HD","postcode":"331066","country":"România","country_code":"ro"},"population":78675,"osm_type":"node","osm_id":129982060,"type":"city","location":[22.9073522,45.757454],"bbox":[22.7473522,45.597454,23.0673522,45.917454],"border":{"name":"Hunedoara","other_names":{"name:hu":"Vajdahunyad","name:ro":"Hunedoara","name:de":"Eisenmarkt","name:el":"Χουνεντοάρα","name:he":"חונדוארה","name:la":"Hunnopolis","name:ml":"ഹുനെഡോവാറ","name:ru":"Хунедоара","name:sr":"Хунедоара","name:uk":"Хунедоара","alt_name:la":"Hunyadiopolis"},"display_name":"Hunedoara, România","address":{"city":"Hunedoara","county":"Hunedoara","ISO3166-2-lvl4":"RO-HD","country":"România","country_code":"ro"},"population":78675,"osm_type":"relation","osm_id":10494274,"type":"administrative","location":[22.9073522,45.757454],"bbox":[22.7521835,45.7092327,22.9759808,45.8220752]}}
{"name":"Huși","other_names":{"name:de":"Hussburg","name:hu":"Huszváros","name:ml":"ഹുഷി","name:ru":"Хуши"},"display_name":"Huși, Vaslui, 735100, România","address":{"city":"Huși","county":"Vaslui","ISO3166-2-lvl4":"RO-VS","postcode":"735100","country":"România","country_code":"ro"},"population":32673,"osm_type":"node","osm_id":385679974,"type":"city","location":[28.0620905,46.6720031],"bbox":[27.9020905,46.5120031,28.2220905,46.8320031],"border":[{"name":"Huși","other_names":{"name:ro":"Huși","name:ru":"Хуши"},"display_name":"Huși, Vaslui, 735100, România","address":{"city":"Huși","county":"Vaslui","ISO3166-2-lvl4":"RO-VS","postcode":"735100","country":"România","country_code":"ro"},"osm_type":"way","osm_id":534146621,"type":"city","location":[28.065526930676462,46.6791413],"bbox":[28.0363631,46.662146,28.096458,46.6959624]},{"name":"Huși","other_names":{"name:ro":"Huși","name:de":"Hussburg","name:hu":"Huszváros","name:ml":"ഹുഷി","name:ru":"Хуши"},"display_name":"Huși, Vaslui, 735100, România","address":{"city":"Huși","county":"Vaslui","ISO3166-2-lvl4":"RO-VS","postcode":"735100","country":"România","country_code":"ro"},"population":32673,"osm_type":"relation","osm_id":10761308,"type":"administrative","location":[28.0620905,46.6720031],"bbox":[27.999545,46.6287997,28.1715986,46.7234966]}]}
{"name":"Iași","other_names":{"name:ar":"ياش","name:az":"Yassı","name:be":"Ясы","name:bg":"Яш","name:ce":"Яссы","name:cs":"Jasy","name:de":"Iași","name:el":"Ιάσιο","name:fa":"یاش","name:ga":"Iaşi","name:he":"יאשי","name:hr":"Iași","name:hu":"Jászvásár","name:hy":"Յաշ","name:ie":"Iaşi","name:is":"Iaşi","name:ja":"ヤシ","name:ka":"იასი","name:kk":"Яссы","name:ko":"야시","name:la":"Iassium","name:lt":"Jasai","name:lv":"Jasi","name:mk":"Јаш","name:ml":"യാഷ്","name:mn":"Яш","name:mr":"याश","name:os":"Яссы","name:pl":"Jassy","name:ro":"Iași","name:ru":"Яссы","name:sk":"Jasy","name:sl":"Iași","name:sq":"Jashi","name:sr":"Јаши","name:tg":"Яш","name:th":"ยัช","name:tr":"Yaş","name:tt":"Яшь","name:uk":"Ясси","name:ur":"یاشی","name:uz":"Yassi","name:vo":"Iaşi","name:wa":"Iaşi","name:yi":"יאס","name:zh":"雅西","alt_name:de":"Jassy","old_name:de":"Jaßenmarkt","old_name:hr":"Jaš"},"display_name":"Iași, Zona Metropolitană Iași, Iași, România","address":{"city":"Iași","municipality":"Zona Metropolitană Iași","county":"Iași","ISO3166-2-lvl4":"RO-IS","country":"România","country_code":"ro"},"population":290422,"osm_type":"node","osm_id":129984582,"type":"city","location":[27.5837814,47.1615598],"bbox":[27.4237814,47.0015598,27.7437814,47.3215598],"border":{"name":"Iași","other_names":{"name:be":"Ясы","name:bg":"Яш","name:cs":"Jasy","name:hu":"Jászvásár","name:kk":"Яссы","name:la":"Iassium","name:lt":"Jasai","name:lv":"Jasi","name:mk":"Јаш","name:pl":"Jassy","name:ro":"Iași","name:ru":"Яссы","name:sk":"Jasy","name:sr":"Јаши","name:uk":"Ясси","name:zh":"雅西","alt_name:lv":"Jaši","alt_name:sr":"Јаш","name:ar":"ياش","name:az":"Yassı","name:ce":"Яссы","name:de":"Iași","name:el":"Ιάσιο","name:fa":"یاش","name:ga":"Iaşi","name:he":"יאשי","name:hr":"Iași","name:hy":"Յաշ","name:ie":"Iaşi","name:is":"Iaşi","name:ja":"ヤシ","name:ka":"იასი","name:ko":"야시","name:ml":"യാഷ്","name:mn":"Яш","name:mr":"याश","name:os":"Яссы","name:sl":"Iași","name:sq":"Jashi","name:tg":"Яш","name:th":"ยัช","name:tr":"Yaş","name:tt":"Яшь","name:ur":"یاشی","name:uz":"Yassi","name:vo":"Iaşi","name:wa":"Iaşi","name:yi":"יאס","alt_name:de":"Jassy","old_name:de":"Jaßenmarkt","old_name:hr":"Jaš"},"display_name":"Iași, Zona Metropolitană Iași, Iași, România","address":{"city":"Iași","municipality":"Zona Metropolitană Iași","county":"Iași","ISO3166-2-lvl4":"RO-IS","country":"România","country_code":"ro"},"population":290422,"osm_type":"relation","osm_id":1207838,"type":"administrative","location":[27.5837814,47.1615598],"bbox":[27.4765545,47.0848238,27.692127,47.2279047]}}
{"name":"Lugoj","other_names":{"name:be":"Лугаж","name:bg":"Лугож","name:cs":"Lugoj","name:de":"Lugoj","name:fr":"Lugoj","name:he":"לוגוז","name:hr":"Lugoj","name:hu":"Lugos","name:ml":"ലുഗോജ്","name:pl":"Lugoj","name:ro":"Lugoj","name:ru":"Лугож","name:sr":"Лугош","name:uk":"Лугож","old_name:de":"Lugosch"},"display_name":"Lugoj, Timiș, 305500, România","address":{"city":"Lugoj","county":"Timiș","ISO3166-2-lvl4":"RO-TM","postcode":"305500","country":"România","country_code":"ro"},"population":49742,"osm_type":"node","osm_id":31726127,"type":"city","location":[21.9063162,45.6862542],"bbox":[21.7463162,45.5262542,22.0663162,45.8462542],"border":{"name":"Lugoj","other_names":{"name:hu":"Lugos","name:ro":"Lugoj","name:be":"Лугаж","name:bg":"Лугож","name:cs":"Lugoj","name:de":"Lugoj","name:fr":"Lugoj","name:he":"לוגוז","name:hr":"Lugoj","name:ml":"ലുഗോജ്","name:pl":"Lugoj","name:ru":"Лугож","name:sr":"Лугош","name:uk":"Лугож","old_name:de":"Lugosch"},"display_name":"Lugoj, Timiș, România","address":{"city":"Lugoj","county":"Timiș","ISO3166-2-lvl4":"RO-TM","country":"România","country_code":"ro"},"population":49742,"osm_type":"relation","osm_id":10643314,"type":"administrative","location":[21.9063162,45.6862542],"bbox":[21.8219286,45.6502503,22.0306301,45.7598988]}}
{"name":"Lupeni","other_names":{"name:de":"Schylwolfsbach","name:hu":"Lupény","name:lt":"Lupenis","name:ru":"Лупени","name:sr":"Лупени","name:uk":"Лупені","name:sr-Latn":"Lupeni"},"display_name":"Lupeni, Hunedoara, 335600, România","address":{"city":"Lupeni","county":"Hunedoara","ISO3166-2-lvl4":"RO-HD","postcode":"335600","country":"România","country_code":"ro"},"population":32853,"osm_type":"node","osm_id":139915923,"type":"city","location":[23.2157411,45.3552327],"bbox":[23.0557411,45.1952327,23.3757411,45.5152327],"border":{"name":"Lupeni","other_names":{"name:hu":"Lupény","name:ro":"Lupeni","name:de":"Schylwolfsbach","name:lt":"Lupenis","name:ru":"Лупени","name:sr":"Лупени","name:uk":"Лупені","name:sr-Latn":"Lupeni"},"display_name":"Lupeni, Hunedoara, 335600, România","address":{"city":"Lupeni","county":"Hunedoara","ISO3166-2-lvl4":"RO-HD","postcode":"335600","country":"România","country_code":"ro"},"population":32853,"osm_type":"relation","osm_id":10493446,"type":"administrative","location":[23.2157411,45.3552327],"bbox":[23.1397439,45.2773193,23.2577852,45.41997]}}
{"name":"Mangalia","other_names":{"name:ar":"مانغالايا","name:az":"Manqaliya","name:be":"Мангалія","name:bg":"Мангалия","name:bh":"मंगलिआ","name:de":"Mangalia","name:el":"Μανγκάλια","name:fa":"منگلیا","name:ja":"マンガリア","name:ka":"მანგალია","name:ko":"만갈리아","name:la":"Callatis","name:mk":"Мангалија","name:ml":"മംഗാലിയ","name:ru":"Мангалия","name:sr":"Мангалија","name:tg":"Мангалия","name:tr":"Mankalya","name:uk":"Мангалія","name:zh":"曼加利亚","name:sr-Latn":"Mangalija"},"display_name":"Mangalia, Constanța, România","address":{"city":"Mangalia","county":"Constanța","ISO3166-2-lvl4":"RO-CT","country":"România","country_code":"ro"},"population":36364,"osm_type":"node","osm_id":2314787664,"type":"city","location":[28.5830306,43.8150793],"bbox":[28.4230306,43.6550793,28.7430306,43.9750793],"border":[{"name":"Mangalia","other_names":{"name:en":"Mangalia","name:ro":"Mangalia","name:ru":"Мангалия","name:zh":"曼加利亚"},"display_name":"Mangalia, Constanța, 905500, România","address":{"city":"Mangalia","county":"Constanța","ISO3166-2-lvl4":"RO-CT","postcode":"905500","country":"România","country_code":"ro"},"osm_type":"way","osm_id":74493038,"type":"city","location":[28.562255495384598,43.8161677],"bbox":[28.5326981,43.8017767,28.5909173,43.8306952]},{"name":"Mangalia","other_names":{"name:ro":"Mangalia","name:zh":"曼加利亚","name:ar":"مانغالايا","name:az":"Manqaliya","name:be":"Мангалія","name:bg":"Мангалия","name:bh":"मंगलिआ","name:de":"Mangalia","name:el":"Μανγκάλια","name:fa":"منگلیا","name:ja":"マンガリア","name:ka":"მანგალია","name:ko":"만갈리아","name:la":"Callatis","name:mk":"Мангалија","name:ml":"മംഗാലിയ","name:ru":"Мангалия","name:sr":"Мангалија","name:tg":"Мангалия","name:tr":"Mankalya","name:uk":"Мангалія","name:sr-Latn":"Mangalija"},"display_name":"Mangalia, Constanța, România","address":{"city":"Mangalia","county":"Constanța","ISO3166-2-lvl4":"RO-CT","country":"România","country_code":"ro"},"population":36364,"osm_type":"relation","osm_id":10520315,"type":"administrative","location":[28.5830306,43.8150793],"bbox":[28.4983027,43.7949831,28.6178397,43.9003914]}]}
{"name":"Marghita","other_names":{"name:de":"Margarethen","name:hu":"Margitta","name:ml":"മാർഗിറ്റ","name:ro":"Marghita","name:ru":"Маргита","name:uk":"Маргіта"},"display_name":"Marghita, Bihor, 415300, România","address":{"city":"Marghita","county":"Bihor","ISO3166-2-lvl4":"RO-BH","postcode":"415300","country":"România","country_code":"ro"},"population":17162,"osm_type":"node","osm_id":128665884,"type":"city","location":[22.3414987,47.34662],"bbox":[22.1814987,47.18662,22.5014987,47.50662],"border":{"name":"Marghita","other_names":{"name:hu":"Margitta","name:ro":"Marghita","name:de":"Margarethen","name:ml":"മാർഗിറ്റ","name:ru":"Маргита","name:uk":"Маргіта"},"display_name":"Marghita, Bihor, România","address":{"city":"Marghita","county":"Bihor","ISO3166-2-lvl4":"RO-BH","country":"România","country_code":"ro"},"population":17162,"osm_type":"relation","osm_id":10742993,"type":"administrative","location":[22.3414987,47.34662],"bbox":[22.2864905,47.3256607,22.4319486,47.4382927]}}
{"name":"Medgidia","other_names":{"name:ro":"Medgidia","name:ru":"Меджидия"},"display_name":"Medgidia, Constanța, 905600, România","address":{"city":"Medgidia","county":"Constanța","ISO3166-2-lvl4":"RO-CT","postcode":"905600","country":"România","country_code":"ro"},"osm_type":"way","osm_id":74493040,"type":"city","location":[28.26915244687163,44.258894],"bbox":[28.2543093,44.2503868,28.2860658,44.2684356],"border":{"name":"Medgidia","other_names":{"name:ro":"Medgidia","name:lt":"Medžidija","name:ru":"Меджидия","name:sr":"Меџидија","name:uk":"Меджидія"},"display_name":"Medgidia, Constanța, România","address":{"city":"Medgidia","county":"Constanța","ISO3166-2-lvl4":"RO-CT","country":"România","country_code":"ro"},"population":45162,"osm_type":"relation","osm_id":10697852,"type":"administrative","location":[28.269625,44.2443001],"bbox":[28.1950967,44.1696678,28.3343485,44.2893262]}}
{"name":"Medgidia","other_names":{"name:lt":"Medžidija","name:ru":"Меджидия","name:sr":"Меџидија","name:uk":"Меджидія"},"display_name":"Medgidia, Constanța, România","address":{"city":"Medgidia","county":"Constanța","ISO3166-2-lvl4":"RO-CT","country":"România","country_code":"ro"},"population":45162,"osm_type":"node","osm_id":144310287,"type":"city","location":[28.269625,44.2443001],"bbox":[28.109625,44.0843001,28.429625,44.4043001],"border":{"name":"Medgidia","other_names":{"name:ro":"Medgidia","name:ru":"Меджидия"},"display_name":"Medgidia, Constanța, România","address":{"city":"Medgidia","county":"Constanța","ISO3166-2-lvl4":"RO-CT","country":"România","country_code":"ro"},"osm_type":"way","osm_id":74493039,"type":"city","location":[28.270643668827788,44.24012805],"bbox":[28.2516001,44.2292819,28.3184813,44.2506037]}}
{"name":"Mediaș","other_names":{"name:de":"Mediasch","name:hu":"Medgyes","name:lt":"Mediašas","name:ml":"മെഡിയാഷ്","name:ru":"Медиаш","name:sr":"Медијаш","name:uk":"Медіаш","name:gem":"Medwesch"},"display_name":"Mediaș, Sibiu, 551090, România","address":{"city":"Mediaș","county":"Sibiu","ISO3166-2-lvl4":"RO-SB","postcode":"551090","country":"România","country_code":"ro"},"population":53564,"osm_type":"node","osm_id":114320365,"type":"city","location":[24.3473855,46.1625212],"bbox":[24.1873855,46.0025212,24.5073855,46.3225212],"border":{"name":"Mediaș","other_names":{"name:hu":"Medgyes","name:ro":"Mediaș","name:de":"Mediasch","name:lt":"Mediašas","name:ml":"മെഡിയാഷ്","name:ru":"Медиаш","name:sr":"Медијаш","name:uk":"Медіаш","name:gem":"Medwesch"},"display_name":"Mediaș, Sibiu, România","address":{"city":"Mediaș","county":"Sibiu","ISO3166-2-lvl4":"RO-SB","country":"România","country_code":"ro"},"population":53564,"osm_type":"relation","osm_id":10514434,"type":"administrative","location":[24.3473855,46.1625212],"bbox":[24.3059085,46.0672788,24.3999344,46.2046137]}}
{"name":"Miercurea Ciuc","other_names":{"name:de":"Szeklerburg","name:hu":"Csíkszereda","name:la":"Oppidum Mercurium","name:lt":"Mierkuria-Čukas","name:ml":"മെർക്കുറിയ ചുക്ക്","name:ru":"Меркуря-Чук","name:sr":"Мијеркуреја Чук","name:uk":"М'єркуря-Чук","alt_name:la":"Sicolsburgum"},"display_name":"Miercurea Ciuc, Harghita, România","address":{"city":"Miercurea Ciuc","county":"Harghita","ISO3166-2-lvl4":"RO-HR","country":"România","country_code":"ro"},"population":38966,"osm_type":"node","osm_id":142172498,"type":"city","location":[25.8026675,46.3614042],"bbox":[25.6426675,46.2014042,25.9626675,46.5214042],"border":{"name":"Miercurea Ciuc","other_names":{"name:hu":"Csíkszereda","name:ro":"Miercurea Ciuc","name:de":"Szeklerburg","name:la":"Oppidum Mercurium","name:lt":"Mierkuria-Čukas","name:ml":"മെർക്കുറിയ ചുക്ക്","name:ru":"Меркуря-Чук","name:sr":"Мијеркуреја Чук","name:uk":"М'єркуря-Чук","alt_name:la":"Sicolsburgum"},"display_name":"Miercurea Ciuc, Harghita, România","address":{"city":"Miercurea Ciuc","county":"Harghita","ISO3166-2-lvl4":"RO-HR","country":"România","country_code":"ro"},"population":38966,"osm_type":"relation","osm_id":10616494,"type":"administrative","location":[25.8026675,46.3614042],"bbox":[25.6197856,46.2717314,25.9083638,46.4042608]}}
{"name":"Moinești","other_names":{"name:hu":"Mojnest","name:ml":"മൊയ്‌നെഷ്റ്റ്","name:ru":"Мойнешты","name:uk":"Мойнешть"},"display_name":"Moinești, Bacău, 605400, România","address":{"city":"Moinești","county":"Bacău","ISO3166-2-lvl4":"RO-BC","postcode":"605400","country":"România","country_code":"ro"},"population":24466,"osm_type":"node","osm_id":262448841,"type":"city","location":[26.4902543,46.4744981],"bbox":[26.3302543,46.3144981,26.6502543,46.6344981],"border":[{"name":"Moinești","other_names":{"name:ro":"Moinești","name:ru":"Мойнешти"},"display_name":"Moinești, Bacău, 605400, România","address":{"city":"Moinești","county":"Bacău","ISO3166-2-lvl4":"RO-BC","postcode":"605400","country":"România","country_code":"ro"},"osm_type":"way","osm_id":75250727,"type":"city","location":[26.48363201028353,46.4639915],"bbox":[26.438171,46.422576,26.500394,46.505215]},{"name":"Moinești","other_names":{"name:hu":"Mojnest","name:ro":"Moinești","name:ml":"മൊയ്‌നെഷ്റ്റ്","name:ru":"Мойнешты","name:uk":"Мойнешть"},"display_name":"Moinești, Bacău, România","address":{"city":"Moinești","county":"Bacău","ISO3166-2-lvl4":"RO-BC","country":"România","country_code":"ro"},"population":24466,"osm_type":"relation","osm_id":10715822,"type":"administrative","location":[26.4902543,46.4744981],"bbox":[26.4168898,46.4219546,26.5371577,46.5174219]}]}
{"name":"Moreni","other_names":{"name:lt":"Morenis","name:ru":"Морени","name:uk":"Морень"},"display_name":"Moreni, Dâmbovița, 135300, România","address":{"city":"Moreni","county":"Dâmbovița","ISO3166-2-lvl4":"RO-DB","postcode":"135300","country":"România","country_code":"ro"},"population":22886,"osm_type":"node","osm_id":140171278,"type":"city","location":[25.6453554,44.9830676],"bbox":[25.4853554,44.8230676,25.8053554,45.1430676],"border":[{"name":"Moreni","other_names":{"name:ro":"Moreni","name:ru":"Морени"},"display_name":"Moreni, Dâmbovița, 135300, România","address":{"city":"Moreni","county":"Dâmbovița","ISO3166-2-lvl4":"RO-DB","postcode":"135300","country":"România","country_code":"ro"},"osm_type":"way","osm_id":74662284,"type":"city","location":[25.643925755079316,44.9869519],"bbox":[25.615247,44.9622994,25.6591851,45.0117968]},{"name":"Moreni","other_names":{"name:ro":"Moreni","name:lt":"Morenis","name:ru":"Морени","name:uk":"Морень"},"display_name":"Moreni, Dâmbovița, 135300, România","address":{"city":"Moreni","county":"Dâmbovița","ISO3166-2-lvl4":"RO-DB","postcode":"135300","country":"România","country_code":"ro"},"population":22886,"osm_type":"relation","osm_id":10694365,"type":"administrative","location":[25.6453554,44.9830676],"bbox":[25.5845046,44.9531077,25.6853183,45.0143951]}]}
{"name":"Motru","other_names":{"name:ar":"موترو","name:de":"Motru","name:en":"Motru","name:es":"Motru","name:fr":"Motru","name:ml":"മോട്രൂ","name:ru":"Мотру","name:sr":"Мотру","name:uk":"Мотру"},"display_name":"Motru, Gorj, 215200, România","address":{"city":"Motru","county":"Gorj","ISO3166-2-lvl4":"RO-GJ","postcode":"215200","country":"România","country_code":"ro"},"population":22472,"osm_type":"node","osm_id":138011262,"type":"city","location":[22.9678763,44.8011015],"bbox":[22.8078763,44.6411015,23.1278763,44.9611015],"border":[{"name":"Motru","display_name":"Motru, Gorj, 215200, România","address":{"city":"Motru","county":"Gorj","ISO3166-2-lvl4":"RO-GJ","postcode":"215200","country":"România","country_code":"ro"},"osm_type":"way","osm_id":74658832,"type":"city","location":[22.96963386401874,44.8040615],"bbox":[22.9557684,44.7970178,22.983954,44.8127903]},{"name":"Motru","other_names":{"name:ro":"Motru","name:ar":"موترو","name:de":"Motru","name:en":"Motru","name:es":"Motru","name:fr":"Motru","name:ml":"മോട്രൂ","name:ru":"Мотру","name:sr":"Мотру","name:uk":"Мотру"},"display_name":"Motru, Gorj, România","address":{"city":"Motru","county":"Gorj","ISO3166-2-lvl4":"RO-GJ","country":"România","country_code":"ro"},"population":22472,"osm_type":"relation","osm_id":9716438,"type":"administrative","location":[22.9678763,44.8011015],"bbox":[22.9339851,44.758147,23.0340648,44.8883606]}]}
{"name":"Odorheiu Secuiesc","other_names":{"name:cs":"Sinkulské Dvořiště","name:de":"Oderhellen","name:hu":"Székelyudvarhely","name:la":"Areopolis","name:lt":"Odorheju Sekujeskas","name:ml":"ഓഡോർഹെയു സെക്കുയെസ്ക്","name:ro":"Odorheiu Secuiesc","name:ru":"Одорхею-Секуйеск","name:uk":"Одорхею-Секуєск","loc_name":"Odorhei","alt_name:de":"Hofmarkt"},"display_name":"Odorheiu Secuiesc, Harghita, 535600, România","address":{"city":"Odorheiu Secuiesc","county":"Harghita","ISO3166-2-lvl4":"RO-HR","postcode":"535600","country":"România","country_code":"ro"},"population":34275,"osm_type":"node","osm_id":380025514,"type":"city","location":[25.2950261,46.3047462],"bbox":[25.1350261,46.1447462,25.4550261,46.4647462],"border":{"name":"Odorheiu Secuiesc","other_names":{"name:hu":"Székelyudvarhely","name:ro":"Odorheiu Secuiesc","name:cs":"Sinkulské Dvořiště","name:de":"Oderhellen","name:la":"Areopolis","name:lt":"Odorheju Sekujeskas","name:ml":"ഓഡോർഹെയു സെക്കുയെസ്ക്","name:ru":"Одорхею-Секуйеск","name:uk":"Одорхею-Секуєск","loc_name":"Odorhei","alt_name:de":"Hofmarkt"},"display_name":"Odorheiu Secuiesc, Harghita, 535600, România","address":{"city":"Odorheiu Secuiesc","county":"Harghita","ISO3166-2-lvl4":"RO-HR","postcode":"535600","country":"România","country_code":"ro"},"population":34275,"osm_type":"relation","osm_id":10748530,"type":"administrative","location":[25.2950261,46.3047462],"bbox":[25.2592626,46.2779625,25.4175574,46.3520094]}}
{"name":"Oltenița","other_names":{"name:lt":"Oltenica","name:ml":"ഓൾട്ടെനിറ്റ്സ","name:sr":"Олтеница","name:sr-Latn":"Oltenica"},"display_name":"Oltenița, Călărași, 915400, România","address":{"city":"Oltenița","county":"Călărași","ISO3166-2-lvl4":"RO-CL","postcode":"915400","country":"România","country_code":"ro"},"population":24822,"osm_type":"node","osm_id":2029839403,"type":"city","location":[26.6407009,44.0904556],"bbox":[26.4807009,43.9304556,26.8007009,44.2504556],"border":{"name":"Oltenița","other_names":{"name:ro":"Oltenița","name:lt":"Oltenica","name:ml":"ഓൾട്ടെനിറ്റ്സ","name:sr":"Олтеница","name:sr-Latn":"Oltenica"},"display_name":"Oltenița, Călărași, 915400, România","address":{"city":"Oltenița","county":"Călărași","ISO3166-2-lvl4":"RO-CL","postcode":"915400","country":"România","country_code":"ro"},"population":24822,"osm_type":"relation","osm_id":10697515,"type":"administrative","location":[26.6407009,44.0904556],"bbox":[26.6054336,44.0554185,26.7838794,44.1711137]}}
{"name":"Onești","other_names":{"name:hu":"Ónfalva","name:ml":"ഓനെഷ്റ്റ്","name:ru":"Онешты","name:sr":"Онешти","name:uk":"Онешті"},"display_name":"Onești, Bacău, 601123, România","address":{"city":"Onești","county":"Bacău","ISO3166-2-lvl4":"RO-BC","postcode":"601123","country":"România","country_code":"ro"},"population":57333,"osm_type":"node","osm_id":270078199,"type":"city","location":[26.770213,46.2520269],"bbox":[26.610213,46.0920269,26.930213,46.4120269],"border":{"name":"Onești","other_names":{"name:hu":"Ónfalva","name:ro":"Onești","name:ml":"ഓനെഷ്റ്റ്","name:ru":"Онешты","name:sr":"Онешти","name:uk":"Онешті"},"display_name":"Onești, Bacău, România","address":{"city":"Onești","county":"Bacău","ISO3166-2-lvl4":"RO-BC","country":"România","country_code":"ro"},"population":57333,"osm_type":"relation","osm_id":10715752,"type":"administrative","location":[26.770213,46.2520269],"bbox":[26.7153704,46.2205464,26.8728453,46.2985988]}}
{"name":"Oradea","other_names":{"name:be":"Арадзя","name:bg":"Орадя","name:cs":"Oradea","name:de":"Großwardein","name:en":"Oradea","name:fr":"Oradea","name:he":"אוראדיה","name:hr":"Oradea","name:hu":"Nagyvárad","name:ka":"ორადია","name:ml":"ഒറാഡിയ","name:pl":"Oradea","name:ro":"Oradea","name:ru":"Орадя","name:sl":"Oradea","name:sr":"Велики Варадин","name:tr":"Varad","name:uk":"Орадя","old_name:hr":"Veliki Varadin","old_name:sk":"Veľký Varadín"},"display_name":"Oradea, Zona Metropolitană Oradea, Bihor, România","address":{"city":"Oradea","municipality":"Zona Metropolitană Oradea","county":"Bihor","ISO3166-2-lvl4":"RO-BH","country":"România","country_code":"ro"},"population":196367,"osm_type":"node","osm_id":2691094601,"type":"city","location":[21.9285231,47.0549163],"bbox":[21.7685231,46.8949163,22.0885231,47.2149163],"border":[{"name":"Zona Metropolitană Oradea","other_names":{"name:de":"Metropolzone Großwardein","name:en":"Oradea Metropolitan Area","name:fr":"Zone métropolitaine d'Oradea","name:hu":"Nagyvárad","name:ro":"Zona Metropolitană Oradea"},"display_name":"Zona Metropolitană Oradea, Bihor, România","address":{"municipality":"Zona Metropolitană Oradea","county":"Bihor","ISO3166-2-lvl4":"RO-BH","country":"România","country_code":"ro"},"osm_type":"relation","osm_id":11318324,"type":"administrative","location":[21.892510762152863,47.05477785],"bbox":[21.6485518,46.9018951,22.1720515,47.206735]},{"name":"Oradea","other_names":{"name:hu":"Nagyvárad","name:ro":"Oradea","name:be":"Арадзя","name:bg":"Орадя","name:cs":"Oradea","name:de":"Großwardein","name:en":"Oradea","name:fr":"Oradea","name:he":"אוראדיה","name:hr":"Oradea","name:ka":"ორადია","name:ml":"ഒറാഡിയ","name:pl":"Oradea","name:ru":"Орадя","name:sl":"Oradea","name:sr":"Велики Варадин","name:tr":"Varad","name:uk":"Орадя","old_name:hr":"Veliki Varadin","old_name:sk":"Veľký Varadín"},"display_name":"Oradea, Zona Metropolitană Oradea, Bihor, România","address":{"city":"Oradea","municipality":"Zona Metropolitană Oradea","county":"Bihor","ISO3166-2-lvl4":"RO-BH","country":"România","country_code":"ro"},"population":196367,"osm_type":"relation","osm_id":10718900,"type":"administrative","location":[21.9285231,47.0549163],"bbox":[21.8428285,47.0070293,22.0322626,47.1421315]}]}
{"name":"Orăștie","other_names":{"name:de":"Broos","name:hu":"Szászváros","name:la":"Saxopolis","name:ml":"ഓറാഷ്ടിയെ","name:ro":"Orăștie","alt_name:de":"Brosz"},"display_name":"Orăștie, Hunedoara, 335700, România","address":{"city":"Orăștie","county":"Hunedoara","ISO3166-2-lvl4":"RO-HD","postcode":"335700","country":"România","country_code":"ro"},"population":24174,"osm_type":"node","osm_id":117030632,"type":"city","location":[23.1958453,45.8367637],"bbox":[23.0358453,45.6767637,23.3558453,45.9967637],"border":{"name":"Orăștie","other_names":{"name:hu":"Szászváros","name:ro":"Orăștie","name:de":"Broos","name:la":"Saxopolis","name:ml":"ഓറാഷ്ടിയെ","alt_name:de":"Brosz"},"display_name":"Orăștie, Hunedoara, 335700, România","address":{"city":"Orăștie","county":"Hunedoara","ISO3166-2-lvl4":"RO-HD","postcode":"335700","country":"România","country_code":"ro"},"population":24174,"osm_type":"relation","osm_id":10494276,"type":"administrative","location":[23.1958453,45.8367637],"bbox":[23.1495448,45.7958886,23.2699695,45.8908815]}}
{"name":"Orșova","other_names":{"name:cs":"Oršava","name:ro":"Orșova","name:ru":"Оршова"},"display_name":"Orșova, Mehedinți, România","address":{"city":"Orșova","town":"Orșova","county":"Mehedinți","ISO3166-2-lvl4":"RO-MH","country":"România","country_code":"ro"},"osm_type":"way","osm_id":74512603,"type":"city","location":[22.392312975058733,44.726128],"bbox":[22.374964,44.709724,22.412323,44.7424785]}
{"name":"Pașcani","other_names":{"name:he":"פשקאן","name:hu":"Páskán","name:lt":"Paškanis","name:ml":"പാഷ്‌കാൻ","name:ru":"Пашканы","name:sr":"Пашкани","name:uk":"Пашкань"},"display_name":"Pașcani, Iași, 705200, România","address":{"city":"Pașcani","county":"Iași","ISO3166-2-lvl4":"RO-IS","postcode":"705200","country":"România","country_code":"ro"},"population":35897,"osm_type":"node","osm_id":253941728,"type":"city","location":[26.7256423,47.2480765],"bbox":[26.5656423,47.0880765,26.8856423,47.4080765],"border":[{"name":"Pașcani","display_name":"Pașcani, Iași, 705200, România","address":{"city":"Pașcani","county":"Iași","ISO3166-2-lvl4":"RO-IS","postcode":"705200","country":"România","country_code":"ro"},"osm_type":"way","osm_id":75400277,"type":"city","location":[26.720761545494874,47.2543907],"bbox":[26.701998,47.228671,26.749858,47.2798905]},{"name":"Pașcani","other_names":{"name:ro":"Pașcani","name:he":"פשקאן","name:hu":"Páskán","name:lt":"Paškanis","name:ml":"പാഷ്‌കാൻ","name:ru":"Пашканы","name:sr":"Пашкани","name:uk":"Пашкань"},"display_name":"Pașcani, Iași, România","address":{"city":"Pașcani","county":"Iași","ISO3166-2-lvl4":"RO-IS","country":"România","country_code":"ro"},"population":35897,"osm_type":"relation","osm_id":10761281,"type":"administrative","location":[26.7256423,47.2480765],"bbox":[26.6352014,47.2030145,26.8037682,47.3035334]}]}
{"name":"Petroșani","other_names":{"name:de":"Petroschen","name:hu":"Petrozsény","name:lt":"Petrošanis","name:ml":"പെട്രോഷാൻ","name:pl":"Petroszany","name:ru":"Петрошани","name:sr":"Петрошани","name:uk":"Петрошань","old_name:de":"Steinthal","old_name:pl":"Piotroszany"},"display_name":"Petroșani, Hunedoara, 332042, România","address":{"city":"Petroșani","county":"Hunedoara","ISO3166-2-lvl4":"RO-HD","postcode":"332042","country":"România","country_code":"ro"},"population":51476,"osm_type":"node","osm_id":1642378439,"type":"city","location":[23.3740904,45.4143907],"bbox":[23.2140904,45.2543907,23.5340904,45.5743907],"border":{"name":"Petroșani","other_names":{"name:hu":"Petrozsény","name:pl":"Petroszany","name:ro":"Petroșani","name:de":"Petroschen","name:lt":"Petrošanis","name:ml":"പെട്രോഷാൻ","name:ru":"Петрошани","name:sr":"Петрошани","name:uk":"Петрошань","old_name:de":"Steinthal","old_name:pl":"Piotroszany"},"display_name":"Petroșani, Hunedoara, România","address":{"city":"Petroșani","county":"Hunedoara","ISO3166-2-lvl4":"RO-HD","country":"România","country_code":"ro"},"population":51476,"osm_type":"relation","osm_id":10493444,"type":"administrative","location":[23.3740904,45.4143907],"bbox":[23.2597539,45.2975207,23.5391506,45.5881377]}}
{"name":"Piatra Neamț","other_names":{"name:cs":"Moldavský Kamenec","name:de":"Kreuzburg an der Bistritz","name:hu":"Karácsonkő","name:ml":"പിയാട്ര നെയാംട്സ്","name:ru":"Пьятра-Нямц","name:sr":"Пјатра Њамц","name:uk":"П'ятра-Нямц"},"display_name":"Piatra Neamț, Neamț, România","address":{"city":"Piatra Neamț","county":"Neamț","ISO3166-2-lvl4":"RO-NT","country":"România","country_code":"ro"},"population":85055,"osm_type":"node","osm_id":130484930,"type":"city","location":[26.3695046,46.9319894],"bbox":[26.2095046,46.7719894,26.5295046,47.0919894],"border":[{"name":"Piatra Neamț","other_names":{"name:ro":"Piatra Neamț","name:ru":"Пьятра-Нямц"},"display_name":"Piatra Neamț, Neamț, România","address":{"city":"Piatra Neamț","county":"Neamț","ISO3166-2-lvl4":"RO-NT","country":"România","country_code":"ro"},"population":85055,"osm_type":"way","osm_id":40117457,"type":"city","location":[26.36301950206726,46.9324673],"bbox":[26.3093094,46.8879235,26.4363975,46.9748334]},{"name":"Piatra Neamț","other_names":{"name:hu":"Karácsonkő","name:ro":"Piatra Neamț","name:cs":"Moldavský Kamenec","name:de":"Kreuzburg an der Bistritz","name:ml":"പിയാട്ര നെയാംട്സ്","name:ru":"Пьятра-Нямц","name:sr":"Пјатра Њамц","name:uk":"П'ятра-Нямц"},"display_name":"Piatra Neamț, Neamț, România","address":{"city":"Piatra Neamț","county":"Neamț","ISO3166-2-lvl4":"RO-NT","country":"România","country_code":"ro"},"population":85055,"osm_type":"relation","osm_id":10748543,"type":"administrative","location":[26.3695046,46.9319894],"bbox":[26.2984149,46.8617864,26.4477315,46.9796531]}]}
{"name":"Pitești","other_names":{"name:ar":"بيتيشت","name:be":"Пітэшты","name:bg":"Питещ","name:de":"Pitești","name:el":"Πιτέστι","name:en":"Pitești","name:es":"Pitești","name:fr":"Pitești","name:he":"פיטשט","name:hr":"Pitești","name:hu":"Pitești","name:lt":"Piteštis","name:ml":"പിറ്റെഷ്ട്","name:pl":"Piteszti","name:ro":"Pitești","name:ru":"Питешты","name:sr":"Питешти","name:uk":"Пітешть","old_name:de":"Pitesk"},"display_name":"Pitești, Argeș, România","address":{"city":"Pitești","county":"Argeș","ISO3166-2-lvl4":"RO-AG","country":"România","country_code":"ro"},"population":155383,"osm_type":"node","osm_id":126383941,"type":"city","location":[24.8719422,44.8572343],"bbox":[24.7119422,44.6972343,25.0319422,45.0172343],"border":[{"name":"Pitești","display_name":"Pitești, Argeș, România","address":{"city":"Pitești","county":"Argeș","ISO3166-2-lvl4":"RO-AG","country":"România","country_code":"ro"},"population":141275,"osm_type":"way","osm_id":440299142,"type":"city","location":[24.870813365794014,44.8598635],"bbox":[24.8188309,44.8212048,24.9363852,44.8978417]},{"name":"Pitești","other_names":{"name:ro":"Pitești","name:ru":"Питешты","name:ar":"بيتيشت","name:be":"Пітэшты","name:bg":"Питещ","name:de":"Pitești","name:el":"Πιτέστι","name:en":"Pitești","name:es":"Pitești","name:fr":"Pitești","name:he":"פיטשט","name:hr":"Pitești","name:hu":"Pitești","name:lt":"Piteštis","name:ml":"പിറ്റെഷ്ട്","name:pl":"Piteszti","name:sr":"Питешти","name:uk":"Пітешть","old_name:de":"Pitesk"},"display_name":"Pitești, Argeș, România","address":{"city":"Pitești","county":"Argeș","ISO3166-2-lvl4":"RO-AG","country":"România","country_code":"ro"},"population":155383,"osm_type":"relation","osm_id":10664174,"type":"administrative","location":[24.8719422,44.8572343],"bbox":[24.780386,44.8174784,24.9426712,44.8958233]}]}
{"name":"Ploiești","other_names":{"name:ar":"بلويشت","name:az":"Ployeşti","name:be":"Плаешці","name:bg":"Плоещ","name:cs":"Ploješť","name:de":"Ploiești","name:el":"Πλοϊέστι","name:en":"Ploiești","name:eu":"Ploieşti","name:fa":"پلویشت","name:gd":"Ploieşti","name:gl":"Ploieşti","name:he":"פלוישט","name:hr":"Ploiești","name:hu":"Ploiești","name:hy":"Պլոեշտի","name:id":"Ploieşti","name:ja":"プロイェシュティ","name:ka":"პლოიეშტი","name:ko":"플로이에슈티","name:la":"Ploieşti","name:lt":"Ploještis","name:lv":"Ploješti","name:mk":"Плоешт","name:ml":"പ്ലോയെഷ്ട്","name:mn":"Плоешти","name:os":"Плоешти","name:pl":"Ploeszti","name:ro":"Ploiești","name:ru":"Плоешти","name:sk":"Ploješť","name:sr":"Плоешти","name:tg":"Плоешти","name:th":"ปลอเยชต์","name:tr":"Ploiești","name:tt":"Плоешт","name:uk":"Плоєшті","name:ur":"پلویشتی","name:uz":"Ployeshti","name:vo":"Ploieşti","name:zh":"普洛耶什蒂"},"display_name":"Ploiești, Prahova, 100xxx, România","address":{"city":"Ploiești","county":"Prahova","ISO3166-2-lvl4":"RO-PH","postcode":"100xxx","country":"România","country_code":"ro"},"population":224406,"osm_type":"node","osm_id":60018211,"type":"city","location":[26.0236504,44.9417468],"bbox":[25.8636504,44.7817468,26.1836504,45.1017468],"border":{"name":"Ploiești","other_names":{"name:pl":"Ploeszti","name:ro":"Ploiești","name:sk":"Ploješť","name:ar":"بلويشت","name:az":"Ployeşti","name:be":"Плаешці","name:bg":"Плоещ","name:cs":"Ploješť","name:de":"Ploiești","name:el":"Πλοϊέστι","name:en":"Ploiești","name:eu":"Ploieşti","name:fa":"پلویشت","name:gd":"Ploieşti","name:gl":"Ploieşti","name:he":"פלוישט","name:hr":"Ploiești","name:hu":"Ploiești","name:hy":"Պլոեշտի","name:id":"Ploieşti","name:ja":"プロイェシュティ","name:ka":"პლოიეშტი","name:ko":"플로이에슈티","name:la":"Ploieşti","name:lt":"Ploještis","name:lv":"Ploješti","name:mk":"Плоешт","name:ml":"പ്ലോയെഷ്ട്","name:mn":"Плоешти","name:os":"Плоешти","name:ru":"Плоешти","name:sr":"Плоешти","name:tg":"Плоешти","name:th":"ปลอเยชต์","name:tr":"Ploiești","name:tt":"Плоешт","name:uk":"Плоєшті","name:ur":"پلویشتی","name:uz":"Ployeshti","name:vo":"Ploieşti","name:zh":"普洛耶什蒂"},"display_name":"Ploiești, Prahova, România","address":{"city":"Ploiești","county":"Prahova","ISO3166-2-lvl4":"RO-PH","country":"România","country_code":"ro"},"population":224406,"osm_type":"relation","osm_id":10694407,"type":"administrative","location":[26.0236504,44.9417468],"bbox":[25.9178971,44.8961443,26.1019693,44.9684177]}}
{"name":"Rădăuți","other_names":{"name:bg":"Ръдъуц","name:cs":"Rădăuți","name:de":"Radautz","name:el":"Ρανταούτσι","name:en":"Rădăuți","name:fr":"Rădăuți","name:he":"רדאוץ","name:hr":"Rădăuți","name:hu":"Radóc","name:ml":"റഡൗറ്റ്സ്","name:pl":"Radowce","name:ro":"Rădăuți","name:ru":"Рэдэуцы","name:sr":"Радауци","name:uk":"Радівці","name:yi":"ראַדעװיץ"},"display_name":"Rădăuți, Suceava, 725400, România","address":{"city":"Rădăuți","county":"Suceava","ISO3166-2-lvl4":"RO-SV","postcode":"725400","country":"România","country_code":"ro"},"population":31074,"osm_type":"node","osm_id":264527858,"type":"city","location":[25.9181822,47.8461055],"bbox":[25.7581822,47.6861055,26.0781822,48.0061055],"border":{"name":"Rădăuți","other_names":{"name:pl":"Radowce","name:ro":"Rădăuți","name:bg":"Ръдъуц","name:cs":"Rădăuți","name:de":"Radautz","name:el":"Ρανταούτσι","name:en":"Rădăuți","name:fr":"Rădăuți","name:he":"רדאוץ","name:hr":"Rădăuți","name:hu":"Radóc","name:ml":"റഡൗറ്റ്സ്","name:ru":"Рэдэуцы","name:sr":"Радауци","name:uk":"Радівці","name:yi":"ראַדעװיץ"},"display_name":"Rădăuți, Suceava, 725400, România","address":{"city":"Rădăuți","county":"Suceava","ISO3166-2-lvl4":"RO-SV","postcode":"725400","country":"România","country_code":"ro"},"population":31074,"osm_type":"relation","osm_id":10495792,"type":"administrative","location":[25.9181822,47.8461055],"bbox":[25.8817515,47.8176235,25.9830688,47.8766975]}}
{"name":"Râmnicu Sărat","other_names":{"name:be":"Рымніку-Сэрат","name:bg":"Ръмнику Сърат","name:de":"Râmnicu Sărat","name:en":"Râmnicu Sărat","name:fr":"Râmnicu Sărat","name:he":"רמניקו סראט","name:hr":"Râmnicu Sărat","name:hu":"Râmnicu Sărat","name:ml":"റിംനിക്ക്","name:pl":"Rymnik","name:ro":"Râmnicu Sărat","name:ru":"Рымнику-Сэрат","name:sr":"Рамнику Сарат","name:uk":"Римник","alt_name:fr":"Rimnik","old_name:de":"Rümnick"},"display_name":"Râmnicu Sărat, Buzău, 125300, România","address":{"city":"Râmnicu Sărat","county":"Buzău","ISO3166-2-lvl4":"RO-BZ","postcode":"125300","country":"România","country_code":"ro"},"population":41405,"osm_type":"node","osm_id":141763657,"type":"city","location":[27.0417011,45.3854458],"bbox":[26.8817011,45.2254458,27.2017011,45.5454458],"border":[{"name":"Râmnicu Sărat","other_names":{"name:pl":"Rymnik","name:ro":"Râmnicu Sărat","name:ru":"Рымнику-Сэрат"},"display_name":"Râmnicu Sărat, Buzău, 125300, România","address":{"city":"Râmnicu Sărat","county":"Buzău","ISO3166-2-lvl4":"RO-BZ","postcode":"125300","country":"România","country_code":"ro"},"osm_type":"way","osm_id":41667190,"type":"city","location":[27.05030515118966,45.3854986],"bbox":[27.0283732,45.3625458,27.0703436,45.4084405]},{"name":"Râmnicu Sărat","other_names":{"name:ro":"Râmnicu Sărat","name:be":"Рымніку-Сэрат","name:bg":"Ръмнику Сърат","name:de":"Râmnicu Sărat","name:en":"Râmnicu Sărat","name:fr":"Râmnicu Sărat","name:he":"רמניקו סראט","name:hr":"Râmnicu Sărat","name:hu":"Râmnicu Sărat","name:ml":"റിംനിക്ക്","name:pl":"Rymnik","name:ru":"Рымнику-Сэрат","name:sr":"Рамнику Сарат","name:uk":"Римник","alt_name:fr":"Rimnik","old_name:de":"Rümnick"},"display_name":"Râmnicu Sărat, Buzău, 125300, România","address":{"city":"Râmnicu Sărat","county":"Buzău","ISO3166-2-lvl4":"RO-BZ","postcode":"125300","country":"România","country_code":"ro"},"population":41405,"osm_type":"relation","osm_id":10698244,"type":"administrative","location":[27.0417011,45.3854458],"bbox":[27.0248998,45.3574229,27.1582834,45.4748933]}]}
{"name":"Râmnicu Vâlcea","other_names":{"name:ar":"رمينكو فيلتشا","name:de":"Râmnicu Vâlcea","name:el":"Ρίμνικου Βίλτσεα","name:en":"Râmnicu Vâlcea","name:es":"Râmnicu Vâlcea","name:fr":"Râmnicu Vâlcea","name:lt":"Rimniku Vilča","name:ml":"റിംനിക്കു വില്‍ച","name:ru":"Рымнику-Вылча","name:sr":"Рамнику Валча","name:uk":"Римніку-Вилча","old_name":"Rîmnicu Vîlcea","old_name:de":"Wultsch"},"display_name":"Râmnicu Vâlcea, Vâlcea, România","address":{"city":"Râmnicu Vâlcea","county":"Vâlcea","ISO3166-2-lvl4":"RO-VL","country":"România","country_code":"ro"},"population":98776,"osm_type":"node","osm_id":140109135,"type":"city","location":[24.3647209,45.1031731],"bbox":[24.2047209,44.9431731,24.5247209,45.2631731],"border":{"name":"Râmnicu Vâlcea","other_names":{"name:ro":"Râmnicu Vâlcea","name:ar":"رمينكو فيلتشا","name:de":"Râmnicu Vâlcea","name:el":"Ρίμνικου Βίλτσεα","name:en":"Râmnicu Vâlcea","name:es":"Râmnicu Vâlcea","name:fr":"Râmnicu Vâlcea","name:lt":"Rimniku Vilča","name:ml":"റിംനിക്കു വില്‍ച","name:ru":"Рымнику-Вылча","name:sr":"Рамнику Валча","name:uk":"Римніку-Вилча","old_name":"Rîmnicu Vîlcea","old_name:de":"Wultsch"},"display_name":"Râmnicu Vâlcea, Vâlcea, România","address":{"city":"Râmnicu Vâlcea","county":"Vâlcea","ISO3166-2-lvl4":"RO-VL","country":"România","country_code":"ro"},"population":98776,"osm_type":"relation","osm_id":9845421,"type":"administrative","location":[24.3647209,45.1031731],"bbox":[24.259638,45.0093413,24.4502659,45.1403211]}}
{"name":"Reghin","other_names":{"name:de":"Sächsisch-Regen","name:hu":"Szászrégen","name:ml":"റെഗിൻ","name:uk":"Регін","name:gem":"Reen","alt_name:de":"Sächsisch-Reen"},"display_name":"Reghin, Mureș, 545300, România","address":{"city":"Reghin","county":"Mureș","ISO3166-2-lvl4":"RO-MS","postcode":"545300","country":"România","country_code":"ro"},"population":38055,"osm_type":"node","osm_id":1563713053,"type":"city","location":[24.7000238,46.7796886],"bbox":[24.5400238,46.6196886,24.8600238,46.9396886],"border":{"name":"Reghin","other_names":{"name:hu":"Szászrégen","name:ro":"Reghin","name:de":"Sächsisch-Regen","name:ml":"റെഗിൻ","name:uk":"Регін","name:gem":"Reen","alt_name:de":"Sächsisch-Reen"},"display_name":"Reghin, Mureș, România","address":{"city":"Reghin","county":"Mureș","ISO3166-2-lvl4":"RO-MS","country":"România","country_code":"ro"},"population":38055,"osm_type":"relation","osm_id":10748298,"type":"administrative","location":[24.7000238,46.7796886],"bbox":[24.6379978,46.7115454,24.7485764,46.8218649]}}
{"name":"Reșița","other_names":{"name:de":"Reschitza","name:en":"Reșița","name:hr":"Rešica","name:hu":"Resicabánya","name:ml":"റെഷിറ്റ്സ","name:ru":"Решица","name:sr":"Решица","name:uk":"Решица","alt_name:de":"Reschitz"},"display_name":"Reșița, Caraș-Severin, România","address":{"city":"Reșița","county":"Caraș-Severin","ISO3166-2-lvl4":"RO-CS","country":"România","country_code":"ro"},"population":73282,"osm_type":"node","osm_id":34079017,"type":"city","location":[21.8877676,45.2890106],"bbox":[21.7277676,45.1290106,22.0477676,45.4490106],"border":{"name":"Reșița","other_names":{"name:hu":"Resicabánya","name:ro":"Reșița","name:de":"Reschitza","name:en":"Reșița","name:hr":"Rešica","name:ml":"റെഷിറ്റ്സ","name:ru":"Решица","name:sr":"Решица","name:uk":"Решица","alt_name:de":"Reschitz"},"display_name":"Reșița, Caraș-Severin, România","address":{"city":"Reșița","county":"Caraș-Severin","ISO3166-2-lvl4":"RO-CS","country":"România","country_code":"ro"},"population":73282,"osm_type":"relation","osm_id":10643277,"type":"administrative","location":[21.8877676,45.2890106],"bbox":[21.7996721,45.2098773,22.1126782,45.3878673]}}
{"name":"Roman","other_names":{"name:de":"Romesmarkt","name:el":"Ρόμαν","name:he":"רומאן","name:hu":"Románvásár","name:lt":"Romanas","name:ml":"റോമൻ","name:ro":"Roman","name:ru":"Роман","name:sr":"Роман","name:uk":"Роман","old_name:de":"Romesmarkt"},"display_name":"Roman, Neamț, 611142, România","address":{"city":"Roman","county":"Neamț","ISO3166-2-lvl4":"RO-NT","postcode":"611142","country":"România","country_code":"ro"},"population":80328,"osm_type":"node","osm_id":130487612,"type":"city","location":[26.9284165,46.92528],"bbox":[26.7684165,46.76528,27.0884165,47.08528],"border":[{"name":"Roman","other_names":{"name:ro":"Roman"},"display_name":"Roman, Neamț, România","address":{"city":"Roman","county":"Neamț","ISO3166-2-lvl4":"RO-NT","country":"România","country_code":"ro"},"osm_type":"way","osm_id":75376780,"type":"city","location":[26.929633327249007,46.93614065],"bbox":[26.8983718,46.9123648,26.9806523,46.9596644]},{"name":"Roman","other_names":{"name:de":"Romesmarkt","name:hu":"Románvásár","name:ro":"Roman","name:el":"Ρόμαν","name:he":"רומאן","name:lt":"Romanas","name:ml":"റോമൻ","name:ru":"Роман","name:sr":"Роман","name:uk":"Роман","old_name:de":"Romesmarkt"},"display_name":"Roman, Neamț, România","address":{"city":"Roman","county":"Neamț","ISO3166-2-lvl4":"RO-NT","country":"România","country_code":"ro"},"population":80328,"osm_type":"relation","osm_id":10761211,"type":"administrative","location":[26.9284165,46.92528],"bbox":[26.8894708,46.9091361,26.9940292,46.9627846]}]}
{"name":"Roșiorii de Vede","other_names":{"name:ml":"റോഷിയോറി ഡെ വെഡെ","name:ru":"Рошиорий-де-Веде","name:sr":"Рошиориј де Веде","alt_name":"Roșiori de Vede","name:sr-Latn":"Rošiorij de Vede"},"display_name":"Roșiorii de Vede, Teleorman, 145100, România","address":{"city":"Roșiorii de Vede","county":"Teleorman","ISO3166-2-lvl4":"RO-TR","postcode":"145100","country":"România","country_code":"ro"},"population":37640,"osm_type":"node","osm_id":140157011,"type":"city","location":[24.9952094,44.1083489],"bbox":[24.8352094,43.9483489,25.1552094,44.2683489],"border":{"name":"Roșiorii de Vede","other_names":{"name:ro":"Roșiorii de Vede","name:ru":"Рошиорий-де-Веде","name:ml":"റോഷിയോറി ഡെ വെഡെ","name:sr":"Рошиориј де Веде","alt_name":"Roșiori de Vede","name:sr-Latn":"Rošiorij de Vede"},"display_name":"Roșiorii de Vede, Teleorman, 145100, România","address":{"city":"Roșiorii de Vede","county":"Teleorman","ISO3166-2-lvl4":"RO-TR","postcode":"145100","country":"România","country_code":"ro"},"population":37640,"osm_type":"relation","osm_id":10664072,"type":"administrative","location":[24.9952094,44.1083489],"bbox":[24.9017464,43.9937744,25.0582574,44.1349339]}}
{"name":"Săcele","other_names":{"name:de":"Siebendörfer","name:hu":"Négyfalu","name:ru":"Сэчеле","name:uk":"Сечеле","old_name:hu":"Szecseleváros"},"display_name":"Săcele, Zona Metropolitană Brașov, Brașov, 505600, România","address":{"city":"Săcele","municipality":"Zona Metropolitană Brașov","county":"Brașov","ISO3166-2-lvl4":"RO-BV","postcode":"505600","country":"România","country_code":"ro"},"population":30226,"osm_type":"node","osm_id":129027204,"type":"city","location":[25.6910299,45.616651],"bbox":[25.5310299,45.456651,25.8510299,45.776651],"border":{"name":"Săcele","other_names":{"name:hu":"Négyfalu","name:ro":"Săcele","name:de":"Siebendörfer","name:ru":"Сэчеле","name:uk":"Сечеле","old_name:hu":"Szecseleváros"},"display_name":"Săcele, Zona Metropolitană Brașov, Brașov, România","address":{"city":"Săcele","municipality":"Zona Metropolitană Brașov","county":"Brașov","ISO3166-2-lvl4":"RO-BV","country":"România","country_code":"ro"},"population":30226,"osm_type":"relation","osm_id":10367675,"type":"administrative","location":[25.6910299,45.616651],"bbox":[25.5885794,45.4219213,25.9937481,45.6711486]}}
{"name":"Salonta","other_names":{"name:de":"Großsalontha","name:hu":"Nagyszalonta","name:ml":"സലോൻ്റ","name:ru":"Салонта"},"display_name":"Salonta, Bihor, 415500, România","address":{"city":"Salonta","county":"Bihor","ISO3166-2-lvl4":"RO-BH","postcode":"415500","country":"România","country_code":"ro"},"population":20660,"osm_type":"node","osm_id":119834386,"type":"city","location":[21.6594011,46.8024771],"bbox":[21.4994011,46.6424771,21.8194011,46.9624771],"border":{"name":"Salonta","other_names":{"name:hu":"Nagyszalonta","name:ro":"Salonta","name:de":"Großsalontha","name:ml":"സലോൻ്റ","name:ru":"Салонта"},"display_name":"Salonta, Bihor, 415500, România","address":{"city":"Salonta","county":"Bihor","ISO3166-2-lvl4":"RO-BH","postcode":"415500","country":"România","country_code":"ro"},"population":20660,"osm_type":"relation","osm_id":10718917,"type":"administrative","location":[21.6594011,46.8024771],"bbox":[21.4832192,46.7329643,21.7410189,46.8739781]}}
{"name":"Satu Mare","other_names":{"name:de":"Sathmar","name:el":"Σάτου Μάρε","name:hu":"Szatmárnémeti","name:lt":"Satu Marė","name:ml":"സറ്റു-മാറെ","name:ro":"Satu Mare","name:ru":"Сату-Маре","name:sk":"Satmár","name:sr":"Сату Маре","name:uk":"Сату-Маре"},"display_name":"Satu Mare, România","address":{"city":"Satu Mare","county":"Satu Mare","ISO3166-2-lvl4":"RO-SM","country":"România","country_code":"ro"},"population":102411,"osm_type":"node","osm_id":146881926,"type":"city","location":[22.8725598,47.7891763],"bbox":[22.7125598,47.6291763,23.0325598,47.9491763],"border":{"name":"Satu Mare","other_names":{"name:hu":"Szatmárnémeti","name:ro":"Satu Mare","name:de":"Sathmar","name:el":"Σάτου Μάρε","name:lt":"Satu Marė","name:ml":"സറ്റു-മാറെ","name:ru":"Сату-Маре","name:sk":"Satmár","name:sr":"Сату Маре","name:uk":"Сату-Маре"},"display_name":"Satu Mare, România","address":{"city":"Satu Mare","county":"Satu Mare","ISO3166-2-lvl4":"RO-SM","country":"România","country_code":"ro"},"population":102411,"osm_type":"relation","osm_id":10743034,"type":"administrative","location":[22.8725598,47.7891763],"bbox":[22.7560152,47.6978334,22.9768441,47.8945772]}}
{"name":"Sebeș","other_names":{"name:de":"Mühlbach","name:hu":"Szászsebes","name:ml":"സെബെഷ്","name:ro":"Sebeș","name:ru":"Себеш","name:uk":"Себеш","name:gem":"Melembåch"},"display_name":"Sebeș, Alba, 515800, România","address":{"city":"Sebeș","county":"Alba","ISO3166-2-lvl4":"RO-AB","postcode":"515800","country":"România","country_code":"ro"},"population":23227,"osm_type":"node","osm_id":1642378429,"type":"city","location":[23.5691574,45.9575384],"bbox":[23.4091574,45.7975384,23.7291574,46.1175384],"border":{"name":"Sebeș","other_names":{"name:hu":"Szászsebes","name:ro":"Sebeș","name:de":"Mühlbach","name:ml":"സെബെഷ്","name:ru":"Себеш","name:uk":"Себеш","name:gem":"Melembåch"},"display_name":"Sebeș, Alba, România","address":{"city":"Sebeș","county":"Alba","ISO3166-2-lvl4":"RO-AB","country":"România","country_code":"ro"},"population":23227,"osm_type":"relation","osm_id":10630983,"type":"administrative","location":[23.5691574,45.9575384],"bbox":[23.4967803,45.887273,23.6572614,46.0248318]}}
{"name":"Sepsiszentgyörgy","other_names":{"name:hu":"Sepsiszentgyörgy","name:ro":"Sfântu Gheorghe","name:be":"Сфынту-Георгэ","name:bg":"Сфънту Георге","name:de":"Sfântu Gheorghe","name:el":"Σφίντου Γκεόργκε","name:en":"Sfântu Gheorghe","name:fr":"Sfântu Gheorghe","name:hr":"Sfântu Gheorghe","name:ka":"სფინტუ-გეორგე","name:lt":"Sfintu Georgė","name:ml":"സ്ഫെന്റു ഗിയോർഗെ","name:ru":"Сфынту-Георге","name:sr":"Свети Ђорђе","name:uk":"Сфинту-Георге","alt_name:de":"Sankt Georgen","alt_name:hu":"Sepsiszentgyörgy","alt_name:ml":"സെന്റ് ജോർജ്ജ്","alt_name:ro":"Sfântu Gheorghe"},"display_name":"Sepsiszentgyörgy, Covasna, România","address":{"city":"Sepsiszentgyörgy","county":"Covasna","ISO3166-2-lvl4":"RO-CV","country":"România","country_code":"ro"},"population":56006,"osm_type":"relation","osm_id":10715864,"type":"administrative","location":[25.7865367,45.8659935],"bbox":[25.6748388,45.797227,25.8586112,45.9031095],"inferred_type":"city"}
{"name":"Sibiu","other_names":{"name:ar":"سيبيو","name:bg":"Сибиу","name:cs":"Sibiu","name:de":"Hermannstadt","name:el":"Σιμπίου","name:en":"Sibiu","name:es":"Sibiu","name:fr":"Sibiu","name:he":"סיביו","name:hr":"Sibiu","name:hu":"Nagyszeben","name:la":"Cibinium","name:ml":"സിബിയൂ","name:pl":"Sybin","name:ro":"Sibiu","name:ru":"Сибиу","name:sk":"Sibiu","name:sl":"Sibiu","name:sr":"Сибињ","name:uk":"Сібіу","alt_name:cs":"Sibiň","alt_name:de":"Härmeschtat","alt_name:sk":"Sibiň"},"display_name":"Sibiu, 550000, România","address":{"city":"Sibiu","county":"Sibiu","ISO3166-2-lvl4":"RO-SB","postcode":"550000","country":"România","country_code":"ro"},"population":147245,"osm_type":"node","osm_id":290485693,"type":"city","location":[24.1519202,45.7973912],"bbox":[23.9919202,45.6373912,24.3119202,45.9573912],"border":{"name":"Sibiu","other_names":{"name:hu":"Nagyszeben","name:ro":"Sibiu","name:ar":"سيبيو","name:bg":"Сибиу","name:cs":"Sibiu","name:de":"Hermannstadt","name:el":"Σιμπίου","name:en":"Sibiu","name:es":"Sibiu","name:fr":"Sibiu","name:he":"סיביו","name:hr":"Sibiu","name:la":"Cibinium","name:ml":"സിബിയൂ","name:pl":"Sybin","name:ru":"Сибиу","name:sk":"Sibiu","name:sl":"Sibiu","name:sr":"Сибињ","name:uk":"Сібіу","alt_name:cs":"Sibiň","alt_name:de":"Härmeschtat","alt_name:sk":"Sibiň"},"display_name":"Sibiu, România","address":{"city":"Sibiu","county":"Sibiu","ISO3166-2-lvl4":"RO-SB","country":"România","country_code":"ro"},"population":147245,"osm_type":"relation","osm_id":9846497,"type":"administrative","location":[24.1519202,45.7973912],"bbox":[23.9219067,45.6338743,24.2445941,45.8570932]}}
{"name":"Sighetu Marmației","other_names":{"name:cs":"Marmarožská Sihoť","name:de":"Marmaroschsiget","name:en":"Sighetu Marmatiei","name:hu":"Máramarossziget","name:ml":"സിഗെറ്റു മർമാറ്റ്സിയെയ്","name:pl":"Syhot Marmaroski","name:ru":"Сигету-Мармацией","name:sk":"Marmarošská Sihoť","name:sr":"Сигету Мармациеј","name:uk":"Сигіт-Мармароський","reg_name":"Sighet","old_name:-1964":"Sighet"},"display_name":"Sighetu Marmației, Maramureș, 435500, România","address":{"city":"Sighetu Marmației","county":"Maramureș","ISO3166-2-lvl4":"RO-MM","postcode":"435500","country":"România","country_code":"ro"},"population":37640,"osm_type":"node","osm_id":128554280,"type":"city","location":[23.8915583,47.9283242],"bbox":[23.7315583,47.7683242,24.0515583,48.0883242],"border":{"name":"Sighetu Marmației","other_names":{"name:hu":"Máramarossziget","name:ro":"Sighetu Marmației","name:cs":"Marmarožská Sihoť","name:de":"Marmaroschsiget","name:en":"Sighetu Marmatiei","name:ml":"സിഗെറ്റു മർമാറ്റ്സിയെയ്","name:pl":"Syhot Marmaroski","name:ru":"Сигету-Мармацией","name:sk":"Marmarošská Sihoť","name:sr":"Сигету Мармациеј","name:uk":"Сигіт-Мармароський","reg_name":"Sighet","old_name:-1964":"Sighet"},"display_name":"Sighetu Marmației, Maramureș, România","address":{"city":"Sighetu Marmației","county":"Maramureș","ISO3166-2-lvl4":"RO-MM","country":"România","country_code":"ro"},"population":37640,"osm_type":"relation","osm_id":10744322,"type":"administrative","location":[23.8915583,47.9283242],"bbox":[23.726833,47.8423562,23.9745802,47.9521577]}}
{"name":"Sighișoara","other_names":{"name:ar":"سيغيشوارا","name:de":"Schäßburg","name:en":"Sighișoara","name:es":"Sighișoara","name:fr":"Sighișoara","name:he":"סיגישוארה","name:hu":"Segesvár","name:la":"Saxoburgum","name:lt":"Sigišoara","name:ml":"സിഗിഷോറ","name:ru":"Сигишоара","name:sr":"Сегешвар","name:uk":"Сігішоара","name:gem":"Scheessprich","old_name":"Schäßburg","old_name:la":"Castrum Sex"},"display_name":"Sighișoara, Mureș, România","address":{"city":"Sighișoara","county":"Mureș","ISO3166-2-lvl4":"RO-MS","country":"România","country_code":"ro"},"population":32570,"osm_type":"node","osm_id":59722301,"type":"city","location":[24.7934483,46.2202037],"bbox":[24.6334483,46.0602037,24.9534483,46.3802037],"border":{"name":"Sighișoara","other_names":{"name:hu":"Segesvár","name:ro":"Sighișoara","name:ar":"سيغيشوارا","name:de":"Schäßburg","name:en":"Sighișoara","name:es":"Sighișoara","name:fr":"Sighișoara","name:he":"סיגישוארה","name:la":"Saxoburgum","name:lt":"Sigišoara","name:ml":"സിഗിഷോറ","name:ru":"Сигишоара","name:sr":"Сегешвар","name:uk":"Сігішоара","name:gem":"Scheessprich","old_name":"Schäßburg","old_name:la":"Castrum Sex"},"display_name":"Sighișoara, Mureș, România","address":{"city":"Sighișoara","county":"Mureș","ISO3166-2-lvl4":"RO-MS","country":"România","country_code":"ro"},"population":32570,"osm_type":"relation","osm_id":10748434,"type":"administrative","location":[24.7934483,46.2202037],"bbox":[24.7129556,46.1556282,24.8432363,46.2995069]}}
{"name":"Slatina","other_names":{"name:bg":"Слатина","name:el":"Σλάτινα","name:ml":"സ്ലാറ്റിന","name:ru":"Слатина","name:sr":"Слатина","name:uk":"Слатіна"},"display_name":"Slatina, Olt, România","address":{"city":"Slatina","county":"Olt","ISO3166-2-lvl4":"RO-OT","country":"România","country_code":"ro"},"population":70293,"osm_type":"node","osm_id":138033311,"type":"city","location":[24.3631837,44.4299971],"bbox":[24.2031837,44.2699971,24.5231837,44.5899971],"border":[{"name":"Slatina","other_names":{"name:ro":"Slatina","name:ru":"Слатина"},"display_name":"Slatina, Olt, România","address":{"city":"Slatina","county":"Olt","ISO3166-2-lvl4":"RO-OT","country":"România","country_code":"ro"},"population":70293,"osm_type":"way","osm_id":593508908,"type":"city","location":[24.367629836323825,44.428062249999996],"bbox":[24.3358871,44.4048809,24.4070102,44.4513449]},{"name":"Slatina","other_names":{"name:ro":"Slatina","name:bg":"Слатина","name:el":"Σλάτινα","name:ml":"സ്ലാറ്റിന","name:ru":"Слатина","name:sr":"Слатина","name:uk":"Слатіна"},"display_name":"Slatina, Olt, România","address":{"city":"Slatina","county":"Olt","ISO3166-2-lvl4":"RO-OT","country":"România","country_code":"ro"},"population":70293,"osm_type":"relation","osm_id":9744252,"type":"administrative","location":[24.3631837,44.4299971],"bbox":[24.320581,44.3896292,24.4334868,44.4779601]}]}
{"name":"Slobozia","other_names":{"name:el":"Σλομπόζια","name:lt":"Slobozija","name:ml":"സ്ലോബോസിയ","name:ru":"Слобозия","name:sr":"Слобозија","name:uk":"Слобозія","old_name:de":"Freistadt"},"display_name":"Slobozia, Ialomița, România","address":{"city":"Slobozia","county":"Ialomița","ISO3166-2-lvl4":"RO-IL","country":"România","country_code":"ro"},"population":45891,"osm_type":"node","osm_id":99967143,"type":"city","location":[27.3618477,44.5635999],"bbox":[27.2018477,44.4035999,27.5218477,44.7235999],"border":{"name":"Slobozia","other_names":{"name:ro":"Slobozia","name:el":"Σλομπόζια","name:lt":"Slobozija","name:ml":"സ്ലോബോസിയ","name:ru":"Слобозия","name:sr":"Слобозија","name:uk":"Слобозія","old_name:de":"Freistadt"},"display_name":"Slobozia, Ialomița, România","address":{"city":"Slobozia","county":"Ialomița","ISO3166-2-lvl4":"RO-IL","country":"România","country_code":"ro"},"population":45891,"osm_type":"relation","osm_id":10698044,"type":"administrative","location":[27.3618477,44.5635999],"bbox":[27.302711,44.4962336,27.4513728,44.720604]}}
{"name":"Suceava","other_names":{"name:cs":"Sučava","name:de":"Suczawa","name:el":"Σουτσεάβα","name:hu":"Szucsáva","name:lt":"Sučava","name:ml":"സുച്ചാവ","name:pl":"Suczawa","name:ru":"Сучава","name:sr":"Сучава","name:uk":"Сучава"},"display_name":"Suceava, România","address":{"city":"Suceava","county":"Suceava","ISO3166-2-lvl4":"RO-SV","country":"România","country_code":"ro"},"population":92121,"osm_type":"node","osm_id":128556778,"type":"city","location":[26.2522599,47.647001],"bbox":[26.0922599,47.487001,26.4122599,47.807001],"border":{"name":"Suceava","other_names":{"name:ro":"Suceava","name:cs":"Sučava","name:de":"Suczawa","name:el":"Σουτσεάβα","name:hu":"Szucsáva","name:lt":"Sučava","name:ml":"സുച്ചാവ","name:pl":"Suczawa","name:ru":"Сучава","name:sr":"Сучава","name:uk":"Сучава"},"display_name":"Suceava, România","address":{"city":"Suceava","county":"Suceava","ISO3166-2-lvl4":"RO-SV","country":"România","country_code":"ro"},"population":92121,"osm_type":"relation","osm_id":10495794,"type":"administrative","location":[26.2522599,47.647001],"bbox":[26.2051783,47.6086406,26.3188346,47.7193598]}}
{"name":"Târgoviște","other_names":{"name:bg":"Търговище","name:cs":"Târgoviște","name:de":"Târgoviște","name:en":"Târgoviște","name:he":"טרגובישטה","name:hr":"Târgoviște","name:hu":"Tergovistye","name:lt":"Tirgovištė","name:ml":"ടിർഗോവിഷ്ടെ","name:ru":"Тырговиште","name:sr":"Трговиште","name:uk":"Тирговіште","alt_name:cs":"Trhoviště","alt_name:de":"Tergowisch"},"display_name":"Târgoviște, Dâmbovița, România","address":{"city":"Târgoviște","county":"Dâmbovița","ISO3166-2-lvl4":"RO-DB","country":"România","country_code":"ro"},"population":79610,"osm_type":"node","osm_id":116851075,"type":"city","location":[25.462816,44.9267709],"bbox":[25.302816,44.7667709,25.622816,45.0867709],"border":{"name":"Târgoviște","other_names":{"name:ro":"Târgoviște","name:ru":"Тырговиште","name:bg":"Търговище","name:cs":"Târgoviște","name:de":"Târgoviște","name:en":"Târgoviște","name:he":"טרגובישטה","name:hr":"Târgoviște","name:hu":"Tergovistye","name:lt":"Tirgovištė","name:ml":"ടിർഗോവിഷ്ടെ","name:sr":"Трговиште","name:uk":"Тирговіште","alt_name:cs":"Trhoviště","alt_name:de":"Tergowisch"},"display_name":"Târgoviște, Dâmbovița, România","address":{"city":"Târgoviște","county":"Dâmbovița","ISO3166-2-lvl4":"RO-DB","country":"România","country_code":"ro"},"population":79610,"osm_type":"relation","osm_id":10694366,"type":"administrative","location":[25.462816,44.9267709],"bbox":[25.3599021,44.8869488,25.5329,44.9509495]}}
{"name":"Târgu Jiu","other_names":{"name:ar":"ترجو جيو","name:de":"Tergoschwyl","name:el":"Τίργκου Ζίου","name:en":"Târgu Jiu","name:es":"Târgu Jiu","name:fr":"Târgu Jiu","name:hu":"Zsilvásárhely","name:lt":"Tirgu Žiu","name:ml":"ടിർഗു ജിയു","name:ru":"Тыргу-Жиу","name:sr":"Таргу Жију","name:uk":"Тиргу-Жіу","alt_name":"Tîrgu Jiu","int_name":"Târgu Jiu"},"display_name":"Târgu Jiu, Gorj, România","address":{"city":"Târgu Jiu","county":"Gorj","ISO3166-2-lvl4":"RO-GJ","country":"România","country_code":"ro"},"population":82504,"osm_type":"node","osm_id":138009623,"type":"city","location":[23.2728118,45.0422947],"bbox":[23.1128118,44.8822947,23.4328118,45.2022947],"border":[{"name":"Târgu Jiu","other_names":{"name:ro":"Târgu Jiu","name:ru":"Тыргу-Жиу","int_name":"Târgu Jiu"},"display_name":"Târgu Jiu, Gorj, România","address":{"city":"Târgu Jiu","county":"Gorj","ISO3166-2-lvl4":"RO-GJ","country":"România","country_code":"ro"},"population":82504,"osm_type":"way","osm_id":70202057,"type":"city","location":[23.28569600115452,45.0500093],"bbox":[23.2234353,44.996102,23.3378645,45.103736]},{"name":"Târgu Jiu","other_names":{"name:ro":"Târgu Jiu","name:ar":"ترجو جيو","name:de":"Tergoschwyl","name:el":"Τίργκου Ζίου","name:en":"Târgu Jiu","name:es":"Târgu Jiu","name:fr":"Târgu Jiu","name:hu":"Zsilvásárhely","name:lt":"Tirgu Žiu","name:ml":"ടിർഗു ജിയു","name:ru":"Тыргу-Жиу","name:sr":"Таргу Жију","name:uk":"Тиргу-Жіу","alt_name":"Tîrgu Jiu","int_name":"Târgu Jiu"},"display_name":"Târgu Jiu, Gorj, România","address":{"city":"Târgu Jiu","county":"Gorj","ISO3166-2-lvl4":"RO-GJ","country":"România","country_code":"ro"},"population":82504,"osm_type":"relation","osm_id":9717305,"type":"administrative","location":[23.2728118,45.0422947],"bbox":[23.2013173,44.9884068,23.3821383,45.1052736]}]}
{"name":"Târgu Mureș","other_names":{"name:ar":"ترجو موريش","name:be":"Тыргу-Мурэш","name:bg":"Търгу Муреш","name:cs":"Târgu Mureș","name:de":"Neumarkt am Mieresch","name:el":"Τίργκου Μούρες","name:en":"Târgu Mureș","name:es":"Târgu Mureș","name:fa":"ترگو مورش","name:fr":"Târgu Mureș","name:he":"טרגו מורש","name:hr":"Târgu Mureș","name:hu":"Marosvásárhely","name:id":"Târgu Mureş","name:ja":"トゥルグ・ムレシュ","name:ko":"트르구무레슈","name:la":"Novum Forum Siculorum","name:li":"Târgu Mureş","name:lt":"Tirgu Murešas","name:ml":"ടിർഗു മുറെഷ്","name:nn":"Târgu Mureş","name:pl":"Târgu Mureș","name:ro":"Târgu Mureș","name:ru":"Тыргу-Муреш","name:sk":"Târgu Mureş","name:sl":"Târgu Mureș","name:sr":"Таргу Муреш","name:sv":"Târgu Mureş","name:tg":"Тиргу-Муреш","name:th":"ตีร์กูมูเรช","name:uk":"Тиргу-Муреш","name:vi":"Târgu Mureş","name:zh":"特尔古穆列什"},"display_name":"Târgu Mureș, Zona Metropolitană Târgu Mureș, Mureș, România","address":{"city":"Târgu Mureș","municipality":"Zona Metropolitană Târgu Mureș","county":"Mureș","ISO3166-2-lvl4":"RO-MS","country":"România","country_code":"ro"},"population":134290,"osm_type":"node","osm_id":26292942,"type":"city","location":[24.561196,46.5446253],"bbox":[24.401196,46.3846253,24.721196,46.7046253],"border":{"name":"Târgu Mureș","other_names":{"name:bg":"Търгу Муреш","name:de":"Neumarkt am Mieresch","name:el":"Τίργκου Μούρες","name:hu":"Marosvásárhely","name:la":"Novum Forum Siculorum","name:ro":"Târgu Mureș","name:ru":"Тыргу-Муреш","name:zh":"特尔古穆列什","name:ar":"ترجو موريش","name:be":"Тыргу-Мурэш","name:cs":"Târgu Mureș","name:en":"Târgu Mureș","name:es":"Târgu Mureș","name:fa":"ترگو مورش","name:fr":"Târgu Mureș","name:he":"טרגו מורש","name:hr":"Târgu Mureș","name:id":"Târgu Mureş","name:ja":"トゥルグ・ムレシュ","name:ko":"트르구무레슈","name:li":"Târgu Mureş","name:lt":"Tirgu Murešas","name:ml":"ടിർഗു മുറെഷ്","name:nn":"Târgu Mureş","name:pl":"Târgu Mureș","name:sk":"Târgu Mureş","name:sl":"Târgu Mureș","name:sr":"Таргу Муреш","name:sv":"Târgu Mureş","name:tg":"Тиргу-Муреш","name:th":"ตีร์กูมูเรช","name:uk":"Тиргу-Муреш","name:vi":"Târgu Mureş"},"display_name":"Târgu Mureș, Zona Metropolitană Târgu Mureș, Mureș, România","address":{"city":"Târgu Mureș","municipality":"Zona Metropolitană Târgu Mureș","county":"Mureș","ISO3166-2-lvl4":"RO-MS","country":"România","country_code":"ro"},"population":134290,"osm_type":"relation","osm_id":8334767,"type":"administrative","location":[24.561196,46.5446253],"bbox":[24.4918674,46.500017,24.6268485,46.5961738]}}
{"name":"Târgu Secuiesc","other_names":{"name:de":"Szekler Neumarkt","name:hu":"Kézdivásárhely","name:ml":"ടിർഗു സെക്കുയെസ്ക്","name:ro":"Târgu Secuiesc","name:ru":"Тыргу-Секуйеск"},"display_name":"Târgu Secuiesc, Covasna, România","address":{"city":"Târgu Secuiesc","county":"Covasna","ISO3166-2-lvl4":"RO-CV","country":"România","country_code":"ro"},"population":21304,"osm_type":"node","osm_id":142231708,"type":"city","location":[26.1373615,46.0007042],"bbox":[25.9773615,45.8407042,26.2973615,46.1607042],"border":{"name":"Târgu Secuiesc","other_names":{"name:hu":"Kézdivásárhely","name:ro":"Târgu Secuiesc","name:de":"Szekler Neumarkt","name:ml":"ടിർഗു സെക്കുയെസ്ക്","name:ru":"Тыргу-Секуйеск"},"display_name":"Târgu Secuiesc, Covasna, România","address":{"city":"Târgu Secuiesc","county":"Covasna","ISO3166-2-lvl4":"RO-CV","country":"România","country_code":"ro"},"population":21304,"osm_type":"relation","osm_id":10715892,"type":"administrative","location":[26.1373615,46.0007042],"bbox":[26.0888809,45.9667551,26.2633336,46.0464043]}}
{"name":"Târnăveni","other_names":{"name:de":"Sankt Martin","name:hu":"Dicsőszentmárton","name:ml":"ടിർനെവെനി","name:ro":"Târnăveni","name:ru":"Тырнэвены","name:uk":"Тирневені"},"display_name":"Târnăveni, Mureș, 545600, România","address":{"city":"Târnăveni","county":"Mureș","ISO3166-2-lvl4":"RO-MS","postcode":"545600","country":"România","country_code":"ro"},"population":26120,"osm_type":"node","osm_id":118124309,"type":"city","location":[24.2804126,46.3295278],"bbox":[24.1204126,46.1695278,24.4404126,46.4895278],"border":{"name":"Târnăveni","other_names":{"name:hu":"Dicsőszentmárton","name:ro":"Târnăveni","name:de":"Sankt Martin","name:ml":"ടിർനെവെനി","name:ru":"Тырнэвены","name:uk":"Тирневені"},"display_name":"Târnăveni, Mureș, România","address":{"city":"Târnăveni","county":"Mureș","ISO3166-2-lvl4":"RO-MS","country":"România","country_code":"ro"},"population":26120,"osm_type":"relation","osm_id":10748282,"type":"administrative","location":[24.2804126,46.3295278],"bbox":[24.2052726,46.2612878,24.3310761,46.3811083]}}
{"name":"Tecuci","other_names":{"name:hu":"Tekucs","name:ml":"ടെക്കുച്ച്","name:ru":"Текуч","name:sr":"Текучи"},"display_name":"Tecuci, Galați, 805300, România","address":{"city":"Tecuci","county":"Galați","ISO3166-2-lvl4":"RO-GL","postcode":"805300","country":"România","country_code":"ro"},"population":46825,"osm_type":"node","osm_id":110399834,"type":"city","location":[27.4290798,45.8457816],"bbox":[27.2690798,45.6857816,27.5890798,46.0057816],"border":[{"name":"Tecuci","other_names":{"name:ro":"Tecuci","name:ru":"Текуч"},"display_name":"Tecuci, Galați, România","address":{"city":"Tecuci","county":"Galați","ISO3166-2-lvl4":"RO-GL","country":"România","country_code":"ro"},"osm_type":"way","osm_id":75221117,"type":"city","location":[27.42913943532941,45.851780500000004],"bbox":[27.3931392,45.817876,27.448466,45.8843012]},{"name":"Tecuci","other_names":{"name:ro":"Tecuci","name:hu":"Tekucs","name:ml":"ടെക്കുച്ച്","name:ru":"Текуч","name:sr":"Текучи"},"display_name":"Tecuci, Galați, România","address":{"city":"Tecuci","county":"Galați","ISO3166-2-lvl4":"RO-GL","country":"România","country_code":"ro"},"population":46825,"osm_type":"relation","osm_id":10715516,"type":"administrative","location":[27.4290798,45.8457816],"bbox":[27.3412685,45.7851188,27.491043,45.8935623]}]}
{"name":"Timișoara","other_names":{"name:ar":"تيميشوارا","name:az":"Timişoara","name:be":"Тымішаара","name:bg":"Тимишоара","name:bn":"তিমিশোয়ারা","name:bs":"Temišvar","name:ce":"Тимишоара","name:cs":"Temešvár","name:cv":"Тимишоара","name:de":"Temeswar","name:el":"Τιμισοάρα","name:en":"Timișoara","name:es":"Timișoara","name:fa":"تیمیشوارا","name:fr":"Timișoara","name:he":"טימישוארה","name:hr":"Temišvar","name:hu":"Temesvár","name:hy":"Տիմիշոարա","name:ie":"Timişoara","name:ja":"ティミショアラ","name:ka":"ტიმიშოარა","name:ko":"티미쇼아라","name:la":"Timisvaria","name:lt":"Timišoara","name:lv":"Timišoara","name:mk":"Темишвар","name:ml":"ടിമിഷോറ","name:mn":"Тимишоара","name:mr":"तिमिसोआरा","name:os":"Тимишоарæ","name:ro":"Timișoara","name:ru":"Тимишоара","name:sk":"Temešvár","name:sl":"Temišvar","name:sq":"Temishvari","name:sr":"Темишвар","name:tg":"Тимишоара","name:th":"ตีมีชออารา","name:tr":"Temeşvar","name:tt":"Timişoara","name:uk":"Тімішоара","name:ur":"تیمیشوارا","name:uz":"Timishoare","name:zh":"蒂米什瓦拉","old_name:de":"Temeschwar;Temeschburg","old_name:tr":"Tımışvar;Tamışvar"},"display_name":"Timișoara, Timiș, România","address":{"city":"Timișoara","county":"Timiș","ISO3166-2-lvl4":"RO-TM","country":"România","country_code":"ro"},"population":319279,"osm_type":"node","osm_id":57116400,"type":"city","location":[21.2257474,45.7538355],"bbox":[21.0657474,45.5938355,21.3857474,45.9138355],"border":{"name":"Timișoara","other_names":{"name:de":"Temeswar","name:el":"Τιμισοάρα","name:hu":"Temesvár","name:ro":"Timișoara","name:ru":"Тимишоара","name:sk":"Temešvár","name:sr":"Темишвар","old_name:de":"Temeschwar;Temeschburg","name:ar":"تيميشوارا","name:az":"Timişoara","name:be":"Тымішаара","name:bg":"Тимишоара","name:bn":"তিমিশোয়ারা","name:bs":"Temišvar","name:ce":"Тимишоара","name:cs":"Temešvár","name:cv":"Тимишоара","name:en":"Timișoara","name:es":"Timișoara","name:fa":"تیمیشوارا","name:fr":"Timișoara","name:he":"טימישוארה","name:hr":"Temišvar","name:hy":"Տիմիշոարա","name:ie":"Timişoara","name:ja":"ティミショアラ","name:ka":"ტიმიშოარა","name:ko":"티미쇼아라","name:la":"Timisvaria","name:lt":"Timišoara","name:lv":"Timišoara","name:mk":"Темишвар","name:ml":"ടിമിഷോറ","name:mn":"Тимишоара","name:mr":"तिमिसोआरा","name:os":"Тимишоарæ","name:sl":"Temišvar","name:sq":"Temishvari","name:tg":"Тимишоара","name:th":"ตีมีชออารา","name:tr":"Temeşvar","name:tt":"Timişoara","name:uk":"Тімішоара","name:ur":"تیمیشوارا","name:uz":"Timishoare","name:zh":"蒂米什瓦拉","old_name:tr":"Tımışvar;Tamışvar"},"display_name":"Timișoara, Timiș, România","address":{"city":"Timișoara","county":"Timiș","ISO3166-2-lvl4":"RO-TM","country":"România","country_code":"ro"},"population":319279,"osm_type":"relation","osm_id":6927733,"type":"administrative","location":[21.2257474,45.7538355],"bbox":[21.1116821,45.6838246,21.3272446,45.8341735]}}
{"name":"Toplița","other_names":{"name:de":"Töplitz","name:hu":"Maroshévíz","name:ml":"ടോപ്ലിറ്റ്സ","name:ru":"Топлица"},"display_name":"Toplița, Harghita, 535700, România","address":{"city":"Toplița","county":"Harghita","ISO3166-2-lvl4":"RO-HR","postcode":"535700","country":"România","country_code":"ro"},"population":13929,"osm_type":"node","osm_id":122291968,"type":"city","location":[25.352455,46.9241232],"bbox":[25.192455,46.7641232,25.512455,47.0841232],"border":{"name":"Toplița","other_names":{"name:hu":"Maroshévíz","name:ro":"Toplița","name:de":"Töplitz","name:ml":"ടോപ്ലിറ്റ്സ","name:ru":"Топлица"},"display_name":"Toplița, Harghita, România","address":{"city":"Toplița","county":"Harghita","ISO3166-2-lvl4":"RO-HR","country":"România","country_code":"ro"},"population":13929,"osm_type":"relation","osm_id":10760948,"type":"administrative","location":[25.352455,46.9241232],"bbox":[25.2301479,46.8381983,25.5322581,47.1216461]}}
{"name":"Tulcea","other_names":{"name:ro":"Tulcea","name:ru":"Тулча"},"display_name":"Tulcea, 820001, România","address":{"city":"Tulcea","county":"Tulcea","ISO3166-2-lvl4":"RO-TL","postcode":"820001","country":"România","country_code":"ro"},"osm_type":"way","osm_id":74701097,"type":"city","location":[28.795467205486503,45.192175500000005],"bbox":[28.79264,45.182772,28.813289,45.20169],"border":{"name":"Tulcea","other_names":{"name:ro":"Tulcea","name:ru":"Тулча"},"display_name":"Tulcea, România","address":{"city":"Tulcea","county":"Tulcea","ISO3166-2-lvl4":"RO-TL","country":"România","country_code":"ro"},"osm_type":"way","osm_id":667036039,"type":"city","location":[28.78616719948685,45.17896675],"bbox":[28.7463446,45.1564185,28.8335,45.201716]}}
{"name":"Tulcea","other_names":{"name:be":"Тулча","name:bg":"Тулча","name:cs":"Tulcea","name:de":"Tulcea","name:el":"Τούλτσεα","name:he":"טולצ'אה","name:hr":"Tulcea","name:hu":"Tulcsa","name:ko":"툴차","name:la":"Aegyssos","name:lt":"Tulča","name:ml":"ടുൽച","name:pl":"Tulcza","name:ro":"Tulcea","name:ru":"Тулча","name:sr":"Тулча","name:tr":"Tulça","name:uk":"Тульча","name:crh":"Tulça","old_name:de":"Tultscha"},"display_name":"Tulcea, România","address":{"city":"Tulcea","county":"Tulcea","ISO3166-2-lvl4":"RO-TL","country":"România","country_code":"ro"},"population":73707,"osm_type":"node","osm_id":128657320,"type":"city","location":[28.8016348,45.177518],"bbox":[28.6416348,45.017518,28.9616348,45.337518],"border":{"name":"Tulcea","other_names":{"name:pl":"Tulcza","name:ro":"Tulcea","name:be":"Тулча","name:bg":"Тулча","name:cs":"Tulcea","name:de":"Tulcea","name:el":"Τούλτσεα","name:he":"טולצ'אה","name:hr":"Tulcea","name:hu":"Tulcsa","name:ko":"툴차","name:la":"Aegyssos","name:lt":"Tulča","name:ml":"ടുൽച","name:ru":"Тулча","name:sr":"Тулча","name:tr":"Tulça","name:uk":"Тульча","name:crh":"Tulça","old_name:de":"Tultscha"},"display_name":"Tulcea, România","address":{"city":"Tulcea","county":"Tulcea","ISO3166-2-lvl4":"RO-TL","country":"România","country_code":"ro"},"population":73707,"osm_type":"relation","osm_id":9883781,"type":"administrative","location":[28.8016348,45.177518],"bbox":[28.6870918,45.0530545,28.9129902,45.2497722]}}
{"name":"Turda","other_names":{"name:bg":"Турда","name:de":"Thorenburg","name:hu":"Torda","name:ml":"ടുർഡ","name:ru":"Турда","name:sr":"Турда"},"display_name":"Turda, Cluj, 401100, România","address":{"city":"Turda","county":"Cluj","ISO3166-2-lvl4":"RO-CJ","postcode":"401100","country":"România","country_code":"ro"},"population":47744,"osm_type":"node","osm_id":57772848,"type":"city","location":[23.7853643,46.5685214],"bbox":[23.6253643,46.4085214,23.9453643,46.7285214],"border":{"name":"Turda","other_names":{"name:hu":"Torda","name:ro":"Turda","name:ru":"Турда","name:bg":"Турда","name:de":"Thorenburg","name:ml":"ടുർഡ","name:sr":"Турда"},"display_name":"Turda, Cluj, România","address":{"city":"Turda","county":"Cluj","ISO3166-2-lvl4":"RO-CJ","country":"România","country_code":"ro"},"population":47744,"osm_type":"relation","osm_id":10631156,"type":"administrative","location":[23.7853643,46.5685214],"bbox":[23.7177826,46.5191238,23.8861373,46.6489718]}}
{"name":"Turnu Măgurele","other_names":{"name:de":"Großnikopel","name:ml":"ടുർനു-മഗുറെലെ","name:ru":"Турну-Мэгуреле","name:sr":"Турну Магуреле","name:uk":"Турну-Мегуреле","old_name":"Turnu","name:sr-Latn":"Turnu Magurele"},"display_name":"Turnu Măgurele, Teleorman, 145200, România","address":{"city":"Turnu Măgurele","county":"Teleorman","ISO3166-2-lvl4":"RO-TR","postcode":"145200","country":"România","country_code":"ro"},"population":36966,"osm_type":"node","osm_id":140158404,"type":"city","location":[24.8691717,43.7518306],"bbox":[24.7091717,43.5918306,25.0291717,43.9118306],"border":{"name":"Turnu Măgurele","other_names":{"name:ro":"Turnu Măgurele","name:de":"Großnikopel","name:ml":"ടുർനു-മഗുറെലെ","name:ru":"Турну-Мэгуреле","name:sr":"Турну Магуреле","name:uk":"Турну-Мегуреле","old_name":"Turnu","name:sr-Latn":"Turnu Magurele"},"display_name":"Turnu Măgurele, Teleorman, 145200, România","address":{"city":"Turnu Măgurele","county":"Teleorman","ISO3166-2-lvl4":"RO-TR","postcode":"145200","country":"România","country_code":"ro"},"population":36966,"osm_type":"relation","osm_id":10664112,"type":"administrative","location":[24.8691717,43.7518306],"bbox":[24.7767346,43.7078494,24.9627764,43.8527841]}}
{"name":"Ungra - Rupea","other_names":{"name:hu":"Ugra - Kőhalom","name:ro":"Ungra - Rupea"},"display_name":"Ungra - Rupea, Brașov, România","address":{"city":"Ungra - Rupea","county":"Brașov","ISO3166-2-lvl4":"RO-BV","country":"România","country_code":"ro"},"osm_type":"way","osm_id":759837265,"type":"administrative","location":[25.263659048325366,46.02532475],"bbox":[25.2598786,46.0227675,25.2669184,46.0269389],"inferred_type":"city"}
{"name":"Ungra - Rupea","other_names":{"name:hu":"Ugra - Kőhalom","name:ro":"Ungra - Rupea"},"display_name":"Ungra - Rupea, Brașov, România","address":{"city":"Ungra - Rupea","county":"Brașov","ISO3166-2-lvl4":"RO-BV","country":"România","country_code":"ro"},"osm_type":"way","osm_id":759837264,"type":"administrative","location":[25.2678256235871,46.0222482],"bbox":[25.2670113,46.0216916,25.2686377,46.0228015],"inferred_type":"city"}
{"name":"Urziceni","other_names":{"name:he":"אורזיצ'ן","name:lt":"Urzičenis","name:ml":"ഊർസിച്ചെൻ","name:ru":"Урзичены","name:sr":"Урзичени","name:uk":"Урзічень"},"display_name":"Urziceni, Ialomița, România","address":{"city":"Urziceni","county":"Ialomița","ISO3166-2-lvl4":"RO-IL","country":"România","country_code":"ro"},"population":19303,"osm_type":"node","osm_id":130443201,"type":"city","location":[26.6324066,44.717002],"bbox":[26.4724066,44.557002,26.7924066,44.877002],"border":[{"name":"Urziceni","other_names":{"name:ro":"Urziceni","name:ru":"Урзичени"},"display_name":"Urziceni, Ialomița, 925300, România","address":{"city":"Urziceni","county":"Ialomița","ISO3166-2-lvl4":"RO-IL","postcode":"925300","country":"România","country_code":"ro"},"osm_type":"way","osm_id":74494958,"type":"city","location":[26.642919959615384,44.7182398],"bbox":[26.6221392,44.7054309,26.6680935,44.7329701]},{"name":"Urziceni","other_names":{"name:ro":"Urziceni","name:ru":"Урзичени"},"display_name":"Urziceni, Ialomița, 925300, România","address":{"city":"Urziceni","county":"Ialomița","ISO3166-2-lvl4":"RO-IL","postcode":"925300","country":"România","country_code":"ro"},"osm_type":"way","osm_id":25745894,"type":"city","location":[26.645709541982292,44.71925555],"bbox":[26.6216233,44.7047373,26.6682383,44.7329153]},{"name":"Urziceni","other_names":{"name:ro":"Urziceni","name:he":"אורזיצ'ן","name:lt":"Urzičenis","name:ml":"ഊർസിച്ചെൻ","name:ru":"Урзичены","name:sr":"Урзичени","name:uk":"Урзічень"},"display_name":"Urziceni, Ialomița, 925300, România","address":{"city":"Urziceni","county":"Ialomița","ISO3166-2-lvl4":"RO-IL","postcode":"925300","country":"România","country_code":"ro"},"population":19303,"osm_type":"relation","osm_id":10698171,"type":"administrative","location":[26.6324066,44.717002],"bbox":[26.5679305,44.6878878,26.7193708,44.7852182]}]}
{"name":"Vaslui","other_names":{"name:de":"Wassluy","name:hu":"Vászló","name:ko":"바슬루이","name:ml":"വാസ്ലുയി","name:ru":"Васлуй","name:sr":"Васлуј","name:uk":"Васлуй"},"display_name":"Vaslui, România","address":{"city":"Vaslui","county":"Vaslui","ISO3166-2-lvl4":"RO-VS","country":"România","country_code":"ro"},"population":55407,"osm_type":"node","osm_id":245919721,"type":"city","location":[27.7309515,46.639394],"bbox":[27.5709515,46.479394,27.8909515,46.799394],"border":[{"name":"Vaslui","other_names":{"name:ro":"Vaslui","name:ru":"Васлуй","place_name":"Vaslui"},"display_name":"Vaslui, România","address":{"city":"Vaslui","county":"Vaslui","ISO3166-2-lvl4":"RO-VS","country":"România","country_code":"ro"},"population":55407,"osm_type":"way","osm_id":75255871,"type":"city","location":[27.727313755034764,46.641957250000004],"bbox":[27.6782313,46.6120432,27.7486258,46.6715673]},{"name":"Vaslui","other_names":{"name:ro":"Vaslui","name:de":"Wassluy","name:hu":"Vászló","name:ko":"바슬루이","name:ml":"വാസ്ലുയി","name:ru":"Васлуй","name:sr":"Васлуј","name:uk":"Васлуй"},"display_name":"Vaslui, România","address":{"city":"Vaslui","county":"Vaslui","ISO3166-2-lvl4":"RO-VS","country":"România","country_code":"ro"},"population":55407,"osm_type":"relation","osm_id":10761307,"type":"administrative","location":[27.7309515,46.639394],"bbox":[27.6554882,46.6036058,27.8347821,46.703114]}]}
{"name":"Vatra Dornei","other_names":{"name:de":"Dorna Watra","name:hu":"Dornavátra","name:ml":"വാട്ര-ഡോർണ","name:pl":"Watra Dorna","name:ru":"Ватра-Дорней","name:uk":"Ватра-Дорней"},"display_name":"Vatra Dornei, Suceava, 725700, România","address":{"city":"Vatra Dornei","county":"Suceava","ISO3166-2-lvl4":"RO-SV","postcode":"725700","country":"România","country_code":"ro"},"population":17150,"osm_type":"node","osm_id":109860348,"type":"city","location":[25.3557638,47.3469264],"bbox":[25.1957638,47.1869264,25.5157638,47.5069264],"border":{"name":"Vatra Dornei","other_names":{"name:de":"Dorna Watra","name:hu":"Dornavátra","name:pl":"Watra Dorna","name:ro":"Vatra Dornei","name:ru":"Ватра-Дорней","name:uk":"Ватра-Дорней","name:ml":"വാട്ര-ഡോർണ"},"display_name":"Vatra Dornei, Suceava, România","address":{"city":"Vatra Dornei","county":"Suceava","ISO3166-2-lvl4":"RO-SV","country":"România","country_code":"ro"},"population":17150,"osm_type":"relation","osm_id":10495797,"type":"administrative","location":[25.3557638,47.3469264],"bbox":[25.2443859,47.298742,25.4188893,47.4275708]}}
{"name":"Victoria - Ucea","other_names":{"name:hu":"Alsóucsa - Viktóriaváros","name:ro":"Victoria - Ucea"},"display_name":"Victoria - Ucea, Brașov, 505700, România","address":{"city":"Victoria - Ucea","county":"Brașov","ISO3166-2-lvl4":"RO-BV","postcode":"505700","country":"România","country_code":"ro"},"osm_type":"way","osm_id":708009053,"type":"administrative","location":[24.70011537946235,45.73086205],"bbox":[24.6915483,45.7207948,24.711337,45.7411862],"inferred_type":"city"}
{"name":"Vulcan","other_names":{"name:de":"Wolkersdorf","name:hu":"Vulkán","name:ru":"Вулкан","name:sr":"Вулкан","name:uk":"Вулкан","name:sr-Latn":"Vulkan"},"display_name":"Vulcan, Hunedoara, 336200, România","address":{"city":"Vulcan","county":"Hunedoara","ISO3166-2-lvl4":"RO-HD","postcode":"336200","country":"România","country_code":"ro"},"population":32160,"osm_type":"node","osm_id":139921758,"type":"city","location":[23.2940874,45.3748642],"bbox":[23.1340874,45.2148642,23.4540874,45.5348642],"border":{"name":"Vulcan","other_names":{"name:hu":"Vulkán","name:ro":"Vulcan","name:de":"Wolkersdorf","name:ru":"Вулкан","name:sr":"Вулкан","name:uk":"Вулкан","name:sr-Latn":"Vulkan"},"display_name":"Vulcan, Hunedoara, România","address":{"city":"Vulcan","county":"Hunedoara","ISO3166-2-lvl4":"RO-HD","country":"România","country_code":"ro"},"population":32160,"osm_type":"relation","osm_id":10493445,"type":"administrative","location":[23.2940874,45.3748642],"bbox":[23.1851875,45.2999248,23.3535628,45.4310279]}}
{"name":"Zalău","other_names":{"name:de":"Zillenmarkt","name:el":"Ζαλάου","name:hu":"Zilah","name:lt":"Zaleu","name:ml":"സലൗ","name:ro":"Zalău","name:ru":"Залэу","name:sr":"Залау","name:uk":"Залеу","old_name":"Zilah","alt_name:de":"Waltenberg"},"display_name":"Zalău, Sălaj, România","address":{"city":"Zalău","county":"Sălaj","ISO3166-2-lvl4":"RO-SJ","country":"România","country_code":"ro"},"population":56202,"osm_type":"node","osm_id":129993092,"type":"city","location":[23.0562143,47.1819416],"bbox":[22.8962143,47.0219416,23.2162143,47.3419416],"border":{"name":"Zalău","other_names":{"name:hu":"Zilah","name:ro":"Zalău","name:de":"Zillenmarkt","name:el":"Ζαλάου","name:lt":"Zaleu","name:ml":"സലൗ","name:ru":"Залэу","name:sr":"Залау","name:uk":"Залеу","old_name":"Zilah","alt_name:de":"Waltenberg"},"display_name":"Zalău, Sălaj, România","address":{"city":"Zalău","county":"Sălaj","ISO3166-2-lvl4":"RO-SJ","country":"România","country_code":"ro"},"population":56202,"osm_type":"relation","osm_id":10744552,"type":"administrative","location":[23.0562143,47.1819416],"bbox":[23.0006675,47.1194038,23.1740054,47.2332928]}}
{"display_name":"Сфынту-Георгэ, Sepsiszentgyörgy, Covasna, România","address":{"city":"Сфынту-Георгэ","county":"Covasna","ISO3166-2-lvl4":"RO-CV","country":"România","country_code":"ro"},"population":56006,"osm_type":"node","osm_id":128566747,"type":"city","location":[25.7865367,45.8659935],"bbox":[25.6265367,45.7059935,25.9465367,46.0259935]}
