{"name":"Београд","other_names":{"name:ab":"Белград","name:af":"Belgrado","name:am":"በልግራድ","name:an":"Belgrado","name:ar":"بلغراد","name:av":"Белград","name:az":"Belqrad","name:ba":"Белград","name:be":"Бялград","name:bg":"Белград","name:bn":"বেলগ্রেড","name:bo":"བེལ་གེ་རེ་ཌི།","name:br":"Beograd","name:bs":"Beograd","name:ca":"Belgrad","name:ce":"Белград","name:co":"Belgradu","name:cs":"Bělehrad","name:cu":"Бѣлъ Градъ","name:cv":"Белград","name:cy":"Beograd","name:da":"Beograd","name:de":"Belgrad","name:el":"Βελιγράδι","name:en":"Belgrade","name:eo":"Beogrado","name:es":"Belgrado","name:et":"Belgrad","name:eu":"Belgrad","name:fa":"بلگراد","name:fi":"Belgrad","name:fo":"Beograd","name:fr":"Belgrade","name:fy":"Belgrado","name:ga":"Béalgrád","name:gd":"Belgrade","name:gl":"Belgrado","name:gn":"Belyrat","name:gv":"Belgraaid","name:ha":"Belgrade","name:he":"בלגרד","name:hi":"बॅलग्रेड","name:hr":"Beograd","name:ht":"Bèlgrad","name:hu":"Belgrád","name:hy":"Բելգրադ","name:ia":"Belgrad","name:id":"Beograd","name:ie":"Beograd","name:io":"Belgrade","name:is":"Belgrad","name:it":"Belgrado","name:ja":"ベオグラード","name:jv":"Beograd","name:ka":"ბელგრადი","name:kk":"Белград","name:kn":"ಬೆಲ್ಗ್ರಾದ್","name:ko":"베오그라드","name:ku":"Belgrad","name:kv":"Белград","name:kw":"Beograd","name:ky":"Белград","name:la":"Belogradum","name:lb":"Belgrad","name:li":"Belgrado","name:ln":"Belgrad","name:lo":"ແບນເກຣດ","name:lt":"Belgradas","name:lv":"Belgrada","name:mg":"Belgrade","name:mi":"Belgrade","name:mk":"Белград","name:ml":"ബെൽഗ്രേഡ്","name:mn":"Белград","name:mr":"बेलग्रेड","name:ms":"Belgrade","name:mt":"Belgrad","name:nb":"Beograd","name:nl":"Belgrado","name:nn":"Beograd","name:no":"Beograd","name:nv":"Bineʼ Naʼadziʼiiłgaaí","name:oc":"Belgrad","name:os":"Белград","name:pa":"ਬੈਲਗ੍ਰਾਦ","name:pl":"Belgrad","name:ps":"بلګراډ","name:pt":"Belgrado","name:qu":"Beograd","name:rm":"Belgrad","name:ro":"Belgrad","name:ru":"Белград","name:sc":"Belgrado","name:se":"Belgrad","name:sh":"Beograd","name:sk":"Belehrad","name:sl":"Beograd","name:sm":"Belgrade","name:sn":"Belgrade","name:so":"Belgaraad","name:sq":"Beogradi","name:sr":"Београд","name:st":"Beograd","name:sv":"Belgrad","name:sw":"Belgrad","name:ta":"பெல்கிறேட்","name:te":"బెల్‌గ్రేడ్","name:tg":"Белград","name:th":"เบลเกรด","name:tk":"Belgrad","name:tl":"Belgrade","name:tr":"Belgrad","name:tt":"Белград","name:tw":"Belgrade","name:ty":"Beograd","name:ug":"بېلگراد","name:uk":"Белград","name:ur":"بلغراد","name:uz":"Belgrad","name:vi":"Beograd","name:vo":"Beograd","name:wo":"Belgrad","name:yi":"בעלגראד","name:yo":"Belgrade","name:zh":"贝尔格莱德/貝爾格勒/貝爾格萊德","int_name":"Beograd","name:ace":"Belgrade","name:ast":"Belgráu","name:ckb":"بێلگراد","name:cnr":"Beograd","name:dsb":"Běłogrod","name:ext":"Belgradu","name:frp":"Bèlgrade","name:hif":"Belgrade","name:hsb":"Běłohród","name:jbo":"be'ograd","name:kab":"Belgrad","name:lad":"Belogrado","name:lij":"Belgraddo","name:nan":"Belgrade","name:nov":"Beograd","name:pap":"Belgrado","name:pnb":"بلغراد","name:sah":"Белград","name:scn":"Belgradu","name:sco":"Belgrade","name:udm":"Белград","name:vec":"Belgrado","name:war":"Belgrade","name:wuu":"贝尔格莱德","name:yue":"貝爾格萊德","old_name:de":"Griechisch Weißenburg","old_name:el":"Σιγγιδουνον","old_name:hr":"Biograd na Dunavu","old_name:hu":"Nándorfehérvár","old_name:la":"Singidunum","name:bat-smg":"Belgrads","name:roa-rup":"Biligrad","name:sr-Latn":"Beograd","name:zh-Hans":"贝尔格莱德","name:zh-Hant":"貝爾格勒/貝爾格萊德","name:cnr-Cyrl":"Београд","name:be-tarask":"Бялград","name:zh-Hant-CN":"貝爾格萊德","name:zh-Hant-HK":"貝爾格萊德","name:zh-Hant-TW":"貝爾格勒"},"display_name":"Београд, Град Београд, Централна Србија, 11000, Србија","address":{"city":"Београд","county":"Град Београд","ISO3166-2-lvl6":"RS-00","state":"Централна Србија","postcode":"11000","country":"Србија","country_code":"rs"},"population":1197714,"osm_type":"node","osm_id":60571493,"type":"city","location":[20.4568974,44.8178131],"bbox":[20.2968974,44.6578131,20.6168974,44.9778131],"border":[{"name":"Београд","other_names":{"name:af":"Belgrado","name:am":"በልግራድ","name:an":"Belgrado","name:ar":"بلغراد","name:az":"Belqrad","name:be":"Бялград","name:bg":"Белград","name:bn":"বেলগ্রেড","name:bo":"བེལ་གེ་རེ་ཌི།","name:br":"Beograd","name:bs":"Beograd","name:cs":"Bělehrad","name:cu":"Бѣлъ Градъ","name:cv":"Белград","name:cy":"Beograd","name:da":"Beograd","name:de":"Belgrad","name:el":"Βελιγράδι","name:en":"Belgrade","name:eo":"Beogrado","name:es":"Belgrado","name:et":"Belgrad","name:fa":"بلگراد","name:fi":"Belgrad","name:fo":"Beograd","name:fr":"Belgrade","name:fy":"Belgrado","name:ga":"Béalgrád","name:gd":"Belgrade","name:gl":"Belgrado","name:gv":"Belgraaid","name:he":"בלגרד","name:hi":"बॅलग्रेड","name:hr":"Beograd","name:ht":"Bèlgrad","name:hu":"Belgrád","name:hy":"Բելգրադ","name:id":"Beograd","name:ie":"Beograd","name:io":"Belgrade","name:is":"Belgrad","name:it":"Belgrado","name:ja":"ベオグラード","name:jv":"Beograd","name:ka":"ბელგრადი","name:kk":"Белград","name:ko":"베오그라드","name:ku":"Belgrad","name:kv":"Белград","name:la":"Belgradum","name:lb":"Belgrad","name:li":"Belgrado","name:lt":"Belgradas","name:lv":"Belgrada","name:mk":"Белград","name:ml":"ബെൽഗ്രേഡ്","name:mn":"Белград","name:mr":"बेलग्रेड","name:ms":"Belgrade","name:mt":"Belgrad","name:nl":"Belgrado","name:nn":"Beograd","name:no":"Beograd","name:os":"Белград","name:pl":"Belgrad","name:pt":"Belgrado","name:qu":"Beograd","name:ro":"Belgrad","name:ru":"Белград","name:sc":"Belgrado","name:sh":"Beograd","name:sk":"Belehrad","name:sl":"Beograd","name:sm":"Belgrade","name:so":"Belgaraad","name:sr":"Београд","name:sv":"Belgrad","name:ta":"பெல்கிறேட்","name:tg":"Белград","name:th":"เบลเกรด","name:tl":"Belgrade","name:tr":"Belgrad","name:tt":"Белград","name:ty":"Beograd","name:ug":"بېلگراد","name:uk":"Белград","name:ur":"بلغراد","name:vi":"Beograd","name:vo":"Beograd","name:yi":"בעלגראד","name:yo":"Belgrade","name:zh":"贝尔格莱德/貝爾格勒/貝爾格萊德","int_name":"Beograd","name:ace":"Belgrade","name:ast":"Belgráu","name:ckb":"بێلگراد","name:dsb":"Běłogrod","name:ext":"Belgradu","name:frp":"Bèlgrade","name:hif":"Belgrade","name:hsb":"Běłohród","name:jbo":"be'ograd","name:lad":"Belogrado","name:lij":"Belgraddo","name:nan":"Belgrade","name:nov":"Beograd","name:pap":"Belgrado","name:pnb":"بلغراد","name:sah":"Белград","name:scn":"Belgradu","name:sco":"Belgrade","name:udm":"Белград","name:vec":"Belgrado","name:war":"Belgrade","name:wuu":"贝尔格莱德","name:yue":"貝爾格萊德","name:bat-smg":"Belgrads","name:roa-rup":"Biligrad","name:sr-Latn":"Beograd","name:zh-Hans":"贝尔格莱德","name:zh-Hant":"貝爾格勒市/貝爾格萊德","name:ab":"Белград","name:av":"Белград","name:ba":"Белград","name:ca":"Belgrad","name:ce":"Белград","name:co":"Belgradu","name:eu":"Belgrad","name:gn":"Belyrat","name:ha":"Belgrade","name:ia":"Belgrad","name:kn":"ಬೆಲ್ಗ್ರಾದ್","name:kw":"Beograd","name:ky":"Белград","name:ln":"Belgrad","name:lo":"ແບນເກຣດ","name:mg":"Belgrade","name:mi":"Belgrade","name:nb":"Beograd","name:nv":"Bineʼ Naʼadziʼiiłgaaí","name:oc":"Belgrad","name:pa":"ਬੈਲਗ੍ਰਾਦ","name:ps":"بلګراډ","name:rm":"Belgrad","name:se":"Belgrad","name:sn":"Belgrade","name:sq":"Beogradi","name:st":"Beograd","name:sw":"Belgrad","name:te":"బెల్‌గ్రేడ్","name:tk":"Belgrad","name:tw":"Belgrade","name:uz":"Belgrad","name:wo":"Belgrad","name:be-tarask":"Бялград","name:cnr":"Beograd","name:kab":"Belgrad","name:zh-Hant-HK":"貝爾格萊德","name:zh-Hant-TW":"貝爾格勒","old_name:de":"Griechisch Weißenburg","old_name:el":"Σιγγιδουνον","old_name:hr":"Biograd na Dunavu","old_name:hu":"Nándorfehérvár","old_name:la":"Singidunum","name:cnr-Cyrl":"Београд","name:zh-Hant-CN":"貝爾格萊德","alt:la":"Belogradum","alt:zh-Hant":"貝爾格勒/貝爾格萊德"},"display_name":"Београд, Град Београд, Централна Србија, Србија","address":{"city":"Београд","county":"Град Београд","ISO3166-2-lvl6":"RS-00","state":"Централна Србија","country":"Србија","country_code":"rs"},"population":1197714,"osm_type":"relation","osm_id":2728438,"type":"city","location":[20.4568974,44.8178131],"bbox":[20.2213764,44.6880459,20.6232109,44.9426876]},{"name":"Град Београд","other_names":{"name:af":"Belgrado","name:am":"በልግራድ","name:an":"Belgrado","name:ar":"بلغراد","name:az":"Belqrad","name:be":"Горад Бялград","name:bg":"Град Белград","name:bn":"বেলগ্রেড","name:bo":"བེལ་གེ་རེ་ཌི།","name:br":"Beograd","name:bs":"Grad Beograd","name:ca":"Belgrad","name:cs":"Bělehrad","name:cu":"Бѣлъ Градъ · Срьбїи","name:cv":"Белград","name:cy":"Beograd","name:da":"Beograd","name:de":"Stadt Belgrad","name:el":"Πόλη του Βελιγραδίου","name:en":"City of Belgrade","name:eo":"Beogrado","name:es":"Belgrado","name:fa":"بلگراد","name:fo":"Beograd","name:fr":"Ville de Belgrade","name:fy":"Belgrado","name:ga":"Béalgrád","name:gd":"Belgrade","name:gl":"Belgrado","name:gv":"Belgraaid","name:he":"בלגרד","name:hi":"बॅलग्रेड","name:hr":"Grad Beograd","name:ht":"Bèlgrad","name:hu":"Belgrád","name:hy":"Բելգրադ","name:id":"Beograd","name:ie":"Beograd","name:io":"Belgrade","name:it":"Belgrado","name:ja":"ベオグラード","name:jv":"Beograd","name:ka":"ბელგრადი","name:kk":"Белград","name:ko":"베오그라드","name:kv":"Белград","name:la":"Belgradum","name:li":"Belgrado","name:lt":"Belgradas","name:lv":"Belgrada","name:mi":"Belgrade","name:mk":"Град Белград","name:ml":"ബെൽഗ്രേഡ്","name:mn":"Белград","name:mr":"बेलग्रेड","name:ms":"Belgrade","name:nl":"Stad Belgrado","name:nn":"Beograd","name:no":"Beograd","name:os":"Белград","name:pl":"Belgrad","name:pt":"Cidade de Belgrado","name:qu":"Beograd","name:ro":"Belgrad","name:ru":"Город Белград","name:sc":"Belgrado","name:sh":"Beograd","name:sk":"Belehrad","name:sl":"Beograd","name:sm":"Belgrade","name:so":"Belgaraad","name:sq":"Belgradi","name:sr":"Град Београд","name:sv":"Belgrad","name:ta":"பெல்கிறேட்","name:tg":"Белград","name:th":"เบลเกรด","name:tl":"Belgrade","name:tt":"Белград","name:ty":"Beograd","name:ug":"بېلگراد","name:uk":"Белград","name:ur":"بلغراد","name:vi":"Beograd","name:vo":"Beograd","name:yi":"בעלגראד","name:yo":"Belgrade","name:zh":"贝尔格莱德市/貝爾格勒市/貝爾格萊德","int_name":"Grad Beograd","name:ace":"Belgrade","name:ast":"Belgráu","name:ckb":"بێلگراد","name:dsb":"Běłogrod","name:ext":"Belgradu","name:frp":"Bèlgrade","name:hif":"Belgrade","name:hsb":"Běłohród","name:jbo":"be'ograd","name:lad":"Belogrado","name:lij":"Belgraddo","name:nan":"Belgrade","name:nov":"Beograd","name:pap":"Belgrado","name:pnb":"بلغراد","name:sah":"Белград","name:scn":"Belgradu","name:sco":"Belgrade","name:udm":"Белград","name:vec":"Belgrado","name:war":"Belgrade","name:wuu":"贝尔格莱德","name:yue":"貝爾格萊德","ISO3166-2":"RS-00","name:bat-smg":"Belgrads","name:roa-rup":"Biligrad","name:sr-Latn":"Grad Beograd","name:zh-Hans":"贝尔格莱德市","name:zh-Hant":"貝爾格勒市/貝爾格萊德","name:be-tarask":"Бялград","name:zh-Hant-CN":"貝爾格萊德","name:zh-Hant-HK":"貝爾格萊德","name:zh-Hant-TW":"貝爾格勒市"},"display_name":"Град Београд, Централна Србија, Србија","address":{"county":"Град Београд","ISO3166-2-lvl6":"RS-00","state":"Централна Србија","country":"Србија","country_code":"rs"},"population":1681405,"osm_type":"relation","osm_id":1677007,"type":"administrative","location":[20.381755966161457,44.680242050000004],"bbox":[19.975332,44.2628051,20.8538024,45.0968954]},{"name":"Град Београд","other_names":{"name:af":"Belgrado","name:am":"በልግራድ","name:an":"Belgrado","name:ar":"بلغراد","name:az":"Belqrad","name:be":"Горад Бялград","name:bg":"Град Белград","name:bn":"বেলগ্রেড","name:bo":"བེལ་གེ་རེ་ཌི།","name:br":"Beograd","name:bs":"Grad Beograd","name:ca":"Belgrad","name:cs":"Bělehrad","name:cu":"Бѣлъ Градъ · Срьбїи","name:cv":"Белград","name:cy":"Beograd","name:da":"Beograd","name:de":"Stadt Belgrad","name:el":"Πόλη του Βελιγραδίου","name:en":"City of Belgrade","name:eo":"Beogrado","name:es":"Belgrado","name:fa":"بلگراد","name:fo":"Beograd","name:fr":"Ville de Belgrade","name:fy":"Belgrado","name:ga":"Béalgrád","name:gd":"Belgrade","name:gl":"Belgrado","name:gv":"Belgraaid","name:he":"בלגרד","name:hi":"बॅलग्रेड","name:hr":"Grad Beograd","name:ht":"Bèlgrad","name:hu":"Belgrád","name:hy":"Բելգրադ","name:id":"Beograd","name:ie":"Beograd","name:io":"Belgrade","name:it":"Belgrado","name:ja":"ベオグラード","name:jv":"Beograd","name:ka":"ბელგრადი","name:kk":"Белград","name:ko":"베오그라드","name:kv":"Белград","name:la":"Belgradum","name:li":"Belgrado","name:lt":"Belgradas","name:lv":"Belgrada","name:mi":"Belgrade","name:mk":"Град Белград","name:ml":"ബെൽഗ്രേഡ്","name:mn":"Белград","name:mr":"बेलग्रेड","name:ms":"Belgrade","name:nl":"Stad Belgrado","name:nn":"Beograd","name:no":"Beograd","name:os":"Белград","name:pl":"Belgrad","name:pt":"Cidade de Belgrado","name:qu":"Beograd","name:ro":"Belgrad","name:ru":"Город Белград","name:sc":"Belgrado","name:sh":"Beograd","name:sk":"Belehrad","name:sl":"Beograd","name:sm":"Belgrade","name:so":"Belgaraad","name:sq":"Belgradi","name:sr":"Град Београд","name:sv":"Belgrad","name:ta":"பெல்கிறேட்","name:tg":"Белград","name:th":"เบลเกรด","name:tl":"Belgrade","name:tt":"Белград","name:ty":"Beograd","name:ug":"بېلگراد","name:uk":"Белград","name:ur":"بلغراد","name:vi":"Beograd","name:vo":"Beograd","name:yi":"בעלגראד","name:yo":"Belgrade","name:zh":"贝尔格莱德市/貝爾格勒市/貝爾格萊德","int_name":"Grad Beograd","name:ace":"Belgrade","name:ast":"Belgráu","name:ckb":"بێلگراد","name:dsb":"Běłogrod","name:ext":"Belgradu","name:frp":"Bèlgrade","name:hif":"Belgrade","name:hsb":"Běłohród","name:jbo":"be'ograd","name:lad":"Belogrado","name:lij":"Belgraddo","name:nan":"Belgrade","name:nov":"Beograd","name:pap":"Belgrado","name:pnb":"بلغراد","name:sah":"Белград","name:scn":"Belgradu","name:sco":"Belgrade","name:udm":"Белград","name:vec":"Belgrado","name:war":"Belgrade","name:wuu":"贝尔格莱德","name:yue":"貝爾格萊德","ISO3166-2":"RS-00","name:bat-smg":"Belgrads","name:roa-rup":"Biligrad","name:sr-Latn":"Grad Beograd","name:zh-Hans":"贝尔格莱德市","name:zh-Hant":"貝爾格勒市/貝爾格萊德","name:be-tarask":"Бялград","name:zh-Hant-CN":"貝爾格萊德","name:zh-Hant-HK":"貝爾格萊德","name:zh-Hant-TW":"貝爾格勒市"},"display_name":"Град Београд, Централна Србија, Србија","address":{"administrative":"Град Београд","ISO3166-2-lvl7":"RS-00","state":"Централна Србија","country":"Србија","country_code":"rs"},"population":1681405,"osm_type":"relation","osm_id":13022323,"type":"administrative","location":[20.381755966161457,44.680242050000004],"bbox":[19.975332,44.2628051,20.8538024,45.0968954]}]}
{"name":"Бор","other_names":{"name:de":"Bor","name:en":"Bor","name:ml":"ബോർ","name:ro":"Bor","name:ru":"Бор","name:sr":"Бор","name:sr-Latn":"Bor"},"display_name":"Бор, Град Бор, Борски управни округ, Централна Србија, Србија","address":{"city":"Бор","municipality":"Град Бор","county":"Борски управни округ","ISO3166-2-lvl6":"RS-14","state":"Централна Србија","country":"Србија","country_code":"rs"},"population":28822,"osm_type":"node","osm_id":622323437,"type":"city","location":[22.0991779,44.0778456],"bbox":[21.9391779,43.9178456,22.2591779,44.2378456],"border":{"name":"Бор","other_names":{"name:en":"Bor","name:sr":"Бор","name:de":"Bor","name:ml":"ബോർ","name:ro":"Bor","name:ru":"Бор","name:sr-Latn":"Bor"},"display_name":"Бор, Град Бор, Борски управни округ, Централна Србија, 19210, Србија","address":{"city":"Бор","municipality":"Град Бор","county":"Борски управни округ","ISO3166-2-lvl6":"RS-14","state":"Централна Србија","postcode":"19210","country":"Србија","country_code":"rs"},"population":28822,"osm_type":"relation","osm_id":6319385,"type":"administrative","location":[22.0991779,44.0778456],"bbox":[21.9914196,44.0401771,22.1433029,44.1451152]}}
{"name":"Ваљево","other_names":{"name:ar":"فاليفو","name:bg":"Валево","name:de":"Valjevo","name:el":"Βάλιεβο","name:en":"Valjevo","name:es":"Valjevo","name:et":"Valjevo","name:fr":"Valjevo","name:hr":"Valjevo","name:lt":"Valjevas","name:ml":"വാലിയേവോ","name:ru":"Валево","name:sl":"Valjevo","name:sr":"Ваљево","name:tr":"Valyeva","name:sr-Latn":"Valjevo","name:zh-Hans":"瓦列沃","name:zh-Hant":"瓦列沃"},"display_name":"Ваљево, Град Ваљево, Колубарски управни округ, Централна Србија, 14000, Србија","address":{"city":"Ваљево","municipality":"Град Ваљево","county":"Колубарски управни округ","ISO3166-2-lvl6":"RS-09","state":"Централна Србија","postcode":"14000","country":"Србија","country_code":"rs"},"population":56059,"osm_type":"node","osm_id":307649772,"type":"city","location":[19.8863297,44.2708719],"bbox":[19.7263297,44.1108719,20.0463297,44.4308719],"border":{"name":"Ваљево","other_names":{"name:en":"Valjevo","name:sr":"Ваљево","name:sr-Latn":"Valjevo","name:ar":"فاليفو","name:bg":"Валево","name:de":"Valjevo","name:el":"Βάλιεβο","name:es":"Valjevo","name:et":"Valjevo","name:fr":"Valjevo","name:hr":"Valjevo","name:lt":"Valjevas","name:ml":"വാലിയേവോ","name:ru":"Валево","name:sl":"Valjevo","name:tr":"Valyeva","name:zh-Hans":"瓦列沃","name:zh-Hant":"瓦列沃"},"display_name":"Ваљево, Град Ваљево, Колубарски управни округ, Централна Србија, Србија","address":{"city":"Ваљево","municipality":"Град Ваљево","county":"Колубарски управни округ","ISO3166-2-lvl6":"RS-09","state":"Централна Србија","country":"Србија","country_code":"rs"},"population":56059,"osm_type":"relation","osm_id":8655212,"type":"administrative","location":[19.8863297,44.2708719],"bbox":[19.8419577,44.244223,19.950119,44.2961949]}}
{"name":"Врање","other_names":{"name:bg":"Враня","name:de":"Vranje","name:el":"Βράνιε","name:en":"Vranje","name:gr":"Βαρανεια","name:hr":"Vranje","name:ml":"വ്രാണിയേ","name:ru":"Вране","name:sr":"Врање","name:tr":"İvranya","old_name:de":"Wragl","name:sr-Latn":"Vranje"},"display_name":"Врање, Градска општина Врање, Град Врање, Пчињски управни округ, Централна Србија, 17501, Србија","address":{"city":"Врање","municipality":"Град Врање","county":"Пчињски управни округ","ISO3166-2-lvl6":"RS-24","state":"Централна Србија","postcode":"17501","country":"Србија","country_code":"rs"},"population":50954,"osm_type":"node","osm_id":185549608,"type":"city","location":[21.8979003,42.5543511],"bbox":[21.7379003,42.3943511,22.0579003,42.7143511],"border":[{"name":"Град Врање","other_names":{"name:de":"Vranje","name:en":"City of Vranje","name:sr":"Град Врање","int_name":"Grad Vranje","name:sr-Latn":"Grad Vranje"},"display_name":"Град Врање, Пчињски управни округ, Централна Србија, Србија","address":{"municipality":"Град Врање","county":"Пчињски управни округ","ISO3166-2-lvl6":"RS-24","state":"Централна Србија","country":"Србија","country_code":"rs"},"population":74381,"osm_type":"relation","osm_id":2190516,"type":"administrative","location":[21.91411532383446,42.598484],"bbox":[21.7533299,42.40043,22.2383961,42.7965662]},{"name":"Градска општина Врање","other_names":{"name:sr":"Градска општина Врање","int_name":"Gradska opstina Vranje","name:sr-Latn":"Gradska opština Vranje","name:bg":"Враня","name:de":"Vranje","name:el":"Βράνιε","name:en":"Vranje","name:gr":"Βαρανεια","name:hr":"Vranje","name:ml":"വ്രാണിയേ","name:ru":"Вране","name:tr":"İvranya","old_name:de":"Wragl","alt":"Врање","alt:sr":"Врање","alt:sr-Latn":"Vranje"},"display_name":"Градска општина Врање, Град Врање, Пчињски управни округ, Централна Србија, Србија","address":{"city":"Градска општина Врање","municipality":"Град Врање","county":"Пчињски управни округ","ISO3166-2-lvl6":"RS-24","state":"Централна Србија","country":"Србија","country_code":"rs"},"population":66843,"osm_type":"relation","osm_id":10275949,"type":"administrative","location":[21.8979003,42.5543511],"bbox":[21.7533299,42.40043,22.1134656,42.7965662]},{"name":"Врање","other_names":{"name:en":"Vranje","name:sr":"Врање","name:sr-Latn":"Vranje"},"display_name":"Врање, Градска општина Врање, Град Врање, Пчињски управни округ, Централна Србија, Србија","address":{"city_district":"Врање","city":"Градска општина Врање","municipality":"Град Врање","county":"Пчињски управни округ","ISO3166-2-lvl6":"RS-24","state":"Централна Србија","country":"Србија","country_code":"rs"},"population":50954,"osm_type":"relation","osm_id":6656274,"type":"administrative","location":[21.902186657865165,42.55730685],"bbox":[21.8594615,42.5182373,21.9350192,42.5964784]}]}
{"name":"Вршац","other_names":{"name:bg":"Вършац","name:cs":"Vršac","name:en":"Vršac","name:he":"ורשאץ","name:hu":"Versec","name:ml":"വിർഷാക്ക്","name:ro":"Vârșeț","name:ru":"Вршац","name:sr":"Вршац","old_name:de":"Werschetz","name:sr-Latn":"Vršac"},"display_name":"Вршац, Град Вршац, Јужнобанатски управни округ, Војводина, Србија","address":{"city":"Вршац","municipality":"Град Вршац","county":"Јужнобанатски управни округ","ISO3166-2-lvl6":"RS-04","state":"Војводина","ISO3166-2-lvl4":"RS-VO","country":"Србија","country_code":"rs"},"population":31946,"osm_type":"node","osm_id":1340352822,"type":"city","location":[21.2960485,45.1211263],"bbox":[21.1360485,44.9611263,21.4560485,45.2811263],"border":{"name":"Вршац","other_names":{"name:sr":"Вршац","int_name":"Vrsac","name:bg":"Вършац","name:cs":"Vršac","name:en":"Vršac","name:he":"ורשאץ","name:hu":"Versec","name:ml":"വിർഷാക്ക്","name:ro":"Vârșeț","name:ru":"Вршац","old_name:de":"Werschetz","name:sr-Latn":"Vršac"},"display_name":"Вршац, Град Вршац, Јужнобанатски управни округ, Војводина, Србија","address":{"city":"Вршац","municipality":"Град Вршац","county":"Јужнобанатски управни округ","ISO3166-2-lvl6":"RS-04","state":"Војводина","ISO3166-2-lvl4":"RS-VO","country":"Србија","country_code":"rs"},"population":31946,"osm_type":"relation","osm_id":9815000,"type":"administrative","location":[21.2960485,45.1211263],"bbox":[21.2335895,44.9987604,21.3966003,45.2196452]}}
{"name":"Градска општина Барајево","other_names":{"name:de":"Stadtbezirk Barajevo","name:en":"Barajevo Urban Municipality","name:sr":"Градска општина Барајево","int_name":"Gradska opstina Barajevo","name:sr-Latn":"Gradska opština Barajevo"},"display_name":"Градска општина Барајево, Град Београд, Централна Србија, Србија","address":{"city":"Градска општина Барајево","county":"Град Београд","ISO3166-2-lvl6":"RS-00","state":"Централна Србија","country":"Србија","country_code":"rs"},"population":26431,"osm_type":"relation","osm_id":3065610,"type":"administrative","location":[20.388194249617527,44.561992000000004],"bbox":[20.2678343,44.4648468,20.4990193,44.6589787],"inferred_type":"city"}
{"name":"Градска општина Вождовац","other_names":{"name:de":"Stadtbezirk Voždovac","name:en":"Vozdovac Urban Municipality","name:sr":"Градска општина Вождовац","int_name":"Gradska opstina Vozdovac","name:sr-Latn":"Gradska opština Voždovac"},"display_name":"Градска општина Вождовац, Град Београд, Централна Србија, 11040, Србија","address":{"city":"Градска општина Вождовац","county":"Град Београд","ISO3166-2-lvl6":"RS-00","state":"Централна Србија","postcode":"11040","country":"Србија","country_code":"rs"},"population":174864,"osm_type":"relation","osm_id":7737268,"type":"administrative","location":[20.52544491025913,44.6838246],"bbox":[20.4355608,44.5753554,20.6125151,44.7922877],"inferred_type":"city"}
{"name":"Градска општина Гроцка","other_names":{"name:de":"Stadtbezirk Grocka","name:en":"Grocka Urban Municipality","name:sr":"Градска општина Гроцка","int_name":"Gradska opstina Grocka","name:sr-Latn":"Gradska opština Grocka"},"display_name":"Градска општина Гроцка, Град Београд, Централна Србија, Србија","address":{"city":"Градска општина Гроцка","county":"Град Београд","ISO3166-2-lvl6":"RS-00","state":"Централна Србија","country":"Србија","country_code":"rs"},"population":82810,"osm_type":"relation","osm_id":3065611,"type":"administrative","location":[20.64767566278828,44.67037805],"bbox":[20.5329706,44.5408988,20.8201975,44.8000154],"inferred_type":"city"}
{"name":"Градска општина Земун","other_names":{"name:de":"Stadtbezirk Semlin","name:en":"Zemun Urban Municipality","name:hu":"Zimony városi község","name:ru":"Муниципалитет города Земун","name:sr":"Градска општина Земун","int_name":"Gradska opstina Zemun","name:sr-Latn":"Gradska opština Zemun"},"display_name":"Градска општина Земун, Град Београд, Централна Србија, Србија","address":{"city":"Градска општина Земун","county":"Град Београд","ISO3166-2-lvl6":"RS-00","state":"Централна Србија","country":"Србија","country_code":"rs"},"population":177908,"osm_type":"relation","osm_id":3085750,"type":"administrative","location":[20.210992938238228,44.8760135],"bbox":[20.1423841,44.8092348,20.4520869,44.9426876],"inferred_type":"city"}
{"name":"Градска општина Костолац","other_names":{"name:en":"Kostolac Urban Municipality","name:sr":"Градска општина Костолац","int_name":"Gradska opstina Kostolac","name:sr-Latn":"Gradska opština Kostolac"},"display_name":"Градска општина Костолац, Град Пожаревац, Браничевски управни округ, Централна Србија, 12208, Србија","address":{"city":"Градска општина Костолац","municipality":"Град Пожаревац","county":"Браничевски управни округ","ISO3166-2-lvl6":"RS-11","state":"Централна Србија","postcode":"12208","country":"Србија","country_code":"rs"},"population":12091,"osm_type":"relation","osm_id":6665948,"type":"administrative","location":[21.180522999627144,44.73475995],"bbox":[21.0729492,44.6665316,21.3001634,44.8020061],"inferred_type":"city"}
{"name":"Градска општина Лазаревац","other_names":{"name:de":"Stadtbezirk Lazarevac","name:en":"Lazarevac Urban Municipality","name:sr":"Градска општина Лазаревац","int_name":"Gradska opstina Lazarevac","name:sr-Latn":"Gradska opština Lazarevac"},"display_name":"Градска општина Лазаревац, Град Београд, Централна Србија, Србија","address":{"city":"Градска општина Лазаревац","county":"Град Београд","ISO3166-2-lvl6":"RS-00","state":"Централна Србија","country":"Србија","country_code":"rs"},"population":55146,"osm_type":"relation","osm_id":3059654,"type":"administrative","location":[20.317604862335607,44.41362975],"bbox":[20.1912539,44.2628051,20.4560876,44.5644541],"inferred_type":"city"}
{"name":"Градска општина Младеновац","other_names":{"name:de":"Stadtbezirk Mladenovac","name:en":"Mladenovac Urban Municipality","name:sr":"Градска општина Младеновац","int_name":"Gradska opstina Mladenovac","name:sr-Latn":"Gradska opština Mladenovac"},"display_name":"Градска општина Младеновац, Град Београд, Централна Србија, Србија","address":{"city":"Градска општина Младеновац","county":"Град Београд","ISO3166-2-lvl6":"RS-00","state":"Централна Србија","country":"Србија","country_code":"rs"},"population":48683,"osm_type":"relation","osm_id":2223784,"type":"administrative","location":[20.669257352634055,44.4476729],"bbox":[20.5442458,44.3251301,20.8538024,44.5702153],"inferred_type":"city"}
{"name":"Градска општина Обреновац","other_names":{"name:de":"Stadtbezirk Obrenowatz","name:en":"Obrenovac Urban Municipality","name:sr":"Градска општина Обреновац","int_name":"Gradska opstina Obrenovac","name:sr-Latn":"Gradska opština Obrenovac"},"display_name":"Градска општина Обреновац, Град Београд, Централна Србија, Србија","address":{"city":"Градска општина Обреновац","county":"Град Београд","ISO3166-2-lvl6":"RS-00","state":"Централна Србија","country":"Србија","country_code":"rs"},"population":68882,"osm_type":"relation","osm_id":3059655,"type":"administrative","location":[20.13507342465514,44.60926085],"bbox":[19.975332,44.5036849,20.3326196,44.7148229],"inferred_type":"city"}
{"name":"Градска општина Пожаревац","other_names":{"name:en":"Pozarevac Urban Municipality","name:sr":"Градска општина Пожаревац","int_name":"Gradska opstina Pozarevac","name:sr-Latn":"Gradska opština Požarevac"},"display_name":"Градска општина Пожаревац, Град Пожаревац, Браничевски управни округ, Централна Србија, Србија","address":{"city":"Градска општина Пожаревац","municipality":"Град Пожаревац","county":"Браничевски управни округ","ISO3166-2-lvl6":"RS-11","state":"Централна Србија","country":"Србија","country_code":"rs"},"population":56557,"osm_type":"relation","osm_id":8916459,"type":"administrative","location":[21.2177141992328,44.651231550000006],"bbox":[21.0220076,44.4979254,21.3916461,44.8045498],"inferred_type":"city"}
{"name":"Градска општина Сопот","other_names":{"name:de":"Stadtbezirk Sopot","name:en":"Sopot Urban Municipality","name:sr":"Градска општина Сопот","int_name":"Gradska opstina Sopot","name:sr-Latn":"Gradska opština Sopot"},"display_name":"Градска општина Сопот, Град Београд, Централна Србија, Србија","address":{"city":"Градска општина Сопот","county":"Град Београд","ISO3166-2-lvl6":"RS-00","state":"Централна Србија","country":"Србија","country_code":"rs"},"population":19126,"osm_type":"relation","osm_id":3065612,"type":"administrative","location":[20.54258544553218,44.5169614],"bbox":[20.4135081,44.4169789,20.6730219,44.6169607],"inferred_type":"city"}
{"name":"Градска општина Сурчин","other_names":{"name:de":"Stadtbezirk Surčin","name:en":"Surcin Urban Municipality","name:sr":"Градска општина Сурчин","int_name":"Gradska opstina Surcin","name:sr-Latn":"Gradska opština Surčin"},"display_name":"Градска општина Сурчин, Град Београд, Централна Србија, Србија","address":{"city":"Градска општина Сурчин","county":"Град Београд","ISO3166-2-lvl6":"RS-00","state":"Централна Србија","country":"Србија","country_code":"rs"},"population":45452,"osm_type":"relation","osm_id":3085424,"type":"administrative","location":[20.237606409970457,44.7720482],"bbox":[20.087887,44.6614952,20.350986,44.8826796],"inferred_type":"city"}
{"name":"Градска општина Чукарица","other_names":{"name:de":"Stadtbezirk Čukarica","name:en":"Cukarica Urban Municipality","name:sr":"Градска општина Чукарица","int_name":"Gradska opstina Cukarica","name:sr-Latn":"Gradska opština Čukarica"},"display_name":"Градска општина Чукарица, Град Београд, Централна Србија, Србија","address":{"city":"Градска општина Чукарица","county":"Град Београд","ISO3166-2-lvl6":"RS-00","state":"Централна Србија","country":"Србија","country_code":"rs"},"population":175793,"osm_type":"relation","osm_id":7727516,"type":"administrative","location":[20.359941873728033,44.7133308],"bbox":[20.2875665,44.6298402,20.4812879,44.7968791],"inferred_type":"city"}
{"name":"Зајечар","other_names":{"name:bg":"Зайчар","name:de":"Zaječar","name:en":"Zaječar","name:ml":"സായേച്ചാർ","name:ro":"Zăiceari","name:ru":"Заечар","name:sr":"Зајечар","old_name:de":"Zatitscher","name:sr-Latn":"Zaječar"},"display_name":"Зајечар, Град Зајечар, Зајечарски управни округ, Централна Србија, Србија","address":{"city":"Зајечар","municipality":"Град Зајечар","county":"Зајечарски управни округ","ISO3166-2-lvl6":"RS-15","state":"Централна Србија","country":"Србија","country_code":"rs"},"population":32448,"osm_type":"node","osm_id":281664933,"type":"city","location":[22.2785536,43.9030925],"bbox":[22.1185536,43.7430925,22.4385536,44.0630925],"border":[{"name":"Град Зајечар","other_names":{"name:en":"City of Zaječar","name:ru":"Заечар","name:sr":"Град Зајечар","int_name":"Grad Zajecar","name:sr-Latn":"Grad Zaječar"},"display_name":"Град Зајечар, Зајечарски управни округ, Централна Србија, Србија","address":{"municipality":"Град Зајечар","county":"Зајечарски управни округ","ISO3166-2-lvl6":"RS-15","state":"Централна Србија","country":"Србија","country_code":"rs"},"population":47991,"osm_type":"relation","osm_id":2869099,"type":"administrative","location":[22.286702318199687,43.9372408],"bbox":[22.0532111,43.6862769,22.5434905,44.1881754]},{"name":"Зајечар","other_names":{"name:en":"Zajecar","name:sr":"Зајечар","name:bg":"Зайчар","name:de":"Zaječar","name:ml":"സായേച്ചാർ","name:ro":"Zăiceari","name:ru":"Заечар","old_name:de":"Zatitscher","name:sr-Latn":"Zaječar","alt:en":"Zaječar"},"display_name":"Зајечар, Град Зајечар, Зајечарски управни округ, Централна Србија, 19000, Србија","address":{"city":"Зајечар","municipality":"Град Зајечар","county":"Зајечарски управни округ","ISO3166-2-lvl6":"RS-15","state":"Централна Србија","postcode":"19000","country":"Србија","country_code":"rs"},"population":32448,"osm_type":"relation","osm_id":6354700,"type":"administrative","location":[22.2785536,43.9030925],"bbox":[22.1845784,43.8639576,22.3108535,43.973924]}]}
{"name":"Зрењанин","other_names":{"name:ar":"زرنجانین","name:be":"Зрэнянін","name:bg":"Зренянин","name:bs":"Zrenjanin","name:ca":"Zrenjanin","name:cs":"Zrenjanin","name:da":"Zrenjanin","name:de":"Großbetschkerek","name:el":"Ζρένιανιν","name:en":"Zrenjanin","name:eo":"Zrenjanin","name:es":"Zrenjanin","name:et":"Zrenjanin","name:fa":"زرنجانین","name:fr":"Zrenjanin","name:he":"זרניאנין","name:hr":"Zrenjanin","name:hu":"Nagybecskerek","name:id":"Zrenjanin","name:ie":"Zrenjanin","name:it":"Zrenjanin","name:ja":"ズレニャニン","name:jv":"Zrenjanin","name:ka":"ზრენიანინი","name:ko":"즈레냐닌","name:lt":"Zrenianinas","name:lv":"Zreņanina","name:ml":"സ്രെൻയാനിൻ","name:mn":"Зренянин","name:ms":"Zrenjanin","name:nb":"Zrenjanin","name:nl":"Zrenjanin","name:nn":"Zrenjanin","name:os":"Зренянин","name:pl":"Zrenjanin","name:pt":"Zrenjanin","name:ro":"Zrenianin","name:ru":"Зренянин","name:sk":"Zreňanin","name:sl":"Zrenjanin","name:sq":"Zrenjanin","name:sr":"Зрењанин","name:sv":"Zrenjanin","name:tr":"Zrenjanin","name:tt":"Зренянин","name:uk":"Зренянин","name:ur":"زرینیانین","name:vi":"Zrenjanin","name:zh":"兹雷尼亚宁","name:rue":"Зрењанин","old_name":"Велики Бечкерек;Петровград","alt_name:ro":"Becicherecu Mare","old_name:sr":"Велики Бечкерек;Петровград","name:sr-Latn":"Zrenjanin","old_name:sr-Latn":"Veliki Bečkerek;Petrovgrad"},"display_name":"Зрењанин, Град Зрењанин, Средњобанатски управни округ, Војводина, Србија","address":{"city":"Зрењанин","municipality":"Град Зрењанин","county":"Средњобанатски управни округ","ISO3166-2-lvl6":"RS-02","state":"Војводина","ISO3166-2-lvl4":"RS-VO","country":"Србија","country_code":"rs"},"population":67129,"osm_type":"node","osm_id":61721547,"type":"city","location":[20.3907614,45.3802683],"bbox":[20.2307614,45.2202683,20.5507614,45.5402683],"border":{"name":"Зрењанин","other_names":{"name:ar":"زرنيانين","name:de":"Großbetschkerek","name:el":"Ζρένιανιν","name:en":"Zrenjanin","name:es":"Zrenjanin","name:fr":"Zrenjanin","name:he":"זרניאנין","name:hu":"Nagybecskerek","name:lt":"Zrenianinas","name:ru":"Зренянин","name:sr":"Зрењанин","name:sr-Latn":"Zrenjanin","name:be":"Зрэнянін","name:bg":"Зренянин","name:bs":"Zrenjanin","name:ca":"Zrenjanin","name:cs":"Zrenjanin","name:da":"Zrenjanin","name:eo":"Zrenjanin","name:et":"Zrenjanin","name:fa":"زرنجانین","name:hr":"Zrenjanin","name:id":"Zrenjanin","name:ie":"Zrenjanin","name:it":"Zrenjanin","name:ja":"ズレニャニン","name:jv":"Zrenjanin","name:ka":"ზრენიანინი","name:ko":"즈레냐닌","name:lv":"Zreņanina","name:ml":"സ്രെൻയാനിൻ","name:mn":"Зренянин","name:ms":"Zrenjanin","name:nb":"Zrenjanin","name:nl":"Zrenjanin","name:nn":"Zrenjanin","name:os":"Зренянин","name:pl":"Zrenjanin","name:pt":"Zrenjanin","name:ro":"Zrenianin","name:sk":"Zreňanin","name:sl":"Zrenjanin","name:sq":"Zrenjanin","name:sv":"Zrenjanin","name:tr":"Zrenjanin","name:tt":"Зренянин","name:uk":"Зренянин","name:ur":"زرینیانین","name:vi":"Zrenjanin","name:zh":"兹雷尼亚宁","name:rue":"Зрењанин","old_name":"Велики Бечкерек;Петровград","alt_name:ro":"Becicherecu Mare","old_name:sr":"Велики Бечкерек;Петровград","old_name:sr-Latn":"Veliki Bečkerek;Petrovgrad","alt:ar":"زرنجانین"},"display_name":"Зрењанин, Град Зрењанин, Средњобанатски управни округ, Војводина, Србија","address":{"city":"Зрењанин","municipality":"Град Зрењанин","county":"Средњобанатски управни округ","ISO3166-2-lvl6":"RS-02","state":"Војводина","ISO3166-2-lvl4":"RS-VO","country":"Србија","country_code":"rs"},"population":67129,"osm_type":"relation","osm_id":9853233,"type":"administrative","location":[20.3907614,45.3802683],"bbox":[20.2288844,45.2589427,20.524432,45.4621568]}}
{"name":"Јагодина","other_names":{"name:ar":"ياغودينا","name:de":"Jagodina","name:en":"Jagodina","name:es":"Jagodina","name:et":"Jagodina","name:fr":"Jagodina","name:hr":"Jagodina","name:ml":"യാഗോദിന","name:ru":"Ягодина","name:sl":"Jagodina","name:sr":"Јагодина","name:sr-Latn":"Jagodina"},"display_name":"Јагодина, Град Јагодина, Поморавски управни округ, Централна Србија, Србија","address":{"city":"Јагодина","municipality":"Град Јагодина","county":"Поморавски управни округ","ISO3166-2-lvl6":"RS-13","state":"Централна Србија","country":"Србија","country_code":"rs"},"population":34892,"osm_type":"node","osm_id":367764183,"type":"city","location":[21.2607688,43.9794256],"bbox":[21.1007688,43.8194256,21.4207688,44.1394256],"border":{"name":"Јагодина","other_names":{"name:en":"Jagodina","name:ru":"Ягодина","name:sr":"Јагодина","name:ar":"ياغودينا","name:de":"Jagodina","name:es":"Jagodina","name:et":"Jagodina","name:fr":"Jagodina","name:hr":"Jagodina","name:ml":"യാഗോദിന","name:sl":"Jagodina","name:sr-Latn":"Jagodina"},"display_name":"Јагодина, Град Јагодина, Поморавски управни округ, Централна Србија, 35000, Србија","address":{"city":"Јагодина","municipality":"Град Јагодина","county":"Поморавски управни округ","ISO3166-2-lvl6":"RS-13","state":"Централна Србија","postcode":"35000","country":"Србија","country_code":"rs"},"population":34892,"osm_type":"relation","osm_id":6330862,"type":"administrative","location":[21.2607688,43.9794256],"bbox":[21.226373,43.9455736,21.2937715,44.0056262]}}
{"name":"Кикинда","other_names":{"name:be":"Кікінда","name:bg":"Кикинда","name:ce":"Кикинда","name:el":"Κίκιντα","name:en":"Kikinda","name:fa":"کیکیندا","name:he":"קיקינדה","name:hu":"Nagykikinda","name:ja":"キキンダ","name:ko":"키킨다","name:lt":"Kikinda","name:mk":"Кикинда","name:ml":"കിക്കിണ്ട","name:nl":"Kikinda","name:ro":"Chichinda Mare","name:ru":"Кикинда","name:sk":"Kikinda","name:sr":"Кикинда","name:tt":"Кикинда","name:uk":"Кикинда","name:ur":"کیکیندا","name:ckb":"کیکیندا","name:pnb":"کیکندا","alt_name:de":"Großkikinda","old_name:sr":"Велика Кикинда","old_name:uk":"Велика-Кикинда;Гросс-Кикинда;Надь-Кикинда","name:sr-Latn":"Kikinda","name:zh-Hans":"基金达","name:zh-Hant":"基金達","old_name:sr-Latn":"Velika Kikinda"},"display_name":"Кикинда, Град Кикинда, Севернобанатски управни округ, Војводина, Србија","address":{"city":"Кикинда","county":"Севернобанатски управни округ","ISO3166-2-lvl6":"RS-03","state":"Војводина","ISO3166-2-lvl4":"RS-VO","country":"Србија","country_code":"rs"},"population":32084,"osm_type":"node","osm_id":955603411,"type":"city","location":[20.4653054,45.8300065],"bbox":[20.3053054,45.6700065,20.6253054,45.9900065],"border":[{"name":"Град Кикинда","other_names":{"name:en":"City of Kikinda","name:hu":"Nagykikinda város","name:sr":"Град Кикинда","int_name":"Grad Kikinda","name:sr-Latn":"Grad Kikinda","name:be":"Кікінда","name:bg":"Кикинда","name:ce":"Кикинда","name:el":"Κίκιντα","name:fa":"کیکیندا","name:he":"קיקינדה","name:ja":"キキンダ","name:ko":"키킨다","name:lt":"Kikinda","name:mk":"Кикинда","name:ml":"കിക്കിണ്ട","name:nl":"Kikinda","name:ro":"Chichinda Mare","name:ru":"Кикинда","name:sk":"Kikinda","name:tt":"Кикинда","name:uk":"Кикинда","name:ur":"کیکیندا","name:ckb":"کیکیندا","name:pnb":"کیکندا","alt_name:de":"Großkikinda","old_name:sr":"Велика Кикинда","old_name:uk":"Велика-Кикинда;Гросс-Кикинда;Надь-Кикинда","name:zh-Hans":"基金达","name:zh-Hant":"基金達","old_name:sr-Latn":"Velika Kikinda","alt":"Кикинда","alt:en":"Kikinda","alt:hu":"Nagykikinda","alt:sr":"Кикинда","alt:sr-Latn":"Kikinda"},"display_name":"Град Кикинда, Севернобанатски управни округ, Војводина, Србија","address":{"city":"Град Кикинда","county":"Севернобанатски управни округ","ISO3166-2-lvl6":"RS-03","state":"Војводина","ISO3166-2-lvl4":"RS-VO","country":"Србија","country_code":"rs"},"population":49326,"osm_type":"relation","osm_id":1639618,"type":"administrative","location":[20.4653054,45.8300065],"bbox":[20.1657213,45.6013105,20.6628372,45.981371]},{"name":"Кикинда","other_names":{"name:sr":"Кикинда","int_name":"Kikinda"},"display_name":"Кикинда, Град Кикинда, Севернобанатски управни округ, Војводина, 23300, Србија","address":{"city_district":"Кикинда","city":"Град Кикинда","county":"Севернобанатски управни округ","ISO3166-2-lvl6":"RS-03","state":"Војводина","ISO3166-2-lvl4":"RS-VO","postcode":"23300","country":"Србија","country_code":"rs"},"population":32084,"osm_type":"relation","osm_id":9858119,"type":"administrative","location":[20.472869305402504,45.81937245],"bbox":[20.3452696,45.7381465,20.5861621,45.901168]}]}
{"name":"Крагујевац","other_names":{"name:ar":"كراغوييفاتس","name:bg":"Крагуевац","name:da":"Kragujevac","name:de":"Kragujevac","name:el":"Κραγκούγιεβατς","name:en":"Kragujevac","name:es":"Kragujevac","name:et":"Kragujevac","name:fr":"Kragujevac","name:he":"קרגוייבץ","name:hr":"Kragujevac","name:lt":"Kragujevacas","name:lv":"Kragujevaca","name:ml":"ക്രാഗുയേവാക്","name:nl":"Kragujevac","name:ru":"Крагуевац","name:sl":"Kragujevac","name:sr":"Крагујевац","name:uk":"Крагуєваць","name:sr-Latn":"Kragujevac"},"display_name":"Крагујевац, Град Крагујевац, Шумадијски управни округ, Централна Србија, Србија","address":{"city":"Крагујевац","municipality":"Град Крагујевац","county":"Шумадијски управни округ","ISO3166-2-lvl6":"RS-12","state":"Централна Србија","country":"Србија","country_code":"rs"},"population":146315,"osm_type":"node","osm_id":313853846,"type":"city","location":[20.9196353,44.0131786],"bbox":[20.7596353,43.8531786,21.0796353,44.1731786],"border":{"name":"Крагујевац","other_names":{"name:en":"Kragujevac","name:sr":"Крагујевац","name:sr-Latn":"Kragujevac","name:ar":"كراغوييفاتس","name:bg":"Крагуевац","name:da":"Kragujevac","name:de":"Kragujevac","name:el":"Κραγκούγιεβατς","name:es":"Kragujevac","name:et":"Kragujevac","name:fr":"Kragujevac","name:he":"קרגוייבץ","name:hr":"Kragujevac","name:lt":"Kragujevacas","name:lv":"Kragujevaca","name:ml":"ക്രാഗുയേവാക്","name:nl":"Kragujevac","name:ru":"Крагуевац","name:sl":"Kragujevac","name:uk":"Крагуєваць"},"display_name":"Крагујевац, Град Крагујевац, Шумадијски управни округ, Централна Србија, Србија","address":{"city":"Крагујевац","municipality":"Град Крагујевац","county":"Шумадијски управни округ","ISO3166-2-lvl6":"RS-12","state":"Централна Србија","country":"Србија","country_code":"rs"},"population":146315,"osm_type":"relation","osm_id":8015154,"type":"administrative","location":[20.9196353,44.0131786],"bbox":[20.8226711,43.9649434,20.9901922,44.069625]}}
{"name":"Краљево","other_names":{"name:ar":"كرالييفو","name:bg":"Кралево","name:de":"Kraljevo","name:el":"Κράλιεβο","name:en":"Kraljevo","name:es":"Kraljevo","name:et":"Kraljevo","name:fr":"Kraljevo","name:hr":"Kraljevo","name:lt":"Kraljevas","name:ml":"ക്രാലിയേവോ","name:ru":"Кралево","name:sl":"Kraljevo","name:sr":"Краљево","name:sr-Latn":"Kraljevo"},"display_name":"Краљево, Град Краљево, Рашки управни округ, Централна Србија, Србија","address":{"city":"Краљево","municipality":"Град Краљево","county":"Рашки управни округ","ISO3166-2-lvl6":"RS-18","state":"Централна Србија","country":"Србија","country_code":"rs"},"population":57432,"osm_type":"node","osm_id":353439335,"type":"city","location":[20.6870792,43.7234519],"bbox":[20.5270792,43.5634519,20.8470792,43.8834519],"border":{"name":"Краљево","other_names":{"name:el":"Κράλιεβο","name:en":"Kraljevo","name:sr":"Краљево","name:sr-Latn":"Kraljevo","name:ar":"كرالييفو","name:bg":"Кралево","name:de":"Kraljevo","name:es":"Kraljevo","name:et":"Kraljevo","name:fr":"Kraljevo","name:hr":"Kraljevo","name:lt":"Kraljevas","name:ml":"ക്രാലിയേവോ","name:ru":"Кралево","name:sl":"Kraljevo"},"display_name":"Краљево, Град Краљево, Рашки управни округ, Централна Србија, Србија","address":{"city":"Краљево","municipality":"Град Краљево","county":"Рашки управни округ","ISO3166-2-lvl6":"RS-18","state":"Централна Србија","country":"Србија","country_code":"rs"},"population":57432,"osm_type":"relation","osm_id":8052624,"type":"administrative","location":[20.6870792,43.7234519],"bbox":[20.636906,43.6852614,20.7503206,43.7444567]}}
{"name":"Крушевац","other_names":{"name:ar":"كروشيفاتس","name:el":"Κρούσεβατς","name:en":"Kruševac","name:es":"Kruševac","name:et":"Kruševac","name:fr":"Kruševac","name:ml":"ക്രൂഷേവാക്","name:ru":"Крушевац","name:sr":"Крушевац","old_name:de":"Kruschewatz","name:sr-Latn":"Kruševac"},"display_name":"Крушевац, Град Крушевац, Расински управни округ, Централна Србија, Србија","address":{"city":"Крушевац","municipality":"Град Крушевац","county":"Расински управни округ","ISO3166-2-lvl6":"RS-19","state":"Централна Србија","country":"Србија","country_code":"rs"},"population":53746,"osm_type":"node","osm_id":3720265371,"type":"city","location":[21.3264811,43.58264],"bbox":[21.1664811,43.42264,21.4864811,43.74264],"border":{"name":"Крушевац","other_names":{"name:en":"Krusevac","name:sr":"Крушевац","name:sr-Latn":"Kruševac","name:ar":"كروشيفاتس","name:el":"Κρούσεβατς","name:es":"Kruševac","name:et":"Kruševac","name:fr":"Kruševac","name:ml":"ക്രൂഷേവാക്","name:ru":"Крушевац","old_name:de":"Kruschewatz","alt:en":"Kruševac"},"display_name":"Крушевац, Град Крушевац, Расински управни округ, Централна Србија, 37000, Србија","address":{"city":"Крушевац","municipality":"Град Крушевац","county":"Расински управни округ","ISO3166-2-lvl6":"RS-19","state":"Централна Србија","postcode":"37000","country":"Србија","country_code":"rs"},"population":53746,"osm_type":"relation","osm_id":8718722,"type":"administrative","location":[21.3264811,43.58264],"bbox":[21.2958685,43.5508246,21.3535082,43.5965621]}}
{"name":"Лесковац","other_names":{"name:ar":"ليسكوفاتس","name:de":"Leskovac","name:el":"Λέσκοβατς","name:en":"Leskovac","name:es":"Leskovac","name:et":"Leskovac","name:fr":"Leskovac","name:lt":"Leskovacas","name:ml":"ലെസ്കോവാക്","name:ru":"Лесковац","name:sr":"Лесковац","name:sr-Latn":"Leskovac"},"display_name":"Лесковац, Град Лесковац, Јабланички управни округ, Централна Србија, 16000, Србија","address":{"city":"Лесковац","municipality":"Град Лесковац","county":"Јабланички управни округ","ISO3166-2-lvl6":"RS-23","state":"Централна Србија","postcode":"16000","country":"Србија","country_code":"rs"},"population":54091,"osm_type":"node","osm_id":185538499,"type":"city","location":[21.9464271,42.9951304],"bbox":[21.7864271,42.8351304,22.1064271,43.1551304],"border":{"name":"Лесковац","other_names":{"name:en":"Leskovac","name:sr":"Лесковац","name:sr-Latn":"Leskovac","name:ar":"ليسكوفاتس","name:de":"Leskovac","name:el":"Λέσκοβατς","name:es":"Leskovac","name:et":"Leskovac","name:fr":"Leskovac","name:lt":"Leskovacas","name:ml":"ലെസ്കോവാക്","name:ru":"Лесковац"},"display_name":"Лесковац, Град Лесковац, Јабланички управни округ, Централна Србија, 16000, Србија","address":{"city":"Лесковац","municipality":"Град Лесковац","county":"Јабланички управни округ","ISO3166-2-lvl6":"RS-23","state":"Централна Србија","postcode":"16000","country":"Србија","country_code":"rs"},"population":54091,"osm_type":"relation","osm_id":7247369,"type":"administrative","location":[21.9464271,42.9951304],"bbox":[21.9126669,42.9617989,21.9833752,43.0342427]}}
{"name":"Лозница","other_names":{"name:de":"Loznica","name:en":"Loznica","name:ml":"ലോസ്നിക","name:ru":"Лозница","name:sr":"Лозница","name:sr-Latn":"Loznica"},"display_name":"Лозница, Град Лозница, Мачвански управни округ, Централна Србија, 15300, Србија","address":{"city":"Лозница","municipality":"Град Лозница","county":"Мачвански управни округ","ISO3166-2-lvl6":"RS-08","state":"Централна Србија","postcode":"15300","country":"Србија","country_code":"rs"},"population":19515,"osm_type":"node","osm_id":254036981,"type":"city","location":[19.2237478,44.5309221],"bbox":[19.0637478,44.3709221,19.3837478,44.6909221],"border":[{"name":"Град Лозница","other_names":{"name:en":"City of Loznica","name:ru":"Лозница","name:sr":"Град Лозница","int_name":"Grad Loznica","name:sr-Latn":"Grad Loznica"},"display_name":"Град Лозница, Мачвански управни округ, Централна Србија, Србија","address":{"municipality":"Град Лозница","county":"Мачвански управни округ","ISO3166-2-lvl6":"RS-08","state":"Централна Србија","country":"Србија","country_code":"rs"},"population":72062,"osm_type":"relation","osm_id":1762291,"type":"administrative","location":[19.36575281805063,44.5528096],"bbox":[19.1229762,44.395884,19.5725932,44.7098901]},{"name":"Лозница","other_names":{"name:en":"Loznica","name:sr":"Лозница","name:sr-Latn":"Loznica","name:de":"Loznica","name:ml":"ലോസ്നിക","name:ru":"Лозница"},"display_name":"Лозница, Град Лозница, Мачвански управни округ, Централна Србија, 15300, Србија","address":{"city":"Лозница","municipality":"Град Лозница","county":"Мачвански управни округ","ISO3166-2-lvl6":"RS-08","state":"Централна Србија","postcode":"15300","country":"Србија","country_code":"rs"},"population":19515,"osm_type":"relation","osm_id":8092382,"type":"administrative","location":[19.2237478,44.5309221],"bbox":[19.1748786,44.5128976,19.2398538,44.546705]}]}
{"name":"Ниш","other_names":{"name:ar":"نيش","name:bg":"Ниш","name:da":"Niš","name:de":"Niš","name:el":"Νις","name:en":"Niš","name:es":"Niš","name:et":"Niš","name:fr":"Niš","name:he":"ניש","name:hr":"Niš","name:it":"Niš","name:la":"Naissus","name:lt":"Nišas","name:lv":"Niša","name:ml":"നിഷ്","name:nl":"Niš","name:pl":"Nisz","name:pt":"Nish","name:ro":"Niș","name:ru":"Ниш","name:sl":"Niš","name:sq":"Nishi","name:sr":"Ниш","name:tr":"Niş","name:uk":"Ніш","old_name:de":"Nisch","old_name:it":"Nissa","name:sr-Latn":"Niš","name:zh-Hans":"尼什","name:zh-Hant":"尼什"},"display_name":"Ниш, Нишавски управни округ, Централна Србија, Србија","address":{"city":"Ниш","county":"Нишавски управни округ","ISO3166-2-lvl6":"RS-20","state":"Централна Србија","country":"Србија","country_code":"rs"},"population":178976,"osm_type":"node","osm_id":100890898,"type":"city","location":[21.8959232,43.3211301],"bbox":[21.7359232,43.1611301,22.0559232,43.4811301],"border":[{"name":"Ниш","other_names":{"name:ar":"نيش","name:bg":"Ниш","name:da":"Niš","name:de":"Niš","name:el":"Νις","name:en":"Niš","name:es":"Niš","name:et":"Niš","name:fr":"Niš","name:he":"ניש","name:hr":"Niš","name:la":"Naissus","name:lt":"Nišas","name:lv":"Niša","name:nl":"Niš","name:pl":"Nisz","name:pt":"Nish","name:ro":"Niș","name:ru":"Ниш","name:sl":"Niš","name:sq":"Nishi","name:sr":"Ниш","name:tr":"Niş","old_name:de":"Nisch","name:sr-Latn":"Niš","name:zh-Hans":"尼什","name:zh-Hant":"尼什","name:it":"Niš","name:ml":"നിഷ്","name:uk":"Ніш","old_name:it":"Nissa"},"display_name":"Ниш, Нишавски управни округ, Централна Србија, Србија","address":{"city":"Ниш","county":"Нишавски управни округ","ISO3166-2-lvl6":"RS-20","state":"Централна Србија","country":"Србија","country_code":"rs"},"population":178976,"osm_type":"relation","osm_id":11538321,"type":"city","location":[21.8959232,43.3211301],"bbox":[21.8263408,43.2833971,21.9602276,43.3559621]},{"name":"Град Ниш","other_names":{"name:de":"Stadt Nisch","name:en":"City of Niš","name:hr":"Grad Niš","name:sr":"Град Ниш","int_name":"Grad Nis","name:sr-Latn":"Grad Niš","name:ar":"نيش","name:bg":"Ниш","name:da":"Niš","name:el":"Νις","name:es":"Niš","name:et":"Niš","name:fr":"Niš","name:he":"ניש","name:it":"Niš","name:la":"Naissus","name:lt":"Nišas","name:lv":"Niša","name:ml":"നിഷ്","name:nl":"Niš","name:pl":"Nisz","name:pt":"Nish","name:ro":"Niș","name:ru":"Ниш","name:sl":"Niš","name:sq":"Nishi","name:tr":"Niş","name:uk":"Ніш","old_name:de":"Nisch","old_name:it":"Nissa","name:zh-Hans":"尼什","name:zh-Hant":"尼什","alt":"Ниш","alt:de":"Niš","alt:en":"Niš","alt:hr":"Niš","alt:sr":"Ниш","alt:sr-Latn":"Niš"},"display_name":"Град Ниш, Нишавски управни округ, Централна Србија, Србија","address":{"city":"Град Ниш","county":"Нишавски управни округ","ISO3166-2-lvl6":"RS-20","state":"Централна Србија","country":"Србија","country_code":"rs"},"population":249501,"osm_type":"relation","osm_id":2867621,"type":"administrative","location":[21.8959232,43.3211301],"bbox":[21.7087987,43.208945,22.1756915,43.4825933]}]}
{"name":"Нови Пазар","other_names":{"name:ar":"نوفي بازار","name:be":"Нові-Пазар","name:bg":"Нови пазар","name:bs":"Novi Pazar","name:de":"Novi Pazar","name:el":"Νόβι Πάζαρ","name:en":"Novi Pazar","name:es":"Novi Pazar","name:et":"Novi Pazar","name:fa":"نووی پازار","name:fr":"Novi Pazar","name:he":"נובי פאזאר","name:hr":"Novi Pazar","name:ja":"ノヴィ・パザル","name:ko":"노비파자르","name:lt":"Novi Pazaras","name:lv":"Novi Pazara","name:mk":"Нови Пазар","name:ml":"നോവി പസാർ","name:mn":"Нови-Пазар","name:ru":"Нови-Пазар","name:sl":"Novi Pazar","name:sq":"Pazari i Ri","name:sr":"Нови Пазар","name:tr":"Yeni Pazar","name:tt":"Нови-Пазар","name:uk":"Новий Пазар","name:ur":"نووی پازار","name:ckb":"نۆڤی پازار","name:pnb":"نووی پازار","alt_name:hu":"Újvásár","alt_name:ro":"Noul Bazar","alt_name:sq":"Jeni Pazar","name:sr-Latn":"Novi Pazar","name:zh-Hans":"新帕扎尔","name:zh-Hant":"新帕扎爾"},"display_name":"Нови Пазар, Град Нови Пазар, Рашки управни округ, Централна Србија, Србија","address":{"city":"Нови Пазар","municipality":"Град Нови Пазар","county":"Рашки управни округ","ISO3166-2-lvl6":"RS-18","state":"Централна Србија","country":"Србија","country_code":"rs"},"population":71462,"osm_type":"node","osm_id":338659082,"type":"city","location":[20.518057,43.1406913],"bbox":[20.358057,42.9806913,20.678057,43.3006913],"border":{"name":"Нови Пазар","other_names":{"name:en":"Novi Pazar","name:sr":"Нови Пазар","name:sr-Latn":"Novi Pazar","name:ar":"نوفي بازار","name:be":"Нові-Пазар","name:bg":"Нови пазар","name:bs":"Novi Pazar","name:de":"Novi Pazar","name:el":"Νόβι Πάζαρ","name:es":"Novi Pazar","name:et":"Novi Pazar","name:fa":"نووی پازار","name:fr":"Novi Pazar","name:he":"נובי פאזאר","name:hr":"Novi Pazar","name:ja":"ノヴィ・パザル","name:ko":"노비파자르","name:lt":"Novi Pazaras","name:lv":"Novi Pazara","name:mk":"Нови Пазар","name:ml":"നോവി പസാർ","name:mn":"Нови-Пазар","name:ru":"Нови-Пазар","name:sl":"Novi Pazar","name:sq":"Pazari i Ri","name:tr":"Yeni Pazar","name:tt":"Нови-Пазар","name:uk":"Новий Пазар","name:ur":"نووی پازار","name:ckb":"نۆڤی پازار","name:pnb":"نووی پازار","alt_name:hu":"Újvásár","alt_name:ro":"Noul Bazar","alt_name:sq":"Jeni Pazar","name:zh-Hans":"新帕扎尔","name:zh-Hant":"新帕扎爾"},"display_name":"Нови Пазар, Град Нови Пазар, Рашки управни округ, Централна Србија, Србија","address":{"city":"Нови Пазар","municipality":"Град Нови Пазар","county":"Рашки управни округ","ISO3166-2-lvl6":"RS-18","state":"Централна Србија","country":"Србија","country_code":"rs"},"population":71462,"osm_type":"relation","osm_id":8040902,"type":"administrative","location":[20.518057,43.1406913],"bbox":[20.4843919,43.1212835,20.5454253,43.1635488]}}
{"name":"Нови Сад","other_names":{"name:af":"Novi Sad","name:ar":"نوفي ساد","name:ba":"Нови-Сад","name:be":"Нові-Сад","name:bg":"Нови Сад","name:bn":"নোভি সাদ","name:br":"Novi Sad","name:bs":"Novi Sad","name:ca":"Novi Sad","name:ce":"Нови-Сад","name:cs":"Nový Sad","name:cu":"Новъ Садъ","name:da":"Novi Sad","name:de":"Novi Sad","name:el":"Νόβι Σαντ","name:en":"Novi Sad","name:eo":"Novi Sad","name:es":"Novi Sad","name:et":"Novi Sad","name:eu":"Novi Sad","name:fa":"نووی ساد","name:fi":"Novi Sad","name:fr":"Novi Sad","name:ga":"Novi Sad","name:gl":"Novi Sad","name:he":"נובי סאד","name:hr":"Novi Sad","name:hu":"Újvidék","name:hy":"Նովի Սադ","name:id":"Novi Sad","name:ie":"Novi Sad","name:io":"Novi Sad","name:it":"Novi Sad","name:ja":"ノヴィ・サド","name:jv":"Novi Sad","name:ka":"ნოვი-სადი","name:ko":"노비사드","name:ku":"Novî Sad","name:la":"Neoplanta","name:lt":"Novi Sadas","name:lv":"Novisada","name:mg":"Novi Sad","name:ml":"നോവി സാഡ്","name:mr":"नोव्ही साद","name:ms":"Novi Sad","name:na":"Novi Sad","name:nb":"Novi Sad","name:nl":"Novi Sad","name:nn":"Novi Sad","name:oc":"Novi Sad","name:os":"Нови-Сад","name:pl":"Nowy Sad","name:ps":"نووي ساد","name:pt":"Novi Sad","name:ro":"Novi Sad","name:ru":"Нови-Сад","name:sc":"Novi Sad","name:sk":"Nový Sad","name:sl":"Novi Sad","name:sq":"Novi Sad","name:sr":"Нови Сад","name:st":"Novi Sad","name:sv":"Novi Sad","name:sw":"Novi Sad","name:th":"นอวีซาด","name:tr":"Novi Sad","name:tt":"Нови-Сад","name:uk":"Новий Сад","name:ur":"نووی ساد","name:vi":"Novi Sad","name:vo":"Novi Sad","name:zh":"诺维萨德","name:ast":"Novi Sad","name:cnr":"Novi Sad","old_name":"Neoplanta","old_name:de":"Neusatz","name:sr-Latn":"Novi Sad","name:zh-Hans":"诺维萨德","name:zh-Hant":"諾維薩德","name:cnr-Cyrl":"Нови Сад"},"display_name":"Нови Сад, Град Нови Сад, Јужнобачки управни округ, Војводина, 21000, Србија","address":{"city":"Нови Сад","municipality":"Град Нови Сад","county":"Јужнобачки управни округ","ISO3166-2-lvl6":"RS-06","state":"Војводина","ISO3166-2-lvl4":"RS-VO","postcode":"21000","country":"Србија","country_code":"rs"},"population":260438,"osm_type":"node","osm_id":59735022,"type":"city","location":[19.8451756,45.2551338],"bbox":[19.6851756,45.0951338,20.0051756,45.4151338],"border":[{"name":"Град Нови Сад","other_names":{"name:de":"Stadt Neusatz","name:en":"City of Novi Sad","name:hu":"Újvidék város","name:pl":"Nowy Sad","name:sk":"Mesto Nový Sad","name:sr":"Град Нови Сад","name:zh":"諾維薩德市","int_name":"Grad Novi Sad","name:cnr":"Grad Novi Sad","name:sr-Latn":"Grad Novi Sad","name:zh-Hans":"诺维萨德市","name:zh-Hant":"諾維薩德市","name:cnr-Cyrl":"Град Нови Сад"},"display_name":"Град Нови Сад, Јужнобачки управни округ, Војводина, Србија","address":{"municipality":"Град Нови Сад","county":"Јужнобачки управни округ","ISO3166-2-lvl6":"RS-06","state":"Војводина","ISO3166-2-lvl4":"RS-VO","country":"Србија","country_code":"rs"},"population":368967,"osm_type":"relation","osm_id":1649672,"type":"administrative","location":[19.82744859607113,45.2905912],"bbox":[19.5563618,45.149733,20.1044599,45.4314629]},{"name":"Нови Сад","other_names":{"name:ar":"نوفي ساد","name:ba":"Нови-Сад","name:be":"Нові-Сад","name:bg":"Нови Сад","name:bs":"Novi Sad","name:ce":"Нови-Сад","name:el":"Νόβι Σαντ","name:en":"Novi Sad","name:es":"Novi Sad","name:fa":"نووی ساد","name:fr":"Novi Sad","name:he":"נובי סאד","name:hr":"Novi Sad","name:hu":"Újvidék","name:hy":"Նովի Սադ","name:it":"Novi Sad","name:ja":"ノヴィ・サド","name:ka":"ნოვი-სადი","name:kk":"Нови Сад","name:ko":"노비사드","name:ku":"Novî Sad","name:la":"Neoplanta","name:lt":"Novi Sadas","name:lv":"Novisada","name:mk":"Нови Сад","name:mn":"Нови Сад","name:mr":"नोव्ही साद","name:nl":"Novi Sad","name:os":"Нови-Сад","name:pl":"Nowy Sad","name:ps":"نووي ساد","name:pt":"Novi Sad","name:ru":"Нови-Сад","name:sk":"Nový Sad","name:sq":"Novi Sadi","name:sr":"Нови Сад","name:th":"นอวีซาด","name:tt":"Нови-Сад","name:uk":"Новий Сад","name:ur":"نووی ساد","name:zh":"諾維薩德","name:ast":"Novi Sad","name:cnr":"Novi Sad","name:rue":"Новый Сад","alt_name:ba":"Новый Сад","alt_name:be":"Уйвідэк;Нойзац-ан-дэр-Дона","alt_name:ce":"Новый Сад","alt_name:de":"Neusatz","alt_name:el":"Nέα Φυτεία","alt_name:ko":"우이비데크","alt_name:ru":"Новый Сад","alt_name:uk":"Нойзац-ан-дер-Донау","old_name:hu":"Péterváradi Sánc","alt_name:rue":"Новы Сад","name:sr-Latn":"Novi Sad","name:zh-Hans":"诺维萨德","name:zh-Hant":"諾維薩德","name:cnr-Cyrl":"Нови Сад","name:af":"Novi Sad","name:bn":"নোভি সাদ","name:br":"Novi Sad","name:ca":"Novi Sad","name:cs":"Nový Sad","name:cu":"Новъ Садъ","name:da":"Novi Sad","name:de":"Novi Sad","name:eo":"Novi Sad","name:et":"Novi Sad","name:eu":"Novi Sad","name:fi":"Novi Sad","name:ga":"Novi Sad","name:gl":"Novi Sad","name:id":"Novi Sad","name:ie":"Novi Sad","name:io":"Novi Sad","name:jv":"Novi Sad","name:mg":"Novi Sad","name:ml":"നോവി സാഡ്","name:ms":"Novi Sad","name:na":"Novi Sad","name:nb":"Novi Sad","name:nn":"Novi Sad","name:oc":"Novi Sad","name:ro":"Novi Sad","name:sc":"Novi Sad","name:sl":"Novi Sad","name:st":"Novi Sad","name:sv":"Novi Sad","name:sw":"Novi Sad","name:tr":"Novi Sad","name:vi":"Novi Sad","name:vo":"Novi Sad","old_name":"Neoplanta","old_name:de":"Neusatz","alt:sq":"Novi Sad","alt:zh":"诺维萨德"},"display_name":"Нови Сад, Град Нови Сад, Јужнобачки управни округ, Војводина, Србија","address":{"city":"Нови Сад","municipality":"Град Нови Сад","county":"Јужнобачки управни округ","ISO3166-2-lvl6":"RS-06","state":"Војводина","ISO3166-2-lvl4":"RS-VO","country":"Србија","country_code":"rs"},"population":260438,"osm_type":"relation","osm_id":9273976,"type":"administrative","location":[19.8451756,45.2551338],"bbox":[19.7639858,45.2212565,19.9316453,45.321896]}]}
{"name":"Општина Ада","other_names":{"name:en":"Ada Municipality","name:hr":"Općina Ada","name:hu":"Ada község","name:sr":"Општина Ада","int_name":"Opstina Ada","name:sr-Latn":"Opština Ada"},"display_name":"Општина Ада, Севернобанатски управни округ, Војводина, 24430, Србија","address":{"city":"Општина Ада","county":"Севернобанатски управни округ","ISO3166-2-lvl6":"RS-03","state":"Војводина","ISO3166-2-lvl4":"RS-VO","postcode":"24430","country":"Србија","country_code":"rs"},"population":13293,"osm_type":"relation","osm_id":1279989,"type":"administrative","location":[20.016429869969564,45.7824631],"bbox":[19.8561319,45.7113832,20.1710359,45.8535916],"inferred_type":"city"}
{"name":"Општина Александровац","other_names":{"name:en":"Aleksandrovac Municipality","name:sr":"Општина Александровац","int_name":"Opstina Aleksandrovac","name:sr-Latn":"Opština Aleksandrovac"},"display_name":"Општина Александровац, Расински управни округ, Централна Србија, Србија","address":{"city":"Општина Александровац","county":"Расински управни округ","ISO3166-2-lvl6":"RS-19","state":"Централна Србија","country":"Србија","country_code":"rs"},"population":22069,"osm_type":"relation","osm_id":2867199,"type":"administrative","location":[21.005920036862918,43.467757000000006],"bbox":[20.7740475,43.3834674,21.2338252,43.5519726],"inferred_type":"city"}
{"name":"Општина Алексинац","other_names":{"name:en":"Aleksinac Municipality","name:sr":"Општина Алексинац","int_name":"Opstina Aleksinac","name:sr-Latn":"Opština Aleksinac"},"display_name":"Општина Алексинац, Нишавски управни округ, Централна Србија, Србија","address":{"city":"Општина Алексинац","county":"Нишавски управни округ","ISO3166-2-lvl6":"RS-20","state":"Централна Србија","country":"Србија","country_code":"rs"},"population":43098,"osm_type":"relation","osm_id":2867622,"type":"administrative","location":[21.744681570430807,43.535129],"bbox":[21.4799701,43.3571508,21.922228,43.7130894],"inferred_type":"city"}
{"name":"Општина Алибунар","other_names":{"name:en":"Alibunar Municipality","name:hu":"Alibunár község","name:sr":"Општина Алибунар","int_name":"Opstina Alibunar","name:sr-Latn":"Opština Alibunar"},"display_name":"Општина Алибунар, Јужнобанатски управни округ, Војводина, Србија","address":{"city":"Општина Алибунар","county":"Јужнобанатски управни округ","ISO3166-2-lvl6":"RS-04","state":"Војводина","ISO3166-2-lvl4":"RS-VO","country":"Србија","country_code":"rs"},"population":17139,"osm_type":"relation","osm_id":1639497,"type":"administrative","location":[20.956411268993797,45.09693835],"bbox":[20.7725513,44.9368675,21.1082211,45.2577348],"inferred_type":"city"}
{"name":"Општина Апатин","other_names":{"name:en":"Apatin Municipality","name:hr":"Općina Apatin","name:hu":"Apatin község","name:sr":"Општина Апатин","int_name":"Opstina Apatin","name:sr-Latn":"Opština Apatin"},"display_name":"Општина Апатин, Западнобачки управни округ, Војводина, Србија","address":{"city":"Општина Апатин","county":"Западнобачки управни округ","ISO3166-2-lvl6":"RS-05","state":"Војводина","ISO3166-2-lvl4":"RS-VO","country":"Србија","country_code":"rs"},"population":23155,"osm_type":"relation","osm_id":1635758,"type":"administrative","location":[19.04310919498083,45.647564450000004],"bbox":[18.8880289,45.5272732,19.1721754,45.7674216],"inferred_type":"city"}
{"name":"Општина Аранђеловац","other_names":{"name:en":"Arandjelovac Municipality","name:sr":"Општина Аранђеловац","int_name":"Opstina Arandjelovac","name:sr-Latn":"Opština Aranđelovac"},"display_name":"Општина Аранђеловац, Шумадијски управни округ, Централна Србија, Србија","address":{"city":"Општина Аранђеловац","county":"Шумадијски управни округ","ISO3166-2-lvl6":"RS-12","state":"Централна Србија","country":"Србија","country_code":"rs"},"population":41297,"osm_type":"relation","osm_id":2870901,"type":"administrative","location":[20.541012607177045,44.3199233],"bbox":[20.4003405,44.1961847,20.6682255,44.443646],"inferred_type":"city"}
{"name":"Општина Ариље","other_names":{"name:en":"Arilje Municipality","name:sr":"Општина Ариље","int_name":"Opstina Arilje","name:sr-Latn":"Opština Arilje"},"display_name":"Општина Ариље, Златиборски управни округ, Централна Србија, 31230, Србија","address":{"city":"Општина Ариље","county":"Златиборски управни округ","ISO3166-2-lvl6":"RS-16","state":"Централна Србија","postcode":"31230","country":"Србија","country_code":"rs"},"population":17063,"osm_type":"relation","osm_id":2872864,"type":"administrative","location":[20.056262280116027,43.683428750000004],"bbox":[19.8803402,43.5709327,20.1991476,43.7959701],"inferred_type":"city"}
{"name":"Општина Бабушница","other_names":{"name:en":"Babusnica Municipality","name:ru":"община Бабушница","name:sr":"Општина Бабушница","int_name":"Opstina Babusnica","name:sr-Latn":"Opština Babušnica"},"display_name":"Општина Бабушница, Пиротски управни округ, Централна Србија, Србија","address":{"city":"Општина Бабушница","county":"Пиротски управни округ","ISO3166-2-lvl6":"RS-22","state":"Централна Србија","country":"Србија","country_code":"rs"},"population":9109,"osm_type":"relation","osm_id":2860572,"type":"administrative","location":[22.379664798815433,43.011356],"bbox":[22.1947795,42.8629089,22.6428206,43.159667],"inferred_type":"city"}
{"name":"Општина Бајина Башта","other_names":{"name:en":"Bajina Basta Municipality","name:sr":"Општина Бајина Башта","int_name":"Opstina Bajina Basta","name:sr-Latn":"Opština Bajina Bašta"},"display_name":"Општина Бајина Башта, Златиборски управни округ, Централна Србија, 31250, Србија","address":{"city":"Општина Бајина Башта","county":"Златиборски управни округ","ISO3166-2-lvl6":"RS-16","state":"Централна Србија","postcode":"31250","country":"Србија","country_code":"rs"},"population":23533,"osm_type":"relation","osm_id":2872865,"type":"administrative","location":[19.67120800886285,43.98920645],"bbox":[19.234917,43.8092676,19.7970743,44.1691286],"inferred_type":"city"}
{"name":"Општина Баточина","other_names":{"name:en":"Batocina Municipality","name:sr":"Општина Баточина","int_name":"Opstina Batocina","name:sr-Latn":"Opština Batočina"},"display_name":"Општина Баточина, Шумадијски управни округ, Централна Србија, 34227, Србија","address":{"city":"Општина Баточина","county":"Шумадијски управни округ","ISO3166-2-lvl6":"RS-12","state":"Централна Србија","postcode":"34227","country":"Србија","country_code":"rs"},"population":10162,"osm_type":"relation","osm_id":2870902,"type":"administrative","location":[21.069523916861392,44.13029455],"bbox":[20.9477751,44.0649938,21.1821792,44.1955898],"inferred_type":"city"}
{"name":"Општина Бач","other_names":{"name:en":"Bac Municipality","name:hu":"Bács község","name:sr":"Општина Бач","int_name":"Opstina Bac","name:sr-Latn":"Opština Bač"},"display_name":"Општина Бач, Јужнобачки управни округ, Војводина, Србија","address":{"city":"Општина Бач","county":"Јужнобачки управни округ","ISO3166-2-lvl6":"RS-06","state":"Војводина","ISO3166-2-lvl4":"RS-VO","country":"Србија","country_code":"rs"},"population":11431,"osm_type":"relation","osm_id":1639911,"type":"administrative","location":[19.14071101023829,45.3819594],"bbox":[18.9695081,45.2667471,19.374515,45.4971542],"inferred_type":"city"}
{"name":"Општина Бачка Паланка","other_names":{"name:en":"Backa Palanka Municipality","name:hu":"Palánka község","name:sr":"Општина Бачка Паланка","int_name":"Opstina Backa Palanka","name:sr-Latn":"Opština Bačka Palanka"},"display_name":"Општина Бачка Паланка, Јужнобачки управни округ, Војводина, Србија","address":{"city":"Општина Бачка Паланка","county":"Јужнобачки управни округ","ISO3166-2-lvl6":"RS-06","state":"Војводина","ISO3166-2-lvl4":"RS-VO","country":"Србија","country_code":"rs"},"population":48265,"osm_type":"relation","osm_id":1649673,"type":"administrative","location":[19.399344296446266,45.322579649999994],"bbox":[19.1866327,45.1432449,19.5783244,45.5020138],"inferred_type":"city"}
{"name":"Општина Бачка Топола","other_names":{"name:en":"Backa Topola Municipality","name:hu":"Topolya község","name:sr":"Општина Бачка Топола","int_name":"Opstina Backa Topola","name:sr-Latn":"Opština Bačka Topola"},"display_name":"Општина Бачка Топола, Севернобачки управни округ, Војводина, Србија","address":{"city":"Општина Бачка Топола","county":"Севернобачки управни округ","ISO3166-2-lvl6":"RS-01","state":"Војводина","ISO3166-2-lvl4":"RS-VO","country":"Србија","country_code":"rs"},"population":26228,"osm_type":"relation","osm_id":1279959,"type":"administrative","location":[19.594706499322005,45.835545100000004],"bbox":[19.3335669,45.7264119,19.8784399,45.9439403],"inferred_type":"city"}
{"name":"Општина Бачки Петровац","other_names":{"name:en":"Backi Petrovac Municipality","name:hu":"Petrőc község","name:sk":"Obec Báčsky Petrovec","name:sr":"Општина Бачки Петровац","int_name":"Opstina Backi Petrovac","name:sr-Latn":"Opština Bački Petrovac"},"display_name":"Општина Бачки Петровац, Јужнобачки управни округ, Војводина, Србија","address":{"city":"Општина Бачки Петровац","county":"Јужнобачки управни округ","ISO3166-2-lvl6":"RS-06","state":"Војводина","ISO3166-2-lvl4":"RS-VO","country":"Србија","country_code":"rs"},"population":11512,"osm_type":"relation","osm_id":1649674,"type":"administrative","location":[19.59393013484734,45.3318433],"bbox":[19.478429,45.2371591,19.6761781,45.4255528],"inferred_type":"city"}
{"name":"Општина Бела Паланка","other_names":{"name:en":"Bela Palanka Municipality","name:sr":"Општина Бела Паланка","int_name":"Opstina Bela Palanka","name:sr-Latn":"Opština Bela Palanka"},"display_name":"Општина Бела Паланка, Пиротски управни округ, Централна Србија, 18310, Србија","address":{"city":"Општина Бела Паланка","county":"Пиротски управни округ","ISO3166-2-lvl6":"RS-22","state":"Централна Србија","postcode":"18310","country":"Србија","country_code":"rs"},"population":9947,"osm_type":"relation","osm_id":2860573,"type":"administrative","location":[22.289046263361026,43.245542900000004],"bbox":[22.1171623,43.1054125,22.4525873,43.3855959],"inferred_type":"city"}
{"name":"Општина Бела Црква","other_names":{"name:cs":"Okres Bílý Kostel","name:en":"Bela Crkva Municipality","name:hu":"Fehértemplom község","name:sr":"Општина Бела Црква","int_name":"Opstina Bela Crkva","name:sr-Latn":"Opština Bela Crkva"},"display_name":"Општина Бела Црква, Јужнобанатски управни округ, Војводина, Србија","address":{"city":"Општина Бела Црква","county":"Јужнобанатски управни округ","ISO3166-2-lvl6":"RS-04","state":"Војводина","ISO3166-2-lvl4":"RS-VO","country":"Србија","country_code":"rs"},"population":14451,"osm_type":"relation","osm_id":1639498,"type":"administrative","location":[21.36149720584646,44.906682950000004],"bbox":[21.1293207,44.7928734,21.5601308,45.0204424],"inferred_type":"city"}
{"name":"Општина Беочин","other_names":{"name:en":"Beocin Municipality","name:hu":"Belcsény község","name:sr":"Општина Беочин","int_name":"Opstina Beocin","name:sr-Latn":"Opština Beočin"},"display_name":"Општина Беочин, Јужнобачки управни округ, Војводина, 21300, Србија","address":{"city":"Општина Беочин","county":"Јужнобачки управни округ","ISO3166-2-lvl6":"RS-06","state":"Војводина","ISO3166-2-lvl4":"RS-VO","postcode":"21300","country":"Србија","country_code":"rs"},"population":13875,"osm_type":"relation","osm_id":1649675,"type":"administrative","location":[19.637204122232188,45.19769225],"bbox":[19.4775033,45.1428783,19.7980527,45.252793],"inferred_type":"city"}
{"name":"Општина Бечеј","other_names":{"name:en":"Becej Municipality","name:hr":"Općina Bečej","name:hu":"Óbecse község","name:sr":"Општина Бечеј","int_name":"Opstina Becej","name:sr-Latn":"Opština Bečej"},"display_name":"Општина Бечеј, Јужнобачки управни округ, Војводина, Србија","address":{"city":"Општина Бечеј","county":"Јужнобачки управни округ","ISO3166-2-lvl6":"RS-06","state":"Војводина","ISO3166-2-lvl4":"RS-VO","country":"Србија","country_code":"rs"},"population":30681,"osm_type":"relation","osm_id":1642400,"type":"administrative","location":[19.956409189758908,45.63155415],"bbox":[19.766882,45.4994881,20.1339157,45.7640181],"inferred_type":"city"}
{"name":"Општина Блаце","other_names":{"name:en":"Blace Municipality","name:sr":"Општина Блаце","int_name":"Opstina Blace","name:sr-Latn":"Opština Blace"},"display_name":"Општина Блаце, Топлички управни округ, Централна Србија, 18420, Србија","address":{"city":"Општина Блаце","county":"Топлички управни округ","ISO3166-2-lvl6":"RS-21","state":"Централна Србија","postcode":"18420","country":"Србија","country_code":"rs"},"population":9682,"osm_type":"relation","osm_id":2863767,"type":"administrative","location":[21.27979732941224,43.306999149999996],"bbox":[21.1407904,43.2072095,21.4104609,43.4067262],"inferred_type":"city"}
{"name":"Општина Богатић","other_names":{"name:en":"Bogatic Municipality","name:sr":"Општина Богатић","int_name":"Opstina Bogatic","name:sr-Latn":"Opština Bogatić"},"display_name":"Општина Богатић, Мачвански управни округ, Централна Србија, Србија","address":{"city":"Општина Богатић","county":"Мачвански управни округ","ISO3166-2-lvl6":"RS-08","state":"Централна Србија","country":"Србија","country_code":"rs"},"population":24522,"osm_type":"relation","osm_id":1631357,"type":"administrative","location":[19.469864573972497,44.83610815],"bbox":[19.2942811,44.7304837,19.6749099,44.9416892],"inferred_type":"city"}
{"name":"Општина Бојник","other_names":{"name:en":"Bojnik Municipality","name:sr":"Општина Бојник","int_name":"Opstina Bojnik","name:sr-Latn":"Opština Bojnik"},"display_name":"Општина Бојник, Јабланички управни округ, Централна Србија, Србија","address":{"city":"Општина Бојник","county":"Јабланички управни округ","ISO3166-2-lvl6":"RS-23","state":"Централна Србија","country":"Србија","country_code":"rs"},"population":9315,"osm_type":"relation","osm_id":2860304,"type":"administrative","location":[21.680467244336178,43.034626349999996],"bbox":[21.4854672,42.9539498,21.8422769,43.1152557],"inferred_type":"city"}
{"name":"Општина Бољевац","other_names":{"name:en":"Boljevac Municipality","name:sr":"Општина Бољевац","int_name":"Opstina Boljevac","name:sr-Latn":"Opština Boljevac"},"display_name":"Општина Бољевац, Зајечарски управни округ, Централна Србија, Србија","address":{"city":"Општина Бољевац","county":"Зајечарски управни округ","ISO3166-2-lvl6":"RS-15","state":"Централна Србија","country":"Србија","country_code":"rs"},"population":10184,"osm_type":"relation","osm_id":2869100,"type":"administrative","location":[21.90200557640152,43.867449449999995],"bbox":[21.6527666,43.7089036,22.1327284,44.0259878],"inferred_type":"city"}
{"name":"Општина Босилеград","other_names":{"name:bg":"Община Босилеград","name:el":"Δήμος Μποσίλεγκραντ","name:en":"Bosilegrad Municipality","name:mk":"Општина Босилеград","name:sr":"Општина Босилеград","int_name":"Opstina Bosilegrad","name:sr-Latn":"Opština Bosilegrad"},"display_name":"Општина Босилеград, Пчињски управни округ, Централна Србија, 17540, Србија","address":{"city":"Општина Босилеград","county":"Пчињски управни округ","ISO3166-2-lvl6":"RS-24","state":"Централна Србија","postcode":"17540","country":"Србија","country_code":"rs"},"population":6065,"osm_type":"relation","osm_id":2190386,"type":"administrative","location":[22.39752253325382,42.461576949999994],"bbox":[22.2082222,42.3110963,22.559255,42.6122744],"inferred_type":"city"}
{"name":"Општина Брус","other_names":{"name:en":"Brus Municipality","name:sr":"Општина Брус","int_name":"Opstina Brus","name:sr-Latn":"Opština Brus"},"display_name":"Општина Брус, Расински управни округ, Централна Србија, Србија","address":{"city":"Општина Брус","county":"Расински управни округ","ISO3166-2-lvl6":"RS-19","state":"Централна Србија","country":"Србија","country_code":"rs"},"population":13594,"osm_type":"relation","osm_id":2867200,"type":"administrative","location":[20.996704963012924,43.3014041],"bbox":[20.8190705,43.1460772,21.2241535,43.4567257],"inferred_type":"city"}
{"name":"Општина Бујановац","other_names":{"name:de":"Gemeinde Bujanovac","name:en":"Bujanovac Municipality","name:sq":"Komuna e Bujanocit","name:sr":"Општина Бујановац","int_name":"Opstina Bujanovac","name:sr-Latn":"Opština Bujanovac"},"display_name":"Општина Бујановац, Пчињски управни округ, Централна Србија, Србија","address":{"city":"Општина Бујановац","county":"Пчињски управни округ","ISO3166-2-lvl6":"RS-24","state":"Централна Србија","country":"Србија","country_code":"rs"},"population":41068,"osm_type":"relation","osm_id":1629999,"type":"administrative","location":[21.742292380793256,42.4764032],"bbox":[21.6223876,42.3002148,21.956664,42.6525743],"inferred_type":"city"}
{"name":"Општина Варварин","other_names":{"name:en":"Varvarin Municipality","name:sr":"Општина Варварин","int_name":"Opstina Varvarin","name:sr-Latn":"Opština Varvarin"},"display_name":"Општина Варварин, Расински управни округ, Централна Србија, Србија","address":{"city":"Општина Варварин","county":"Расински управни округ","ISO3166-2-lvl6":"RS-19","state":"Централна Србија","country":"Србија","country_code":"rs"},"population":14217,"osm_type":"relation","osm_id":2867203,"type":"administrative","location":[21.276145465351544,43.7459558],"bbox":[21.1224919,43.6374322,21.4250784,43.8544866],"inferred_type":"city"}
{"name":"Општина Велика Плана","other_names":{"name:en":"Velika Plana Municipality","name:sr":"Општина Велика Плана","int_name":"Opstina Velika Plana","name:sr-Latn":"Opština Velika Plana"},"display_name":"Општина Велика Плана, Подунавски управни округ, Централна Србија, Србија","address":{"city":"Општина Велика Плана","county":"Подунавски управни округ","ISO3166-2-lvl6":"RS-10","state":"Централна Србија","country":"Србија","country_code":"rs"},"population":35451,"osm_type":"relation","osm_id":2869910,"type":"administrative","location":[21.104155588773622,44.3615226],"bbox":[20.9730813,44.207928,21.1774959,44.5152399],"inferred_type":"city"}
{"name":"Општина Велико Градиште","other_names":{"name:en":"Veliko Gradiste Municipality","name:sr":"Општина Велико Градиште","int_name":"Opstina Veliko Gradiste","name:sr-Latn":"Opština Veliko Gradište"},"display_name":"Општина Велико Градиште, Браничевски управни округ, Централна Србија, Србија","address":{"city":"Општина Велико Градиште","county":"Браничевски управни округ","ISO3166-2-lvl6":"RS-11","state":"Централна Србија","country":"Србија","country_code":"rs"},"population":15455,"osm_type":"relation","osm_id":2870060,"type":"administrative","location":[21.397536644823028,44.685338099999996],"bbox":[21.2716911,44.5481178,21.6071347,44.8225347],"inferred_type":"city"}
{"name":"Општина Владимирци","other_names":{"name:en":"Vladimirci Municipality","name:sr":"Општина Владимирци","int_name":"Opstina Vladimirci","name:sr-Latn":"Opština Vladimirci"},"display_name":"Општина Владимирци, Мачвански управни округ, Централна Србија, Србија","address":{"city":"Општина Владимирци","county":"Мачвански управни округ","ISO3166-2-lvl6":"RS-08","state":"Централна Србија","country":"Србија","country_code":"rs"},"population":14427,"osm_type":"relation","osm_id":1764881,"type":"administrative","location":[19.837267353252034,44.6088635],"bbox":[19.638297,44.5004531,20.0004584,44.7172751],"inferred_type":"city"}
{"name":"Општина Владичин Хан","other_names":{"name:en":"Vladicin Han Municipality","name:sr":"Општина Владичин Хан","int_name":"Opstina Vladicin Han","name:sr-Latn":"Opština Vladičin Han"},"display_name":"Општина Владичин Хан, Пчињски управни округ, Централна Србија, 17510, Србија","address":{"city":"Општина Владичин Хан","county":"Пчињски управни округ","ISO3166-2-lvl6":"RS-24","state":"Централна Србија","postcode":"17510","country":"Србија","country_code":"rs"},"population":17532,"osm_type":"relation","osm_id":2190517,"type":"administrative","location":[22.029926393991182,42.70617095],"bbox":[21.9152921,42.5794626,22.2179276,42.8328181],"inferred_type":"city"}
{"name":"Општина Власотинце","other_names":{"name:en":"Vlasotince Municipality","name:sr":"Општина Власотинце","int_name":"Opstina Vlasotince","name:sr-Latn":"Opština Vlasotince"},"display_name":"Општина Власотинце, Јабланички управни округ, Централна Србија, Србија","address":{"city":"Општина Власотинце","county":"Јабланички управни округ","ISO3166-2-lvl6":"RS-23","state":"Централна Србија","country":"Србија","country_code":"rs"},"population":25695,"osm_type":"relation","osm_id":2860204,"type":"administrative","location":[22.176236716753774,42.98304865],"bbox":[22.0358582,42.8859262,22.3902834,43.0801057],"inferred_type":"city"}
{"name":"Општина Врбас","other_names":{"name:de":"Gemeinde Werbass","name:en":"Vrbas Municipality","name:hr":"Općina Vrbas","name:hu":"Verbász község","name:sr":"Општина Врбас","int_name":"Opstina Vrbas","name:sr-Latn":"Opština Vrbas"},"display_name":"Општина Врбас, Јужнобачки управни округ, Војводина, Србија","address":{"city":"Општина Врбас","county":"Јужнобачки управни округ","ISO3166-2-lvl6":"RS-06","state":"Војводина","ISO3166-2-lvl4":"RS-VO","country":"Србија","country_code":"rs"},"population":36601,"osm_type":"relation","osm_id":1649680,"type":"administrative","location":[19.607347624696633,45.5252019],"bbox":[19.4124706,45.4022597,19.7791233,45.6480991],"inferred_type":"city"}
{"name":"Општина Врњачка Бања","other_names":{"name:en":"Vrnjacka Banja Municipality","name:sr":"Општина Врњачка Бања","int_name":"Opstina Vrnjacka Banja","name:sr-Latn":"Opština Vrnjačka Banja"},"display_name":"Општина Врњачка Бања, Рашки управни округ, Централна Србија, Србија","address":{"city":"Општина Врњачка Бања","county":"Рашки управни округ","ISO3166-2-lvl6":"RS-18","state":"Централна Србија","country":"Србија","country_code":"rs"},"population":25065,"osm_type":"relation","osm_id":2867386,"type":"administrative","location":[20.844522158095366,43.6108115],"bbox":[20.7348854,43.5128777,20.9667484,43.7086659],"inferred_type":"city"}
{"name":"Општина Гаџин Хан","other_names":{"name:en":"Gadzin Han Municipality","name:sr":"Општина Гаџин Хан","int_name":"Opstina Gadzin Han","name:sr-Latn":"Opština Gadžin Han"},"display_name":"Општина Гаџин Хан, Нишавски управни округ, Централна Србија, Србија","address":{"city":"Општина Гаџин Хан","county":"Нишавски управни округ","ISO3166-2-lvl6":"RS-20","state":"Централна Србија","country":"Србија","country_code":"rs"},"population":5850,"osm_type":"relation","osm_id":2867624,"type":"administrative","location":[22.122755847164186,43.16162075],"bbox":[21.9003287,43.0618295,22.2897924,43.2613568],"inferred_type":"city"}
{"name":"Општина Голубац","other_names":{"name:en":"Golubac Municipality","name:sr":"Општина Голубац","int_name":"Opstina Golubac","name:sr-Latn":"Opština Golubac"},"display_name":"Општина Голубац, Браничевски управни округ, Централна Србија, Србија","address":{"city":"Општина Голубац","county":"Браничевски управни округ","ISO3166-2-lvl6":"RS-11","state":"Централна Србија","country":"Србија","country_code":"rs"},"population":6599,"osm_type":"relation","osm_id":2870056,"type":"administrative","location":[21.72486444361546,44.63719475],"bbox":[21.4951641,44.5396121,22.0123596,44.7351027],"inferred_type":"city"}
{"name":"Општина Горњи Милановац","other_names":{"name:en":"Gornji Milanovac Municipality","name:sr":"Општина Горњи Милановац","int_name":"Opstina Gornji Milanovac","name:sr-Latn":"Opština Gornji Milanovac"},"display_name":"Општина Горњи Милановац, Моравички управни округ, Централна Србија, Србија","address":{"city":"Општина Горњи Милановац","county":"Моравички управни округ","ISO3166-2-lvl6":"RS-17","state":"Централна Србија","country":"Србија","country_code":"rs"},"population":38985,"osm_type":"relation","osm_id":2870954,"type":"administrative","location":[20.350411101235046,44.10666395],"bbox":[20.0676862,43.9450882,20.6536227,44.2682921],"inferred_type":"city"}
{"name":"Општина Деспотовац","other_names":{"name:en":"Despotovac Municipality","name:sr":"Општина Деспотовац","int_name":"Opstina Despotovac","name:sr-Latn":"Opština Despotovac"},"display_name":"Општина Деспотовац, Поморавски управни округ, Централна Србија, Србија","address":{"city":"Општина Деспотовац","county":"Поморавски управни округ","ISO3166-2-lvl6":"RS-13","state":"Централна Србија","country":"Србија","country_code":"rs"},"population":18278,"osm_type":"relation","osm_id":2869335,"type":"administrative","location":[21.56154992533655,44.0876916],"bbox":[21.2538192,43.9569309,21.8225033,44.2184078],"inferred_type":"city"}
{"name":"Општина Димитровград","other_names":{"name:en":"Dimitrovgrad Municipality","name:ru":"община Димитровград","name:sr":"Општина Димитровград","int_name":"Opstina Dimitrovgrad","name:sr-Latn":"Opština Dimitrovgrad"},"display_name":"Општина Димитровград, Пиротски управни округ, Централна Србија, Србија","address":{"city":"Општина Димитровград","county":"Пиротски управни округ","ISO3166-2-lvl6":"RS-22","state":"Централна Србија","country":"Србија","country_code":"rs"},"population":8043,"osm_type":"relation","osm_id":2860574,"type":"administrative","location":[22.819209335550088,43.04352265],"bbox":[22.5223435,42.8655219,23.006309,43.2214943],"inferred_type":"city"}
{"name":"Општина Дољевац","other_names":{"name:en":"Doljevac Municipality","name:sr":"Општина Дољевац","int_name":"Opstina Doljevac","name:sr-Latn":"Opština Doljevac"},"display_name":"Општина Дољевац, Нишавски управни округ, Централна Србија, 18410, Србија","address":{"city":"Општина Дољевац","county":"Нишавски управни округ","ISO3166-2-lvl6":"RS-20","state":"Централна Србија","postcode":"18410","country":"Србија","country_code":"rs"},"population":15837,"osm_type":"relation","osm_id":2867623,"type":"administrative","location":[21.847938647065217,43.21830775],"bbox":[21.7740595,43.1495707,21.9202859,43.2870375],"inferred_type":"city"}
{"name":"Општина Жабаљ","other_names":{"name:hu":"Zsablya község","name:sr":"Општина Жабаљ","int_name":"Opstina Zabalj","name:sr-Latn":"Opština Žabalj"},"display_name":"Општина Жабаљ, Јужнобачки управни округ, Војводина, Србија","address":{"city":"Општина Жабаљ","county":"Јужнобачки управни округ","ISO3166-2-lvl6":"RS-06","state":"Војводина","ISO3166-2-lvl4":"RS-VO","country":"Србија","country_code":"rs"},"population":23853,"osm_type":"relation","osm_id":1649681,"type":"administrative","location":[20.083441136517287,45.4094575],"bbox":[19.9201822,45.2956031,20.2508396,45.5236099],"inferred_type":"city"}
{"name":"Општина Жабари","other_names":{"name:en":"Zabari Municipality","name:sr":"Општина Жабари","int_name":"Opstina Zabari","name:sr-Latn":"Opština Žabari"},"display_name":"Општина Жабари, Браничевски управни округ, Централна Србија, Србија","address":{"city":"Општина Жабари","county":"Браничевски управни округ","ISO3166-2-lvl6":"RS-11","state":"Централна Србија","country":"Србија","country_code":"rs"},"population":9261,"osm_type":"relation","osm_id":2869911,"type":"administrative","location":[21.214286382576873,44.387118],"bbox":[21.1191293,44.2601804,21.3163055,44.5141002],"inferred_type":"city"}
{"name":"Општина Жагубица","other_names":{"name:en":"Zagubica Municipality","name:sr":"Општина Жагубица","int_name":"Opstina Zagubica","name:sr-Latn":"Opština Žagubica"},"display_name":"Општина Жагубица, Браничевски управни округ, Централна Србија, Србија","address":{"city":"Општина Жагубица","county":"Браничевски управни округ","ISO3166-2-lvl6":"RS-11","state":"Централна Србија","country":"Србија","country_code":"rs"},"population":9712,"osm_type":"relation","osm_id":2869912,"type":"administrative","location":[21.746927589217613,44.22139525],"bbox":[21.4959243,44.0824986,21.9703063,44.3602483],"inferred_type":"city"}
{"name":"Општина Житиште","other_names":{"name:en":"Zitiste Municipality","name:hu":"Bégaszentgyörgy község","name:sr":"Општина Житиште","int_name":"Opstina Zitiste","name:sr-Latn":"Opština Žitište"},"display_name":"Општина Житиште, Средњобанатски управни округ, Војводина, Србија","address":{"city":"Општина Житиште","county":"Средњобанатски управни округ","ISO3166-2-lvl6":"RS-02","state":"Војводина","ISO3166-2-lvl4":"RS-VO","country":"Србија","country_code":"rs"},"population":13412,"osm_type":"relation","osm_id":1639825,"type":"administrative","location":[20.635121764568858,45.544729950000004],"bbox":[20.3944466,45.4013075,20.8325729,45.6887317],"inferred_type":"city"}
{"name":"Општина Житорађа","other_names":{"name:en":"Zitoradja Municipality","name:sr":"Општина Житорађа","int_name":"Opstina Zitoradja","name:sr-Latn":"Opština Žitorađa"},"display_name":"Општина Житорађа, Топлички управни округ, Централна Србија, Србија","address":{"city":"Општина Житорађа","county":"Топлички управни округ","ISO3166-2-lvl6":"RS-21","state":"Централна Србија","country":"Србија","country_code":"rs"},"population":13782,"osm_type":"relation","osm_id":2862820,"type":"administrative","location":[21.72725793226572,43.1691602],"bbox":[21.6205755,43.0700328,21.8207692,43.2683069],"inferred_type":"city"}
{"name":"Општина Ивањица","other_names":{"name:en":"Ivanjica Municipality","name:sr":"Општина Ивањица","int_name":"Opstina Ivanjica","name:sr-Latn":"Opština Ivanjica"},"display_name":"Општина Ивањица, Моравички управни округ, Централна Србија, 32250, Србија","address":{"city":"Општина Ивањица","county":"Моравички управни округ","ISO3166-2-lvl6":"RS-17","state":"Централна Србија","postcode":"32250","country":"Србија","country_code":"rs"},"population":27751,"osm_type":"relation","osm_id":2870955,"type":"administrative","location":[20.23146154192822,43.474810149999996],"bbox":[19.9160042,43.2759689,20.4446275,43.673701],"inferred_type":"city"}
{"name":"Општина Инђија","other_names":{"name:de":"Gemeinde India","name:en":"Indjija Municipality","name:hu":"Ingyia község","name:sr":"Општина Инђија","int_name":"Opstina Indjija","name:sr-Latn":"Opština Inđija"},"display_name":"Општина Инђија, Сремски управни округ, Војводина, Србија","address":{"city":"Општина Инђија","county":"Сремски управни округ","ISO3166-2-lvl6":"RS-07","state":"Војводина","ISO3166-2-lvl4":"RS-VO","country":"Србија","country_code":"rs"},"population":43443,"osm_type":"relation","osm_id":1635715,"type":"administrative","location":[20.13326652764505,45.10301],"bbox":[19.9408961,45.0007297,20.2997329,45.2051232],"inferred_type":"city"}
{"name":"Општина Ириг","other_names":{"name:en":"Irig Municipality","name:hu":"Ürög község","name:sr":"Општина Ириг","int_name":"Opstina Irig","name:sr-Latn":"Opština Irig"},"display_name":"Општина Ириг, Сремски управни округ, Војводина, Србија","address":{"city":"Општина Ириг","county":"Сремски управни округ","ISO3166-2-lvl6":"RS-07","state":"Војводина","ISO3166-2-lvl4":"RS-VO","country":"Србија","country_code":"rs"},"population":9290,"osm_type":"relation","osm_id":1635716,"type":"administrative","location":[19.858427334920794,45.08940705],"bbox":[19.7138626,45.0108782,20.0068309,45.1613786],"inferred_type":"city"}
{"name":"Општина Кањижа","other_names":{"name:en":"Kanjiza Municipality","name:hu":"Magyarkanizsa község","name:sr":"Општина Кањижа","int_name":"Opstina Kanjiza","name:sr-Latn":"Opština Kanjiža"},"display_name":"Општина Кањижа, Севернобанатски управни округ, Војводина, Србија","address":{"city":"Општина Кањижа","county":"Севернобанатски управни округ","ISO3166-2-lvl6":"RS-03","state":"Војводина","ISO3166-2-lvl4":"RS-VO","country":"Србија","country_code":"rs"},"population":20141,"osm_type":"relation","osm_id":1279955,"type":"administrative","location":[19.977916810191402,46.052363150000005],"bbox":[19.8098967,45.9270406,20.0894801,46.176777],"inferred_type":"city"}
{"name":"Општина Кладово","other_names":{"name:en":"Kladovo Municipality","name:sr":"Општина Кладово","int_name":"Opstina Kladovo","name:sr-Latn":"Opština Kladovo"},"display_name":"Општина Кладово, Борски управни округ, Централна Србија, 19320, Србија","address":{"city":"Општина Кладово","county":"Борски управни округ","ISO3166-2-lvl6":"RS-14","state":"Централна Србија","postcode":"19320","country":"Србија","country_code":"rs"},"population":17435,"osm_type":"relation","osm_id":1708279,"type":"administrative","location":[22.553530912128096,44.568656649999994],"bbox":[22.2693941,44.4220276,22.7641118,44.7152413],"inferred_type":"city"}
{"name":"Општина Књажевац","other_names":{"name:en":"Knjazevac Municipality","name:sr":"Општина Књажевац","int_name":"Opstina Knjazevac","name:sr-Latn":"Opština Knjaževac"},"display_name":"Општина Књажевац, Зајечарски управни округ, Централна Србија, 19350, Србија","address":{"city":"Општина Књажевац","county":"Зајечарски управни округ","ISO3166-2-lvl6":"RS-15","state":"Централна Србија","postcode":"19350","country":"Србија","country_code":"rs"},"population":25341,"osm_type":"relation","osm_id":2869101,"type":"administrative","location":[22.264693820586174,43.528701350000006],"bbox":[21.9941629,43.3252682,22.6677549,43.732243],"inferred_type":"city"}
{"name":"Општина Ковачица","other_names":{"name:en":"Kovacica Municipality","name:hu":"Antalfalva község","name:sr":"Општина Ковачица","int_name":"Opstina Kovacica","name:sr-Latn":"Opština Kovačica"},"display_name":"Општина Ковачица, Јужнобанатски управни округ, Војводина, Србија","address":{"city":"Општина Ковачица","county":"Јужнобанатски управни округ","ISO3166-2-lvl6":"RS-04","state":"Војводина","ISO3166-2-lvl4":"RS-VO","country":"Србија","country_code":"rs"},"population":21178,"osm_type":"relation","osm_id":1639499,"type":"administrative","location":[20.70368242254463,45.1051041],"bbox":[20.4763708,44.9722763,20.8369207,45.2381165],"inferred_type":"city"}
{"name":"Општина Ковин","other_names":{"name:en":"Kovin Municipality","name:hu":"Kevevára község","name:sr":"Општина Ковин","int_name":"Opstina Kovin","name:sr-Latn":"Opština Kovin"},"display_name":"Општина Ковин, Јужнобанатски управни округ, Војводина, Србија","address":{"city":"Општина Ковин","county":"Јужнобанатски управни округ","ISO3166-2-lvl6":"RS-04","state":"Војводина","ISO3166-2-lvl4":"RS-VO","country":"Србија","country_code":"rs"},"population":28141,"osm_type":"relation","osm_id":1639500,"type":"administrative","location":[21.045884213100585,44.83916855],"bbox":[20.7933971,44.6574053,21.2877142,45.0206245],"inferred_type":"city"}
{"name":"Општина Косјерић","other_names":{"name:en":"Kosjeric Municipality","name:sr":"Општина Косјерић","int_name":"Opstina Kosjeric","name:cnr":"Opština Kośerić","name:sr-Latn":"Opština Kosjerić","name:cnr-Cyrl":"Општина Кос́ерић"},"display_name":"Општина Косјерић, Златиборски управни округ, Централна Србија, 31260, Србија","address":{"city":"Општина Косјерић","county":"Златиборски управни округ","ISO3166-2-lvl6":"RS-16","state":"Централна Србија","postcode":"31260","country":"Србија","country_code":"rs"},"population":10175,"osm_type":"relation","osm_id":2872867,"type":"administrative","location":[19.847028783843392,44.051581850000005],"bbox":[19.6876043,43.9473066,20.022825,44.1558551],"inferred_type":"city"}
{"name":"Општина Коцељева","other_names":{"name:en":"Koceljeva Municipality","name:sr":"Општина Коцељева","int_name":"Opstina Koceljeva","name:sr-Latn":"Opština Koceljeva"},"display_name":"Општина Коцељева, Мачвански управни округ, Централна Србија, Србија","address":{"city":"Општина Коцељева","county":"Мачвански управни округ","ISO3166-2-lvl6":"RS-08","state":"Централна Србија","country":"Србија","country_code":"rs"},"population":11148,"osm_type":"relation","osm_id":1765234,"type":"administrative","location":[19.750963356736662,44.487606850000006],"bbox":[19.5677392,44.4050561,19.8948488,44.5701578],"inferred_type":"city"}
{"name":"Општина Крупањ","other_names":{"name:en":"Krupanj Municipality","name:sr":"Општина Крупањ","int_name":"Opstina Krupanj","name:sr-Latn":"Opština Krupanj"},"display_name":"Општина Крупањ, Мачвански управни округ, Централна Србија, Србија","address":{"city":"Општина Крупањ","county":"Мачвански управни округ","ISO3166-2-lvl6":"RS-08","state":"Централна Србија","country":"Србија","country_code":"rs"},"population":14399,"osm_type":"relation","osm_id":1765276,"type":"administrative","location":[19.367548515458093,44.37573625],"bbox":[19.2111647,44.2657319,19.579032,44.4857015],"inferred_type":"city"}
{"name":"Општина Кула","other_names":{"name:en":"Kula Municipality","name:hr":"Općina Kula","name:hu":"Kula község","name:sr":"Општина Кула","int_name":"Opstina Kula","name:sr-Latn":"Opština Kula"},"display_name":"Општина Кула, Западнобачки управни округ, Војводина, Србија","address":{"city":"Општина Кула","county":"Западнобачки управни округ","ISO3166-2-lvl6":"RS-05","state":"Војводина","ISO3166-2-lvl4":"RS-VO","country":"Србија","country_code":"rs"},"population":35592,"osm_type":"relation","osm_id":1639909,"type":"administrative","location":[19.476814680676725,45.6599895],"bbox":[19.2696805,45.5244739,19.627704,45.7950316],"inferred_type":"city"}
{"name":"Општина Куршумлија","other_names":{"name:el":"Δήμος Κουρσούμλια","name:en":"Kursumlija Municipality","name:sr":"Општина Куршумлија","int_name":"Opstina Kursumlija","name:sr-Latn":"Opština Kuršumlija"},"display_name":"Општина Куршумлија, Топлички управни округ, Централна Србија, Србија","address":{"city":"Општина Куршумлија","county":"Топлички управни округ","ISO3166-2-lvl6":"RS-21","state":"Централна Србија","country":"Србија","country_code":"rs"},"population":15823,"osm_type":"relation","osm_id":2863768,"type":"administrative","location":[21.26869161013756,43.0704651],"bbox":[20.9234356,42.8665335,21.4854672,43.2742488],"inferred_type":"city"}
{"name":"Општина Кучево","other_names":{"name:en":"Kucevo Municipality","name:sr":"Општина Кучево","int_name":"Opstina Kucevo","name:sr-Latn":"Opština Kučevo"},"display_name":"Општина Кучево, Браничевски управни округ, Централна Србија, Србија","address":{"city":"Општина Кучево","county":"Браничевски управни округ","ISO3166-2-lvl6":"RS-11","state":"Централна Србија","country":"Србија","country_code":"rs"},"population":11806,"osm_type":"relation","osm_id":2870057,"type":"administrative","location":[21.751058178645344,44.46830855],"bbox":[21.4715396,44.3153431,21.9495332,44.6212725],"inferred_type":"city"}
{"name":"Општина Лајковац","other_names":{"name:en":"Lajkovac Municipality","name:sr":"Општина Лајковац","int_name":"Opstina Lajkovac","name:sr-Latn":"Opština Lajkovac"},"display_name":"Општина Лајковац, Колубарски управни округ, Централна Србија, Србија","address":{"city":"Општина Лајковац","county":"Колубарски управни округ","ISO3166-2-lvl6":"RS-09","state":"Централна Србија","country":"Србија","country_code":"rs"},"population":13825,"osm_type":"relation","osm_id":2871514,"type":"administrative","location":[20.128677935356755,44.38304655],"bbox":[20.0482734,44.2699508,20.2480472,44.4961147],"inferred_type":"city"}
{"name":"Општина Лапово","other_names":{"name:en":"Lapovo Municipality","name:sr":"Општина Лапово","int_name":"Opstina Lapovo","name:sr-Latn":"Opština Lapovo"},"display_name":"Општина Лапово, Шумадијски управни округ, Централна Србија, 34220, Србија","address":{"city":"Општина Лапово","county":"Шумадијски управни округ","ISO3166-2-lvl6":"RS-12","state":"Централна Србија","postcode":"34220","country":"Србија","country_code":"rs"},"population":6582,"osm_type":"relation","osm_id":2870904,"type":"administrative","location":[21.099400945845716,44.1847146],"bbox":[21.0121708,44.1444729,21.1467575,44.2249632],"inferred_type":"city"}
{"name":"Општина Лебане","other_names":{"name:en":"Lebane Municipality","name:sr":"Општина Лебане","int_name":"Opstina Lebane","name:sr-Latn":"Opština Lebane"},"display_name":"Општина Лебане, Јабланички управни округ, Централна Србија, 16230, Србија","address":{"city":"Општина Лебане","county":"Јабланички управни округ","ISO3166-2-lvl6":"RS-23","state":"Централна Србија","postcode":"16230","country":"Србија","country_code":"rs"},"population":18119,"osm_type":"relation","osm_id":2860305,"type":"administrative","location":[21.72520356110498,42.84219525],"bbox":[21.5494077,42.6908128,21.8926434,42.993521],"inferred_type":"city"}
{"name":"Општина Лучани","other_names":{"name:en":"Lucani Municipality","name:sr":"Општина Лучани","int_name":"Opstina Lucani","name:sr-Latn":"Opština Lučani"},"display_name":"Општина Лучани, Моравички управни округ, Централна Србија, Србија","address":{"city":"Општина Лучани","county":"Моравички управни округ","ISO3166-2-lvl6":"RS-17","state":"Централна Србија","country":"Србија","country_code":"rs"},"population":16933,"osm_type":"relation","osm_id":2870956,"type":"administrative","location":[20.265016987909895,43.76248055],"bbox":[20.1078432,43.6193589,20.4508924,43.9055682],"inferred_type":"city"}
{"name":"Општина Љиг","other_names":{"name:en":"Ljig Municipality","name:sr":"Општина Љиг","int_name":"Opstina Ljig","name:sr-Latn":"Opština Ljig"},"display_name":"Општина Љиг, Колубарски управни округ, Централна Србија, 14240, Србија","address":{"city":"Општина Љиг","county":"Колубарски управни округ","ISO3166-2-lvl6":"RS-09","state":"Централна Србија","postcode":"14240","country":"Србија","country_code":"rs"},"population":10711,"osm_type":"relation","osm_id":2871515,"type":"administrative","location":[20.28512657168703,44.220530749999995],"bbox":[20.1390341,44.119278,20.4370579,44.3219549],"inferred_type":"city"}
{"name":"Општина Љубовија","other_names":{"name:de":"Gemeinde Ljubovija","name:en":"Ljubovija Municipality","name:sr":"Општина Љубовија","int_name":"Opstina Ljubovija","name:sr-Latn":"Opština Ljubovija"},"display_name":"Општина Љубовија, Мачвански управни округ, Централна Србија, Србија","address":{"city":"Општина Љубовија","county":"Мачвански управни округ","ISO3166-2-lvl6":"RS-08","state":"Централна Србија","country":"Србија","country_code":"rs"},"population":12168,"osm_type":"relation","osm_id":1765277,"type":"administrative","location":[19.465717244059142,44.221731649999995],"bbox":[19.2426421,44.099035,19.6440897,44.3443595],"inferred_type":"city"}
{"name":"Општина Мајданпек","other_names":{"name:en":"Majdanpek Municipality","name:sr":"Општина Мајданпек","int_name":"Opstina Majdanpek","name:sr-Latn":"Opština Majdanpek"},"display_name":"Општина Мајданпек, Борски управни округ, Централна Србија, 19250, Србија","address":{"city":"Општина Мајданпек","county":"Борски управни округ","ISO3166-2-lvl6":"RS-14","state":"Централна Србија","postcode":"19250","country":"Србија","country_code":"rs"},"population":14559,"osm_type":"relation","osm_id":1708280,"type":"administrative","location":[22.031578526369394,44.4043505],"bbox":[21.8002206,44.2006173,22.357124,44.6081566],"inferred_type":"city"}
{"name":"Општина Мали Зворник","other_names":{"name:de":"Gemeinde Mali Zvornik","name:en":"Mali Zvornik Municipality","name:sr":"Општина Мали Зворник","int_name":"Opstina Mali Zvornik","name:sr-Latn":"Opština Mali Zvornik"},"display_name":"Општина Мали Зворник, Мачвански управни округ, Централна Србија, Србија","address":{"city":"Општина Мали Зворник","county":"Мачвански управни округ","ISO3166-2-lvl6":"RS-08","state":"Централна Србија","country":"Србија","country_code":"rs"},"population":11219,"osm_type":"relation","osm_id":3129939,"type":"administrative","location":[19.157420780662427,44.3754211],"bbox":[19.1025923,44.2616412,19.2909748,44.4891849],"inferred_type":"city"}
{"name":"Општина Мали Иђош","other_names":{"name:en":"Mali Idjos Municipality","name:hr":"Općina Mali Iđoš","name:hu":"Kishegyes község","name:sr":"Општина Мали Иђош","name:zh":"小伊焦什市鎮","int_name":"Opstina Mali Idjos","name:cnr":"Opština Mali Iđoš","name:sr-Latn":"Opština Mali Iđoš","name:zh-Hans":"小伊焦什市镇","name:zh-Hant":"小伊焦什市鎮","name:cnr-Cyrl":"Општина Мали Иђош"},"display_name":"Општина Мали Иђош, Севернобачки управни округ, Војводина, Србија","address":{"city":"Општина Мали Иђош","county":"Севернобачки управни округ","ISO3166-2-lvl6":"RS-01","state":"Војводина","ISO3166-2-lvl4":"RS-VO","country":"Србија","country_code":"rs"},"population":9983,"osm_type":"relation","osm_id":1639629,"type":"administrative","location":[19.686356278363277,45.68774635],"bbox":[19.5716562,45.6121993,19.7824442,45.7646211],"inferred_type":"city"}
{"name":"Општина Мало Црниће","other_names":{"name:en":"Malo Crnice Municipality","name:sr":"Општина Мало Црниће","int_name":"Opstina Malo Crnice","name:sr-Latn":"Opština Malo Crniće"},"display_name":"Општина Мало Црниће, Браничевски управни округ, Централна Србија, Србија","address":{"city":"Општина Мало Црниће","county":"Браничевски управни округ","ISO3166-2-lvl6":"RS-11","state":"Централна Србија","country":"Србија","country_code":"rs"},"population":8986,"osm_type":"relation","osm_id":2870058,"type":"administrative","location":[21.34434759375111,44.5487234],"bbox":[21.2112318,44.4532476,21.513247,44.6441774],"inferred_type":"city"}
{"name":"Општина Медвеђа","other_names":{"name:en":"Medvedja Municipality","name:sq":"Komuna e Medvegjёs","name:sr":"Општина Медвеђа","int_name":"Opstina Medvedja","name:sr-Latn":"Opština Medveđa"},"display_name":"Општина Медвеђа, Јабланички управни округ, Централна Србија, 16240, Србија","address":{"city":"Општина Медвеђа","county":"Јабланички управни округ","ISO3166-2-lvl6":"RS-23","state":"Централна Србија","postcode":"16240","country":"Србија","country_code":"rs"},"population":6360,"osm_type":"relation","osm_id":2860306,"type":"administrative","location":[21.552494126853993,42.832236699999996],"bbox":[21.3887578,42.6654699,21.7031843,42.9990468],"inferred_type":"city"}
{"name":"Општина Мерошина","other_names":{"name:en":"Merosina Municipality","name:sr":"Општина Мерошина","int_name":"Opstina Merosina","name:sr-Latn":"Opština Merošina"},"display_name":"Општина Мерошина, Нишавски управни округ, Централна Србија, 18252, Србија","address":{"city":"Општина Мерошина","county":"Нишавски управни округ","ISO3166-2-lvl6":"RS-20","state":"Централна Србија","postcode":"18252","country":"Србија","country_code":"rs"},"population":11873,"osm_type":"relation","osm_id":2867625,"type":"administrative","location":[21.674431713247465,43.30485065],"bbox":[21.5854427,43.2187808,21.8394609,43.3909574],"inferred_type":"city"}
{"name":"Општина Мионица","other_names":{"name:en":"Mionica Municipality","name:sr":"Општина Мионица","int_name":"Opstina Mionica","name:sr-Latn":"Opština Mionica"},"display_name":"Општина Мионица, Колубарски управни округ, Централна Србија, Србија","address":{"city":"Општина Мионица","county":"Колубарски управни округ","ISO3166-2-lvl6":"RS-09","state":"Централна Србија","country":"Србија","country_code":"rs"},"population":12061,"osm_type":"relation","osm_id":2871516,"type":"administrative","location":[20.070339353015832,44.20938625],"bbox":[19.9367836,44.0948707,20.2066433,44.3238595],"inferred_type":"city"}
{"name":"Општина Неготин","other_names":{"name:en":"Negotin Municipality","name:sr":"Општина Неготин","int_name":"Opstina Negotin","name:sr-Latn":"Opština Negotin"},"display_name":"Општина Неготин, Борски управни округ, Централна Србија, Србија","address":{"city":"Општина Неготин","county":"Борски управни округ","ISO3166-2-lvl6":"RS-14","state":"Централна Србија","country":"Србија","country_code":"rs"},"population":28261,"osm_type":"relation","osm_id":1706478,"type":"administrative","location":[22.4431568899532,44.255884699999996],"bbox":[22.1912806,44.0298136,22.6854881,44.4819455],"inferred_type":"city"}
{"name":"Општина Нова Варош","other_names":{"name:en":"Nova Varos Municipality","name:sr":"Општина Нова Варош","int_name":"Opstina Nova Varos","name:sr-Latn":"Opština Nova Varoš"},"display_name":"Општина Нова Варош, Златиборски управни округ, Централна Србија, 31320, Србија","address":{"city":"Општина Нова Варош","county":"Златиборски управни округ","ISO3166-2-lvl6":"RS-16","state":"Централна Србија","postcode":"31320","country":"Србија","country_code":"rs"},"population":13507,"osm_type":"relation","osm_id":2872868,"type":"administrative","location":[19.830850402006398,43.490724549999996],"bbox":[19.6331163,43.3431152,20.0627208,43.638142],"inferred_type":"city"}
{"name":"Општина Нова Црња","other_names":{"name:en":"Nova Crnja Municipality","name:hu":"Magyarcsernye község","name:sr":"Општина Нова Црња","int_name":"Opstina Nova Crnja","name:sr-Latn":"Opština Nova Crnja"},"display_name":"Општина Нова Црња, Средњобанатски управни округ, Војводина, 23220, Србија","address":{"city":"Општина Нова Црња","county":"Средњобанатски управни округ","ISO3166-2-lvl6":"RS-02","state":"Војводина","ISO3166-2-lvl4":"RS-VO","postcode":"23220","country":"Србија","country_code":"rs"},"population":8147,"osm_type":"relation","osm_id":1639822,"type":"administrative","location":[20.67169778150041,45.692115599999994],"bbox":[20.5148611,45.5864312,20.8230651,45.7973094],"inferred_type":"city"}
{"name":"Општина Нови Бечеј","other_names":{"name:en":"Novi Becej Municipality","name:hu":"Törökbecse község","name:sr":"Општина Нови Бечеј","int_name":"Opstina Novi Becej","name:sr-Latn":"Opština Novi Bečej"},"display_name":"Општина Нови Бечеј, Средњобанатски управни округ, Војводина, Србија","address":{"city":"Општина Нови Бечеј","county":"Средњобанатски управни округ","ISO3166-2-lvl6":"RS-02","state":"Војводина","ISO3166-2-lvl4":"RS-VO","country":"Србија","country_code":"rs"},"population":19886,"osm_type":"relation","osm_id":1639823,"type":"administrative","location":[20.220655520948668,45.6322656],"bbox":[20.0290267,45.4754875,20.4346853,45.7887688],"inferred_type":"city"}
{"name":"Општина Нови Кнежевац","other_names":{"name:de":"Gemeinde Neu-Kanischa","name:en":"Novi Knezevac Municipality","name:hu":"Törökkanizsa község","name:sr":"Општина Нови Кнежевац","int_name":"Opstina Novi Knezevac","name:sr-Latn":"Opština Novi Kneževac"},"display_name":"Општина Нови Кнежевац, Севернобанатски управни округ, Војводина, 23330, Србија","address":{"city":"Општина Нови Кнежевац","county":"Севернобанатски управни округ","ISO3166-2-lvl6":"RS-03","state":"Војводина","ISO3166-2-lvl4":"RS-VO","postcode":"23330","country":"Србија","country_code":"rs"},"population":8627,"osm_type":"relation","osm_id":1280351,"type":"administrative","location":[20.174086336478247,46.08023005],"bbox":[20.0319258,45.9828171,20.3460678,46.1772401],"inferred_type":"city"}
{"name":"Општина Опово","other_names":{"name:en":"Opovo Municipality","name:hu":"Ópáva község","name:sr":"Општина Опово","int_name":"Opstina Opovo","name:sr-Latn":"Opština Opovo"},"display_name":"Општина Опово, Јужнобанатски управни округ, Војводина, Србија","address":{"city":"Општина Опово","county":"Јужнобанатски управни округ","ISO3166-2-lvl6":"RS-04","state":"Војводина","ISO3166-2-lvl4":"RS-VO","country":"Србија","country_code":"rs"},"population":9462,"osm_type":"relation","osm_id":1639501,"type":"administrative","location":[20.499252237761276,45.08677525],"bbox":[20.4089131,44.9885607,20.6074758,45.1851335],"inferred_type":"city"}
{"name":"Општина Осечина","other_names":{"name:en":"Osecina Municipality","name:sr":"Општина Осечина","int_name":"Opstina Osecina","name:sr-Latn":"Opština Osečina"},"display_name":"Општина Осечина, Колубарски управни округ, Централна Србија, Србија","address":{"city":"Општина Осечина","county":"Колубарски управни округ","ISO3166-2-lvl6":"RS-09","state":"Централна Србија","country":"Србија","country_code":"rs"},"population":9951,"osm_type":"relation","osm_id":2871517,"type":"administrative","location":[19.592749503996636,44.337489149999996],"bbox":[19.4360005,44.2102701,19.6936829,44.4646439],"inferred_type":"city"}
{"name":"Општина Оџаци","other_names":{"name:en":"Odzaci Municipality","name:hr":"Općina Odžaci","name:hu":"Hódság község","name:sr":"Општина Оџаци","int_name":"Opstina Odzaci","name:sr-Latn":"Opština Odžaci"},"display_name":"Општина Оџаци, Западнобачки управни округ, Војводина, Србија","address":{"city":"Општина Оџаци","county":"Западнобачки управни округ","ISO3166-2-lvl6":"RS-05","state":"Војводина","ISO3166-2-lvl4":"RS-VO","country":"Србија","country_code":"rs"},"population":24926,"osm_type":"relation","osm_id":1639910,"type":"administrative","location":[19.233073839313626,45.53744485],"bbox":[19.0302257,45.4210654,19.4181495,45.6540688],"inferred_type":"city"}
{"name":"Општина Параћин","other_names":{"name:en":"Paracin Municipality","name:sr":"Општина Параћин","int_name":"Opstina Paracin","name:sr-Latn":"Opština Paraćin"},"display_name":"Општина Параћин, Поморавски управни округ, Централна Србија, Србија","address":{"city":"Општина Параћин","county":"Поморавски управни округ","ISO3166-2-lvl6":"RS-13","state":"Централна Србија","country":"Србија","country_code":"rs"},"population":45543,"osm_type":"relation","osm_id":2869336,"type":"administrative","location":[21.479965902659572,43.86215355],"bbox":[21.2656315,43.7379781,21.7476711,43.9862492],"inferred_type":"city"}
{"name":"Општина Пећинци","other_names":{"name:en":"Pecinci Municipality","name:hu":"Pecsince község","name:sr":"Општина Пећинци","int_name":"Opstina Pecinci","name:sr-Latn":"Opština Pećinci"},"display_name":"Општина Пећинци, Сремски управни округ, Војводина, Србија","address":{"city":"Општина Пећинци","county":"Сремски управни округ","ISO3166-2-lvl6":"RS-07","state":"Војводина","ISO3166-2-lvl4":"RS-VO","country":"Србија","country_code":"rs"},"population":18401,"osm_type":"relation","osm_id":1633270,"type":"administrative","location":[19.983477052721796,44.791176750000005],"bbox":[19.8724634,44.6297252,20.1461128,44.9526734],"inferred_type":"city"}
{"name":"Општина Пландиште","other_names":{"name:en":"Plandiste Municipality","name:hu":"Zichyfalva község","name:sr":"Општина Пландиште","int_name":"Opstina Plandiste","name:sr-Latn":"Opština Plandište"},"display_name":"Општина Пландиште, Јужнобанатски управни округ, Војводина, Србија","address":{"city":"Општина Пландиште","county":"Јужнобанатски управни округ","ISO3166-2-lvl6":"RS-04","state":"Војводина","ISO3166-2-lvl4":"RS-VO","country":"Србија","country_code":"rs"},"population":8957,"osm_type":"relation","osm_id":1639502,"type":"administrative","location":[21.073462137196415,45.2258473],"bbox":[20.8256951,45.1216408,21.2339449,45.3319298],"inferred_type":"city"}
{"name":"Општина Пожега","other_names":{"name:en":"Pozega Municipality","name:sr":"Општина Пожега","int_name":"Opstina Pozega","name:sr-Latn":"Opština Požega"},"display_name":"Општина Пожега, Златиборски управни округ, Централна Србија, Србија","address":{"city":"Општина Пожега","county":"Златиборски управни округ","ISO3166-2-lvl6":"RS-16","state":"Централна Србија","country":"Србија","country_code":"rs"},"population":25988,"osm_type":"relation","osm_id":2872869,"type":"administrative","location":[20.029730575511124,43.9273699],"bbox":[19.9135342,43.7338042,20.1703646,44.1208418],"inferred_type":"city"}
{"name":"Општина Прешево","other_names":{"name:de":"Gemeinde Preševo","name:en":"Presevo Municipality","name:sq":"Komuna e Preshevës","name:sr":"Општина Прешево","int_name":"Opstina Presevo","name:sr-Latn":"Opština Preševo"},"display_name":"Општина Прешево, Пчињски управни округ, Централна Србија, 17523, Србија","address":{"city":"Општина Прешево","county":"Пчињски управни округ","ISO3166-2-lvl6":"RS-24","state":"Централна Србија","postcode":"17523","country":"Србија","country_code":"rs"},"population":33449,"osm_type":"relation","osm_id":1630000,"type":"administrative","location":[21.679220277054785,42.320631399999996],"bbox":[21.524126,42.2314466,21.8314411,42.4098705],"inferred_type":"city"}
{"name":"Општина Прибој","other_names":{"name:en":"Priboj Municipality","name:ru":"Община Прибой","name:sr":"Општина Прибој","int_name":"Opstina Priboj","name:sr-Latn":"Opština Priboj"},"display_name":"Општина Прибој, Златиборски управни округ, Централна Србија, Србија","address":{"city":"Општина Прибој","county":"Златиборски управни округ","ISO3166-2-lvl6":"RS-16","state":"Централна Србија","country":"Србија","country_code":"rs"},"population":23514,"osm_type":"relation","osm_id":2872870,"type":"administrative","location":[19.439073855172914,43.5142053],"bbox":[19.2214317,43.3893702,19.7058475,43.6389719],"inferred_type":"city"}
{"name":"Општина Пријепоље","other_names":{"name:en":"Prijepolje Municipality","name:ru":"Община Приеполье","name:sr":"Општина Пријепоље","int_name":"Opstina Prijepolje","name:sr-Latn":"Opština Prijepolje"},"display_name":"Општина Пријепоље, Златиборски управни округ, Централна Србија, Србија","address":{"city":"Општина Пријепоље","county":"Златиборски управни округ","ISO3166-2-lvl6":"RS-16","state":"Централна Србија","country":"Србија","country_code":"rs"},"population":32214,"osm_type":"relation","osm_id":2872871,"type":"administrative","location":[19.68248789636639,43.327802250000005],"bbox":[19.4421586,43.1589621,19.8991315,43.4966161],"inferred_type":"city"}
{"name":"Општина Ражањ","other_names":{"name:en":"Razanj Municipality","name:sr":"Општина Ражањ","int_name":"Opstina Razanj","name:sr-Latn":"Opština Ražanj"},"display_name":"Општина Ражањ, Нишавски управни округ, Централна Србија, Србија","address":{"city":"Општина Ражањ","county":"Нишавски управни округ","ISO3166-2-lvl6":"RS-20","state":"Централна Србија","country":"Србија","country_code":"rs"},"population":7010,"osm_type":"relation","osm_id":2867626,"type":"administrative","location":[21.592980141645924,43.7100515],"bbox":[21.4611202,43.6012711,21.7122977,43.8188743],"inferred_type":"city"}
{"name":"Општина Рача","other_names":{"name:en":"Raca Municipality","name:sr":"Општина Рача","int_name":"Opstina Raca","name:sr-Latn":"Opština Rača"},"display_name":"Општина Рача, Шумадијски управни округ, Централна Србија, Србија","address":{"city":"Општина Рача","county":"Шумадијски управни округ","ISO3166-2-lvl6":"RS-12","state":"Централна Србија","country":"Србија","country_code":"rs"},"population":9638,"osm_type":"relation","osm_id":2870905,"type":"administrative","location":[20.934258017704373,44.19921445],"bbox":[20.8046457,44.1132972,21.0544369,44.2851425],"inferred_type":"city"}
{"name":"Општина Рашка","other_names":{"name:en":"Raska Municipality","name:sr":"Општина Рашка","int_name":"Opstina Raska","name:sr-Latn":"Opština Raška"},"display_name":"Општина Рашка, Рашки управни округ, Централна Србија, Србија","address":{"city":"Општина Рашка","county":"Рашки управни округ","ISO3166-2-lvl6":"RS-18","state":"Централна Србија","country":"Србија","country_code":"rs"},"population":21498,"osm_type":"relation","osm_id":2867384,"type":"administrative","location":[20.62247551632377,43.3318254],"bbox":[20.3560404,43.2035616,20.8537517,43.4600854],"inferred_type":"city"}
{"name":"Општина Рековац","other_names":{"name:en":"Rekovac Municipality","name:sr":"Општина Рековац","int_name":"Opstina Rekovac","name:sr-Latn":"Opština Rekovac"},"display_name":"Општина Рековац, Поморавски управни округ, Централна Србија, Србија","address":{"city":"Општина Рековац","county":"Поморавски управни округ","ISO3166-2-lvl6":"RS-13","state":"Централна Србија","country":"Србија","country_code":"rs"},"population":8116,"osm_type":"relation","osm_id":2869337,"type":"administrative","location":[21.10660891429915,43.82878755],"bbox":[20.9232991,43.7263275,21.2663254,43.931238],"inferred_type":"city"}
{"name":"Општина Рума","other_names":{"name:en":"Ruma Municipality","name:hu":"Ruma község","name:sr":"Општина Рума","int_name":"Opstina Ruma","name:sr-Latn":"Opština Ruma"},"display_name":"Општина Рума, Сремски управни округ, Војводина, Србија","address":{"city":"Општина Рума","county":"Сремски управни округ","ISO3166-2-lvl6":"RS-07","state":"Војводина","ISO3166-2-lvl4":"RS-VO","country":"Србија","country_code":"rs"},"population":48621,"osm_type":"relation","osm_id":1633271,"type":"administrative","location":[19.85144948212148,44.90152235],"bbox":[19.6788281,44.6949948,20.0249949,45.1081169],"inferred_type":"city"}
{"name":"Општина Свилајнац","other_names":{"name:en":"Svilajnac Municipality","name:sr":"Општина Свилајнац","int_name":"Opstina Svilajnac","name:sr-Latn":"Opština Svilajnac"},"display_name":"Општина Свилајнац, Поморавски управни округ, Централна Србија, Србија","address":{"city":"Општина Свилајнац","county":"Поморавски управни округ","ISO3166-2-lvl6":"RS-13","state":"Централна Србија","country":"Србија","country_code":"rs"},"population":20141,"osm_type":"relation","osm_id":2869338,"type":"administrative","location":[21.27032560807328,44.19108885],"bbox":[21.1206856,44.064713,21.4092883,44.3179147],"inferred_type":"city"}
{"name":"Општина Сврљиг","other_names":{"name:en":"Svrljig Municipality","name:sr":"Општина Сврљиг","int_name":"Opstina Svrljig","name:sr-Latn":"Opština Svrljig"},"display_name":"Општина Сврљиг, Нишавски управни округ, Централна Србија, 18360, Србија","address":{"city":"Општина Сврљиг","county":"Нишавски управни округ","ISO3166-2-lvl6":"RS-20","state":"Централна Србија","postcode":"18360","country":"Србија","country_code":"rs"},"population":10781,"osm_type":"relation","osm_id":2867627,"type":"administrative","location":[22.08386520552201,43.4597993],"bbox":[21.9040136,43.326207,22.3465364,43.5933854],"inferred_type":"city"}
{"name":"Општина Сента","other_names":{"name:en":"Senta Municipality","name:hu":"Zenta község","name:sr":"Општина Сента","int_name":"Opstina Senta","name:sr-Latn":"Opština Senta"},"display_name":"Општина Сента, Севернобанатски управни округ, Војводина, Србија","address":{"city":"Општина Сента","county":"Севернобанатски управни округ","ISO3166-2-lvl6":"RS-03","state":"Војводина","ISO3166-2-lvl4":"RS-VO","country":"Србија","country_code":"rs"},"population":17953,"osm_type":"relation","osm_id":1279956,"type":"administrative","location":[19.973982881398335,45.899421000000004],"bbox":[19.788936,45.810797,20.1372911,45.988077],"inferred_type":"city"}
{"name":"Општина Сечањ","other_names":{"name:en":"Secanj Municipality","name:hu":"Torontálszécsány község","name:sr":"Општина Сечањ","int_name":"Opstina Secanj","name:sr-Latn":"Opština Sečanj"},"display_name":"Општина Сечањ, Средњобанатски управни округ, Војводина, 23240, Србија","address":{"city":"Општина Сечањ","county":"Средњобанатски управни округ","ISO3166-2-lvl6":"RS-02","state":"Војводина","ISO3166-2-lvl4":"RS-VO","postcode":"23240","country":"Србија","country_code":"rs"},"population":10544,"osm_type":"relation","osm_id":1639824,"type":"administrative","location":[20.851158375829826,45.33169805],"bbox":[20.6451144,45.1678349,21.0165368,45.4955553],"inferred_type":"city"}
{"name":"Општина Сјеница","other_names":{"name:en":"Sjenica Municipality","name:sr":"Општина Сјеница","int_name":"Opstina Sjenica","name:cnr":"Opština Śenica","name:sr-Latn":"Opština Sjenica","name:cnr-Cyrl":"Општина С́еница"},"display_name":"Општина Сјеница, Златиборски управни округ, Централна Србија, 36310, Србија","address":{"city":"Општина Сјеница","county":"Златиборски управни округ","ISO3166-2-lvl6":"RS-16","state":"Централна Србија","postcode":"36310","country":"Србија","country_code":"rs"},"population":24083,"osm_type":"relation","osm_id":2872872,"type":"administrative","location":[20.03762908210745,43.2219025],"bbox":[19.761543,43.006826,20.2987037,43.4368986],"inferred_type":"city"}
{"name":"Општина Смедеревска Паланка","other_names":{"name:en":"Smederevska Palanka Municipality","name:sr":"Општина Смедеревска Паланка","int_name":"Opstina Smederevska Palanka","name:sr-Latn":"Opština Smederevska Palanka"},"display_name":"Општина Смедеревска Паланка, Подунавски управни округ, Централна Србија, Србија","address":{"city":"Општина Смедеревска Паланка","county":"Подунавски управни округ","ISO3166-2-lvl6":"RS-10","state":"Централна Србија","country":"Србија","country_code":"rs"},"population":42192,"osm_type":"relation","osm_id":2869909,"type":"administrative","location":[20.865345253383534,44.400475],"bbox":[20.7493265,44.267175,21.0448296,44.5338996],"inferred_type":"city"}
{"name":"Општина Сокобања","other_names":{"name:en":"Sokobanja Municipality","name:sr":"Општина Сокобања","int_name":"Opstina Sokobanja","name:sr-Latn":"Opština Sokobanja"},"display_name":"Општина Сокобања, Зајечарски управни округ, Централна Србија, Србија","address":{"city":"Општина Сокобања","county":"Зајечарски управни округ","ISO3166-2-lvl6":"RS-15","state":"Централна Србија","country":"Србија","country_code":"rs"},"population":13199,"osm_type":"relation","osm_id":2869102,"type":"administrative","location":[21.887490555610263,43.65301105],"bbox":[21.6743315,43.5278658,22.0934141,43.7782357],"inferred_type":"city"}
{"name":"Општина Србобран","other_names":{"name:en":"Srbobran Municipality","name:hu":"Szenttamás község","name:sr":"Општина Србобран","int_name":"Opstina Srbobran","name:sr-Latn":"Opština Srbobran"},"display_name":"Општина Србобран, Јужнобачки управни округ, Војводина, Србија","address":{"city":"Општина Србобран","county":"Јужнобачки управни округ","ISO3166-2-lvl6":"RS-06","state":"Војводина","ISO3166-2-lvl4":"RS-VO","country":"Србија","country_code":"rs"},"population":14357,"osm_type":"relation","osm_id":1649676,"type":"administrative","location":[19.795617644615284,45.5821161],"bbox":[19.7052355,45.4686853,20.0583053,45.6944404],"inferred_type":"city"}
{"name":"Општина Сурдулица","other_names":{"name:en":"Surdulica Municipality","name:sr":"Општина Сурдулица","int_name":"Opstina Surdulica","name:sr-Latn":"Opština Surdulica"},"display_name":"Општина Сурдулица, Пчињски управни округ, Централна Србија, Србија","address":{"city":"Општина Сурдулица","county":"Пчињски управни округ","ISO3166-2-lvl6":"RS-24","state":"Централна Србија","country":"Србија","country_code":"rs"},"population":16991,"osm_type":"relation","osm_id":2190332,"type":"administrative","location":[22.283002061229304,42.69352395],"bbox":[22.062901,42.5614669,22.5013529,42.8257417],"inferred_type":"city"}
{"name":"Општина Темерин","other_names":{"name:en":"Temerin Municipality","name:hu":"Temerin község","name:sr":"Општина Темерин","int_name":"Opstina Temerin","name:sr-Latn":"Opština Temerin"},"display_name":"Општина Темерин, Јужнобачки управни округ, Војводина, Србија","address":{"city":"Општина Темерин","county":"Јужнобачки управни округ","ISO3166-2-lvl6":"RS-06","state":"Војводина","ISO3166-2-lvl4":"RS-VO","country":"Србија","country_code":"rs"},"population":25780,"osm_type":"relation","osm_id":1649678,"type":"administrative","location":[19.885432306157483,45.416096350000004],"bbox":[19.7269346,45.3364239,19.9772093,45.4957897],"inferred_type":"city"}
{"name":"Општина Тител","other_names":{"name:en":"Titel Municipality","name:hu":"Titel község","name:sr":"Општина Тител","int_name":"Opstina Titel","name:sr-Latn":"Opština Titel"},"display_name":"Општина Тител, Јужнобачки управни округ, Војводина, Србија","address":{"city":"Општина Тител","county":"Јужнобачки управни округ","ISO3166-2-lvl6":"RS-06","state":"Војводина","ISO3166-2-lvl4":"RS-VO","country":"Србија","country_code":"rs"},"population":13984,"osm_type":"relation","osm_id":1649679,"type":"administrative","location":[20.18930284458805,45.246436],"bbox":[20.0525155,45.1341135,20.3140105,45.3588361],"inferred_type":"city"}
{"name":"Општина Топола","other_names":{"name:en":"Topola Municipality","name:sr":"Општина Топола","int_name":"Opstina Topola","name:sr-Latn":"Opština Topola"},"display_name":"Општина Топола, Шумадијски управни округ, Централна Србија, Србија","address":{"city":"Општина Топола","county":"Шумадијски управни округ","ISO3166-2-lvl6":"RS-12","state":"Централна Србија","country":"Србија","country_code":"rs"},"population":19134,"osm_type":"relation","osm_id":2870906,"type":"administrative","location":[20.716555298878426,44.24433955],"bbox":[20.4750696,44.1283267,20.849484,44.3605252],"inferred_type":"city"}
{"name":"Општина Трговиште","other_names":{"name:en":"Trgoviste Municipality","name:sr":"Општина Трговиште","int_name":"Opstina Trgoviste","name:sr-Latn":"Opština Trgovište"},"display_name":"Општина Трговиште, Пчињски управни округ, Централна Србија, 17525, Србија","address":{"city":"Општина Трговиште","county":"Пчињски управни округ","ISO3166-2-lvl6":"RS-24","state":"Централна Србија","postcode":"17525","country":"Србија","country_code":"rs"},"population":4316,"osm_type":"relation","osm_id":2190449,"type":"administrative","location":[22.13379629215706,42.390571699999995],"bbox":[21.9235969,42.2981265,22.3165907,42.4830216],"inferred_type":"city"}
{"name":"Општина Трстеник","other_names":{"name:en":"Trstenik Municipality","name:sr":"Општина Трстеник","int_name":"Opstina Trstenik","name:sr-Latn":"Opština Trstenik"},"display_name":"Општина Трстеник, Расински управни округ, Централна Србија, Србија","address":{"city":"Општина Трстеник","county":"Расински управни округ","ISO3166-2-lvl6":"RS-19","state":"Централна Србија","country":"Србија","country_code":"rs"},"population":35875,"osm_type":"relation","osm_id":2867202,"type":"administrative","location":[21.064350074948376,43.63005085],"bbox":[20.8915553,43.5038196,21.1897551,43.7563076],"inferred_type":"city"}
{"name":"Општина Тутин","other_names":{"name:en":"Tutin Municipality","name:sr":"Општина Тутин","int_name":"Opstina Tutin","name:sr-Latn":"Opština Tutin"},"display_name":"Општина Тутин, Рашки управни округ, Централна Србија, Србија","address":{"city":"Општина Тутин","county":"Рашки управни округ","ISO3166-2-lvl6":"RS-18","state":"Централна Србија","country":"Србија","country_code":"rs"},"population":33053,"osm_type":"relation","osm_id":2867385,"type":"administrative","location":[20.261376005630943,43.0083403],"bbox":[20.0639411,42.8322469,20.5390012,43.184411],"inferred_type":"city"}
{"name":"Општина Ћићевац","other_names":{"name:en":"Cicevac Municipality","name:sr":"Општина Ћићевац","int_name":"Opstina Cicevac","name:sr-Latn":"Opština Ćićevac"},"display_name":"Општина Ћићевац, Расински управни округ, Централна Србија, Србија","address":{"city":"Општина Ћићевац","county":"Расински управни округ","ISO3166-2-lvl6":"RS-19","state":"Централна Србија","country":"Србија","country_code":"rs"},"population":7860,"osm_type":"relation","osm_id":2867201,"type":"administrative","location":[21.42570372246747,43.6782846],"bbox":[21.369642,43.5902669,21.5261366,43.766218],"inferred_type":"city"}
{"name":"Општина Ћуприја","other_names":{"name:en":"Cuprija Municipality","name:sr":"Општина Ћуприја","int_name":"Opstina Cuprija","name:sr-Latn":"Opština Ćuprija"},"display_name":"Општина Ћуприја, Поморавски управни округ, Централна Србија, 35230, Србија","address":{"city":"Општина Ћуприја","county":"Поморавски управни округ","ISO3166-2-lvl6":"RS-13","state":"Централна Србија","postcode":"35230","country":"Србија","country_code":"rs"},"population":25325,"osm_type":"relation","osm_id":2869334,"type":"administrative","location":[21.44757066664871,43.97123555],"bbox":[21.2641168,43.8760526,21.5845266,44.0666108],"inferred_type":"city"}
{"name":"Општина Уб","other_names":{"name:en":"Ub Municipality","name:sr":"Општина Уб","int_name":"Opstina Ub","name:sr-Latn":"Opština Ub"},"display_name":"Општина Уб, Колубарски управни округ, Централна Србија, 14210, Србија","address":{"city":"Општина Уб","county":"Колубарски управни округ","ISO3166-2-lvl6":"RS-09","state":"Централна Србија","postcode":"14210","country":"Србија","country_code":"rs"},"population":25780,"osm_type":"relation","osm_id":2871518,"type":"administrative","location":[20.0403198696954,44.46729995],"bbox":[19.8551789,44.3486015,20.2410664,44.5860099],"inferred_type":"city"}
{"name":"Општина Црна Трава","other_names":{"name:en":"Crna Trava Municipality","name:sr":"Општина Црна Трава","int_name":"Opstina Crna Trava","name:sr-Latn":"Opština Crna Trava"},"display_name":"Општина Црна Трава, Јабланички управни округ, Централна Србија, 16215, Србија","address":{"city":"Општина Црна Трава","county":"Јабланички управни округ","ISO3166-2-lvl6":"RS-23","state":"Централна Србија","postcode":"16215","country":"Србија","country_code":"rs"},"population":1063,"osm_type":"relation","osm_id":2860203,"type":"administrative","location":[22.348773662741802,42.84874835],"bbox":[22.1788832,42.7483114,22.5175769,42.9491813],"inferred_type":"city"}
{"name":"Општина Чајетина","other_names":{"name:en":"Cajetina Municipality","name:sr":"Општина Чајетина","int_name":"Opstina Cajetina","name:sr-Latn":"Opština Čajetina"},"display_name":"Општина Чајетина, Златиборски управни округ, Централна Србија, Србија","address":{"city":"Општина Чајетина","county":"Златиборски управни округ","ISO3166-2-lvl6":"RS-16","state":"Централна Србија","country":"Србија","country_code":"rs"},"population":14585,"osm_type":"relation","osm_id":2872866,"type":"administrative","location":[19.705326849773215,43.7088461],"bbox":[19.5105144,43.5708248,19.92463,43.8468061],"inferred_type":"city"}
{"name":"Општина Чока","other_names":{"name:en":"Coka Municipality","name:hu":"Csóka község","name:sr":"Општина Чока","int_name":"Opstina Coka","name:sr-Latn":"Opština Čoka"},"display_name":"Општина Чока, Севернобанатски управни округ, Војводина, 23320, Србија","address":{"city":"Општина Чока","county":"Севернобанатски управни округ","ISO3166-2-lvl6":"RS-03","state":"Војводина","ISO3166-2-lvl4":"RS-VO","postcode":"23320","country":"Србија","country_code":"rs"},"population":8556,"osm_type":"relation","osm_id":1639619,"type":"administrative","location":[20.202783763341728,45.9129858],"bbox":[20.0574427,45.7841216,20.405431,46.0414222],"inferred_type":"city"}
{"name":"Општина Шид","other_names":{"name:de":"Gemeinde Schid","name:en":"Sid Municipality","name:hu":"Sid község","name:sr":"Општина Шид","int_name":"Opstina Sid","name:sr-Latn":"Opština Šid"},"display_name":"Општина Шид, Сремски управни округ, Војводина, Србија","address":{"city":"Општина Шид","county":"Сремски управни округ","ISO3166-2-lvl6":"RS-07","state":"Војводина","ISO3166-2-lvl4":"RS-VO","country":"Србија","country_code":"rs"},"population":27894,"osm_type":"relation","osm_id":1639314,"type":"administrative","location":[19.205590862258163,45.0317371],"bbox":[18.9889925,44.8553961,19.5117522,45.2078427],"inferred_type":"city"}
{"name":"Панчево","other_names":{"name:ar":"بانتشيفو","name:cs":"Pančevo","name:da":"Pančevo","name:de":"Pantschowa","name:en":"Pančevo","name:es":"Pančevo","name:et":"Pančevo","name:fr":"Pančevo","name:hu":"Pancsova","name:lt":"Pančevas","name:ro":"Panciova","name:ru":"Панчево","name:sr":"Панчево","alt_name:en":"Panchevo","name:sr-Latn":"Pančevo"},"display_name":"Панчево, Град Панчево, Јужнобанатски управни округ, Војводина, Србија","address":{"city":"Панчево","municipality":"Град Панчево","county":"Јужнобанатски управни округ","ISO3166-2-lvl6":"RS-04","state":"Војводина","ISO3166-2-lvl4":"RS-VO","country":"Србија","country_code":"rs"},"population":73401,"osm_type":"node","osm_id":253736569,"type":"city","location":[20.6399643,44.8705686],"bbox":[20.4799643,44.7105686,20.7999643,45.0305686],"border":{"name":"Панчево","other_names":{"name:sr":"Панчево","int_name":"Pancevo","name:ar":"بانتشيفو","name:cs":"Pančevo","name:da":"Pančevo","name:de":"Pantschowa","name:en":"Pančevo","name:es":"Pančevo","name:et":"Pančevo","name:fr":"Pančevo","name:hu":"Pancsova","name:lt":"Pančevas","name:ro":"Panciova","name:ru":"Панчево","alt_name:en":"Panchevo","name:sr-Latn":"Pančevo"},"display_name":"Панчево, Град Панчево, Јужнобанатски управни округ, Војводина, Србија","address":{"city":"Панчево","municipality":"Град Панчево","county":"Јужнобанатски управни округ","ISO3166-2-lvl6":"RS-04","state":"Војводина","ISO3166-2-lvl4":"RS-VO","country":"Србија","country_code":"rs"},"population":73401,"osm_type":"relation","osm_id":9797238,"type":"administrative","location":[20.6399643,44.8705686],"bbox":[20.576229,44.7930185,20.8218711,44.9466404]}}
{"name":"Пирот","other_names":{"name:bg":"Пирот","name:de":"Pirot","name:en":"Pirot","name:la":"Turres","name:ml":"പിറോട്ട്","name:nl":"Pirot","name:ru":"Пирот","name:sr":"Пирот","name:sr-Latn":"Pirot"},"display_name":"Пирот, Град Пирот, Пиротски управни округ, Централна Србија, Србија","address":{"city":"Пирот","municipality":"Град Пирот","county":"Пиротски управни округ","ISO3166-2-lvl6":"RS-22","state":"Централна Србија","country":"Србија","country_code":"rs"},"population":40678,"osm_type":"node","osm_id":370352698,"type":"city","location":[22.5865039,43.1547342],"bbox":[22.4265039,42.9947342,22.7465039,43.3147342],"border":{"name":"Пирот","other_names":{"name:en":"Pirot","name:sr":"Пирот","name:sr-Latn":"Pirot","name:bg":"Пирот","name:de":"Pirot","name:la":"Turres","name:ml":"പിറോട്ട്","name:nl":"Pirot","name:ru":"Пирот"},"display_name":"Пирот, Град Пирот, Пиротски управни округ, Централна Србија, 18300, Србија","address":{"city":"Пирот","municipality":"Град Пирот","county":"Пиротски управни округ","ISO3166-2-lvl6":"RS-22","state":"Централна Србија","postcode":"18300","country":"Србија","country_code":"rs"},"population":34942,"osm_type":"relation","osm_id":7273482,"type":"administrative","location":[22.5865039,43.1547342],"bbox":[22.543469,43.1036529,22.610864,43.2048773]}}
{"name":"Пожаревац","other_names":{"name:el":"Ποζάρεβατς","name:en":"Požarevac","name:he":"פוז'ארוואץ","name:hu":"Pozsarevác","name:lt":"Požarevacas","name:ml":"പൊജാറെവാറ്റ്സ്","name:pl":"Pożarewac","name:ru":"Пожаревац","name:sr":"Пожаревац","name:zh":"波扎雷瓦茨","old_name:de":"Passarowitz","name:sr-Latn":"Požarevac"},"display_name":"Пожаревац, Градска општина Пожаревац, Град Пожаревац, Браничевски управни округ, Централна Србија, Србија","address":{"city":"Пожаревац","town":"Пожаревац","municipality":"Град Пожаревац","county":"Браничевски управни округ","ISO3166-2-lvl6":"RS-11","state":"Централна Србија","country":"Србија","country_code":"rs"},"population":44183,"osm_type":"node","osm_id":1582764486,"type":"city","location":[21.1854,44.6199926],"bbox":[21.0254,44.4599926,21.3454,44.7799926],"border":{"name":"Пожаревац","other_names":{"name:el":"Ποζάρεβατς","name:en":"Pozarevac","name:sr":"Пожаревац","name:sr-Latn":"Požarevac","name:he":"פוז'ארוואץ","name:hu":"Pozsarevác","name:lt":"Požarevacas","name:ml":"പൊജാറെവാറ്റ്സ്","name:pl":"Pożarewac","name:ru":"Пожаревац","name:zh":"波扎雷瓦茨","old_name:de":"Passarowitz","alt:en":"Požarevac"},"display_name":"Пожаревац, Градска општина Пожаревац, Град Пожаревац, Браничевски управни округ, Централна Србија, 12000, Србија","address":{"town":"Пожаревац","city":"Градска општина Пожаревац","municipality":"Град Пожаревац","county":"Браничевски управни округ","ISO3166-2-lvl6":"RS-11","state":"Централна Србија","postcode":"12000","country":"Србија","country_code":"rs"},"population":44183,"osm_type":"relation","osm_id":6308411,"type":"administrative","location":[21.1854,44.6199926],"bbox":[21.0863025,44.5744942,21.2392339,44.6601968]}}
{"name":"Прокупље","other_names":{"name:bg":"Прокупле","name:de":"Prokuplje","name:el":"Προκούπλιε","name:en":"Prokuplje","name:hr":"Prokuplje","name:ml":"പ്രൊകുപ്ലെ","name:ru":"Прокупле","name:sl":"Prokuplje","name:sr":"Прокупље","name:sr-Latn":"Prokuplje"},"display_name":"Прокупље, Град Прокупље, Топлички управни округ, Централна Србија, Србија","address":{"city":"Прокупље","municipality":"Град Прокупље","county":"Топлички управни округ","ISO3166-2-lvl6":"RS-21","state":"Централна Србија","country":"Србија","country_code":"rs"},"population":24627,"osm_type":"node","osm_id":449625244,"type":"city","location":[21.5884422,43.2343484],"bbox":[21.4284422,43.0743484,21.7484422,43.3943484],"border":{"name":"Прокупље","other_names":{"name:el":"Προκούπλιε","name:en":"Prokuplje","name:sr":"Прокупље","name:sr-Latn":"Prokuplje","name:bg":"Прокупле","name:de":"Prokuplje","name:hr":"Prokuplje","name:ml":"പ്രൊകുപ്ലെ","name:ru":"Прокупле","name:sl":"Prokuplje"},"display_name":"Прокупље, Град Прокупље, Топлички управни округ, Централна Србија, 18400, Србија","address":{"city":"Прокупље","municipality":"Град Прокупље","county":"Топлички управни округ","ISO3166-2-lvl6":"RS-21","state":"Централна Србија","postcode":"18400","country":"Србија","country_code":"rs"},"population":24627,"osm_type":"relation","osm_id":6970249,"type":"administrative","location":[21.5884422,43.2343484],"bbox":[21.5406476,43.1995047,21.6231802,43.2588817]}}
{"name":"Смедерево","other_names":{"name:ar":"سميديريفو","name:de":"Semendria","name:el":"Σμεντέρεβο","name:en":"Smederevo","name:es":"Smederevo","name:et":"Smederevo","name:fr":"Smederevo","name:hr":"Smederevo","name:hu":"Szendrő","name:la":"Semendria","name:ml":"സ്മെഡെറെവോ","name:ru":"Смедерево","name:sr":"Смедерево","name:tr":"Semendire","name:sr-Latn":"Smederevo"},"display_name":"Смедерево, Град Смедерево, Подунавски управни округ, Централна Србија, 11300, Србија","address":{"city":"Смедерево","municipality":"Град Смедерево","county":"Подунавски управни округ","ISO3166-2-lvl6":"RS-10","state":"Централна Србија","postcode":"11300","country":"Србија","country_code":"rs"},"population":59261,"osm_type":"node","osm_id":359219458,"type":"city","location":[20.9271115,44.6651048],"bbox":[20.7671115,44.5051048,21.0871115,44.8251048],"border":{"name":"Смедерево","other_names":{"name:en":"Smederevo","name:sr":"Смедерево","name:sr-Latn":"Smederevo","name:ar":"سميديريفو","name:de":"Semendria","name:el":"Σμεντέρεβο","name:es":"Smederevo","name:et":"Smederevo","name:fr":"Smederevo","name:hr":"Smederevo","name:hu":"Szendrő","name:la":"Semendria","name:ml":"സ്മെഡെറെവോ","name:ru":"Смедерево","name:tr":"Semendire"},"display_name":"Смедерево, Град Смедерево, Подунавски управни округ, Централна Србија, Србија","address":{"city":"Смедерево","municipality":"Град Смедерево","county":"Подунавски управни округ","ISO3166-2-lvl6":"RS-10","state":"Централна Србија","country":"Србија","country_code":"rs"},"population":59261,"osm_type":"relation","osm_id":8747155,"type":"administrative","location":[20.9271115,44.6651048],"bbox":[20.8590606,44.6119895,20.9936684,44.714675]}}
{"name":"Сомбор","other_names":{"name:ar":"سومبور","name:be":"Сомбар","name:bg":"Сомбор","name:ce":"Сомбор","name:el":"Σόμπορ","name:en":"Sombor","name:fa":"سومبور","name:he":"סומבור","name:hr":"Sombor","name:hu":"Zombor","name:hy":"Սոմբոր","name:ja":"ソンボル","name:ko":"솜보르","name:la":"Somborinum","name:lv":"Sombora","name:mk":"Сомбор","name:ml":"സോംബോർ","name:ru":"Сомбор","name:sr":"Сомбор","name:tt":"Сомбор","name:uk":"Сомбор","name:ur":"سومبور","name:ckb":"سۆمبۆر","name:pnb":"سومبور","name:rue":"Зомбор","old_name:hu":"Czoborszentmihály","old_name:tr":"Sonbor","name:sr-Latn":"Sombor","name:zh-Hans":"松博尔","name:zh-Hant":"松博爾"},"display_name":"Сомбор, Град Сомбор, Западнобачки управни округ, Војводина, Србија","address":{"city":"Сомбор","municipality":"Град Сомбор","county":"Западнобачки управни округ","ISO3166-2-lvl6":"RS-05","state":"Војводина","ISO3166-2-lvl4":"RS-VO","country":"Србија","country_code":"rs"},"population":41814,"osm_type":"node","osm_id":1145970042,"type":"city","location":[19.1147036,45.7727397],"bbox":[18.9547036,45.6127397,19.2747036,45.9327397],"border":[{"name":"Град Сомбор","other_names":{"name:en":"City of Sombor","name:hr":"Grad Sombor","name:hu":"Zombor város","name:ru":"Сомбор","name:sr":"Град Сомбор","int_name":"Grad Sombor","name:sr-Latn":"Grad Sombor"},"display_name":"Град Сомбор, Западнобачки управни округ, Војводина, Србија","address":{"municipality":"Град Сомбор","county":"Западнобачки управни округ","ISO3166-2-lvl6":"RS-05","state":"Војводина","ISO3166-2-lvl4":"RS-VO","country":"Србија","country_code":"rs"},"population":70818,"osm_type":"relation","osm_id":1279958,"type":"administrative","location":[19.129249336929306,45.80408735],"bbox":[18.8149945,45.5675349,19.4219666,46.0400025]},{"name":"Сомбор","other_names":{"name:en":"Sombor","name:hr":"Sombor","name:sr":"Сомбор","name:sr-Latn":"Sombor","name:ar":"سومبور","name:be":"Сомбар","name:bg":"Сомбор","name:ce":"Сомбор","name:el":"Σόμπορ","name:fa":"سومبور","name:he":"סומבור","name:hu":"Zombor","name:hy":"Սոմբոր","name:ja":"ソンボル","name:ko":"솜보르","name:la":"Somborinum","name:lv":"Sombora","name:mk":"Сомбор","name:ml":"സോംബോർ","name:ru":"Сомбор","name:tt":"Сомбор","name:uk":"Сомбор","name:ur":"سومبور","name:ckb":"سۆمبۆر","name:pnb":"سومبور","name:rue":"Зомбор","old_name:hu":"Czoborszentmihály","old_name:tr":"Sonbor","name:zh-Hans":"松博尔","name:zh-Hant":"松博爾"},"display_name":"Сомбор, Град Сомбор, Западнобачки управни округ, Војводина, Србија","address":{"city":"Сомбор","municipality":"Град Сомбор","county":"Западнобачки управни округ","ISO3166-2-lvl6":"RS-05","state":"Војводина","ISO3166-2-lvl4":"RS-VO","country":"Србија","country_code":"rs"},"population":41814,"osm_type":"relation","osm_id":9064607,"type":"administrative","location":[19.1147036,45.7727397],"bbox":[19.0296133,45.679048,19.2842446,45.9032035]}]}
{"name":"Сремска Митровица","other_names":{"name:el":"Σρέμσκα Μιτρόβιτσα","name:en":"Sremska Mitrovica","name:hr":"Srijemska Mitrovica","name:hu":"Szávaszentdemeter","name:la":"Sirmium","name:lt":"Sremska Mitrovica","name:ml":"സ്രെംസ്ക മിട്രോവിറ്റ്സ","name:pl":"Sremska Mitrovica","name:ru":"Сремска-Митровица","name:sr":"Сремска Митровица","old_name:de":"Syrmisch-Mitrowitz","name:sr-Latn":"Sremska Mitrovica"},"display_name":"Сремска Митровица, Град Сремска Митровица, Сремски управни округ, Војводина, Србија","address":{"city":"Сремска Митровица","municipality":"Град Сремска Митровица","county":"Сремски управни округ","ISO3166-2-lvl6":"RS-07","state":"Војводина","ISO3166-2-lvl4":"RS-VO","country":"Србија","country_code":"rs"},"population":36764,"osm_type":"node","osm_id":254036974,"type":"city","location":[19.6124132,44.9701654],"bbox":[19.4524132,44.8101654,19.7724132,45.1301654],"border":{"name":"Сремска Митровица","other_names":{"name:hr":"Srijemska Mitrovica","name:hu":"Szávaszentdemeter","name:sr":"Сремска Митровица","int_name":"Sremska Mitrovica","name:el":"Σρέμσκα Μιτρόβιτσα","name:en":"Sremska Mitrovica","name:la":"Sirmium","name:lt":"Sremska Mitrovica","name:ml":"സ്രെംസ്ക മിട്രോവിറ്റ്സ","name:pl":"Sremska Mitrovica","name:ru":"Сремска-Митровица","old_name:de":"Syrmisch-Mitrowitz","name:sr-Latn":"Sremska Mitrovica"},"display_name":"Сремска Митровица, Град Сремска Митровица, Сремски управни округ, Војводина, 22000, Србија","address":{"city":"Сремска Митровица","municipality":"Град Сремска Митровица","county":"Сремски управни округ","ISO3166-2-lvl6":"RS-07","state":"Војводина","ISO3166-2-lvl4":"RS-VO","postcode":"22000","country":"Србија","country_code":"rs"},"population":36764,"osm_type":"relation","osm_id":9767601,"type":"administrative","location":[19.6124132,44.9701654],"bbox":[19.5680206,44.9271576,19.6924235,45.0271047]}}
{"name":"Суботица","other_names":{"name:ar":"سوبتيتسا","name:da":"Subotica","name:de":"Subotica","name:el":"Σουμπότιτσα","name:en":"Subotica","name:es":"Subotica","name:et":"Subotica","name:fr":"Subotica","name:hr":"Subotica","name:hu":"Szabadka","name:lt":"Subotica","name:ml":"സുബോട്ടിക്ക","name:ru":"Суботица","name:sl":"Subotica","name:sr":"Суботица","name:uk":"Суботиця","name:zh":"蘇博蒂察","name:cnr":"Subotica","old_name:de":"Maria-Theresiopel","name:sr-Latn":"Subotica","name:zh-Hans":"苏博蒂察","name:zh-Hant":"蘇博蒂察","name:cnr-Cyrl":"Суботица"},"display_name":"Суботица, Град Суботица, Севернобачки управни округ, Војводина, 24000, Србија","address":{"city":"Суботица","municipality":"Град Суботица","county":"Севернобачки управни округ","ISO3166-2-lvl6":"RS-01","state":"Војводина","ISO3166-2-lvl4":"RS-VO","postcode":"24000","country":"Србија","country_code":"rs"},"population":88752,"osm_type":"node","osm_id":1547830258,"type":"city","location":[19.6653273,46.1002058],"bbox":[19.5053273,45.9402058,19.8253273,46.2602058],"border":{"name":"Суботица","other_names":{"name:en":"Subotica","name:hr":"Subotica","name:hu":"Szabadka","name:sr":"Суботица","name:zh":"蘇博蒂察","name:cnr":"Subotica","name:sr-Latn":"Subotica","name:zh-Hans":"苏博蒂察","name:zh-Hant":"蘇博蒂察","name:cnr-Cyrl":"Суботица"},"display_name":"Суботица, Град Суботица, Севернобачки управни округ, Војводина, Србија","address":{"city_district":"Суботица","municipality":"Град Суботица","county":"Севернобачки управни округ","ISO3166-2-lvl6":"RS-01","state":"Војводина","ISO3166-2-lvl4":"RS-VO","country":"Србија","country_code":"rs"},"population":88752,"osm_type":"relation","osm_id":9297028,"type":"administrative","location":[19.664923653597633,46.0938291],"bbox":[19.5710999,45.9974689,19.7772119,46.1902839]}}
{"name":"Ужице","other_names":{"name:am":"ኡዚዝ","name:ar":"أوزيتسه","name:be":"Ужыцкае","name:bn":"উজিস","name:de":"Užice","name:el":"Ούζιτσε","name:en":"Uzice","name:es":"Užice","name:fr":"Užice","name:lt":"Užicė","name:ml":"ഉജിറ്റ്സെ","name:ru":"Ужице","name:sk":"Užice","name:sr":"Ужице","name:tr":"Öziçe","name:zh":"烏齊採","int_name":"Uzice","name:sr-Latn":"Užice","name:zh-Hans":"乌兹采"},"display_name":"Ужице, Градска општина Ужице, Град Ужице, Златиборски управни округ, Централна Србија, 31000, Србија","address":{"city":"Ужице","municipality":"Градска општина Ужице","county":"Златиборски управни округ","ISO3166-2-lvl6":"RS-16","state":"Централна Србија","postcode":"31000","country":"Србија","country_code":"rs"},"population":48539,"osm_type":"node","osm_id":848084912,"type":"city","location":[19.840273,43.8564957],"bbox":[19.680273,43.6964957,20.000273,44.0164957],"border":[{"name":"Град Ужице","other_names":{"name:el":"Πόλη Ούζιτσε","name:en":"City of Užice","name:ru":"Ужице","name:sk":"Užice","name:sr":"Град Ужице","int_name":"Grad Uzice","name:sr-Latn":"Grad Užice","official_name":"Град Ужице"},"display_name":"Град Ужице, Златиборски управни округ, Централна Србија, Србија","address":{"municipality":"Град Ужице","county":"Златиборски управни округ","ISO3166-2-lvl6":"RS-16","state":"Централна Србија","country":"Србија","country_code":"rs"},"population":69997,"osm_type":"relation","osm_id":2872863,"type":"administrative","location":[19.577147823696457,43.8379324],"bbox":[19.3912194,43.6967094,19.977171,43.9791625]},{"name":"Градска општина Ужице","other_names":{"name:sr":"Градска општина Ужице","int_name":"Gradska opstina Uzice","name:sr-Latn":"Gradska opština Užice","official_name":"Градска општина Ужице","name:am":"ኡዚዝ","name:ar":"أوزيتسه","name:be":"Ужыцкае","name:bn":"উজিস","name:de":"Užice","name:el":"Ούζιτσε","name:en":"Uzice","name:es":"Užice","name:fr":"Užice","name:lt":"Užicė","name:ml":"ഉജിറ്റ്സെ","name:ru":"Ужице","name:sk":"Užice","name:tr":"Öziçe","name:zh":"烏齊採","_place_int_name":"Uzice","name:zh-Hans":"乌兹采","alt":"Ужице","alt:sr":"Ужице","alt:sr-Latn":"Užice"},"display_name":"Градска општина Ужице, Град Ужице, Златиборски управни округ, Централна Србија, Србија","address":{"municipality":"Градска општина Ужице","county":"Златиборски управни округ","ISO3166-2-lvl6":"RS-16","state":"Централна Србија","country":"Србија","country_code":"rs"},"population":63571,"osm_type":"relation","osm_id":11627512,"type":"administrative","location":[19.840273,43.8564957],"bbox":[19.3912194,43.6967094,19.977171,43.9791625]},{"name":"Ужице","other_names":{"name:am":"ኡዚዝ","name:ar":"أوزيتسه","name:be":"Ужыцкае","name:bn":"উজিস","name:de":"Užice","name:el":"Ούζιτσε","name:en":"Uzice","name:es":"Užice","name:fr":"Užice","name:lt":"Užicė","name:ru":"Ужице","name:sr":"Ужице","name:zh":"烏齊採","int_name":"Uzice","name:sr-Latn":"Užice","name:zh-Hans":"乌兹采"},"display_name":"Ужице, Градска општина Ужице, Град Ужице, Златиборски управни округ, Централна Србија, Србија","address":{"city_district":"Ужице","city":"Градска општина Ужице","municipality":"Град Ужице","county":"Златиборски управни округ","ISO3166-2-lvl6":"RS-16","state":"Централна Србија","country":"Србија","country_code":"rs"},"population":48539,"osm_type":"relation","osm_id":8031563,"type":"administrative","location":[19.84253282880318,43.851709],"bbox":[19.8048989,43.8265829,19.8797541,43.8767935]}]}
{"name":"Чачак","other_names":{"name:ar":"تشاتشاك","name:be":"Чачак","name:bg":"Чачак","name:ce":"Чачак","name:de":"Čačak","name:el":"Τσάτσακ","name:en":"Čačak","name:es":"Čačak","name:et":"Čačak","name:fa":"چاچاک","name:fr":"Čačak","name:he":"צ'אצ'אק","name:ja":"チャチャク","name:ko":"차차크","name:lt":"Čačakas","name:lv":"Čačaka","name:mk":"Чачак","name:ml":"ചാച്ചാക്","name:mn":"Чачак","name:os":"Чачак","name:ps":"چاچاک","name:ru":"Чачак","name:sk":"Čačak","name:sl":"Čačak","name:sq":"Çaçaku","name:sr":"Чачак","name:th":"ชาชัก","name:tr":"Caçka","name:tt":"Чачак","name:uk":"Чачак","name:ur":"چاچاک","name:zh":"查查克","name:ckb":"چاچاک","name:pnb":"چاچاک","old_name":"Градац","alt_name:hu":"Csacsak","old_name:de":"Zazach","old_name:sr":"Градац","name:sr-Latn":"Čačak","old_name:sr-Latn":"Gradac"},"display_name":"Чачак, Град Чачак, Моравички управни округ, Централна Србија, 32000, Србија","address":{"city":"Чачак","municipality":"Град Чачак","county":"Моравички управни округ","ISO3166-2-lvl6":"RS-17","state":"Централна Србија","postcode":"32000","country":"Србија","country_code":"rs"},"population":69598,"osm_type":"node","osm_id":254037025,"type":"city","location":[20.3491624,43.8914332],"bbox":[20.1891624,43.7314332,20.5091624,44.0514332],"border":{"name":"Чачак","other_names":{"name:el":"Τσάτσακ","name:en":"Cacak","name:sk":"Čačak","name:sr":"Чачак","name:sr-Latn":"Čačak","name:ar":"تشاتشاك","name:be":"Чачак","name:bg":"Чачак","name:ce":"Чачак","name:de":"Čačak","name:es":"Čačak","name:et":"Čačak","name:fa":"چاچاک","name:fr":"Čačak","name:he":"צ'אצ'אק","name:ja":"チャチャク","name:ko":"차차크","name:lt":"Čačakas","name:lv":"Čačaka","name:mk":"Чачак","name:ml":"ചാച്ചാക്","name:mn":"Чачак","name:os":"Чачак","name:ps":"چاچاک","name:ru":"Чачак","name:sl":"Čačak","name:sq":"Çaçaku","name:th":"ชาชัก","name:tr":"Caçka","name:tt":"Чачак","name:uk":"Чачак","name:ur":"چاچاک","name:zh":"查查克","name:ckb":"چاچاک","name:pnb":"چاچاک","old_name":"Градац","alt_name:hu":"Csacsak","old_name:de":"Zazach","old_name:sr":"Градац","old_name:sr-Latn":"Gradac","alt:en":"Čačak"},"display_name":"Чачак, Град Чачак, Моравички управни округ, Централна Србија, Србија","address":{"city":"Чачак","municipality":"Град Чачак","county":"Моравички управни округ","ISO3166-2-lvl6":"RS-17","state":"Централна Србија","country":"Србија","country_code":"rs"},"population":69598,"osm_type":"relation","osm_id":8055886,"type":"administrative","location":[20.3491624,43.8914332],"bbox":[20.3056768,43.8554463,20.4133735,43.9229938]}}
{"name":"Шабац","other_names":{"name:ar":"شاباتس","name:be":"Шабац","name:bg":"Шабац","name:ce":"Шабац","name:de":"Schabatz","name:el":"Σάμπατς","name:en":"Šabac","name:es":"Šabac","name:et":"Šabac","name:fa":"شاباتس","name:fr":"Šabac","name:he":"שאבאץ","name:hr":"Šabac","name:hu":"Szabács","name:ja":"シャバツ","name:ko":"샤바츠","name:lt":"Šabacas","name:mk":"Шабац","name:ml":"ഷബാറ്റ്സ്","name:ru":"Шабац","name:sl":"Šabac","name:sq":"Sabaku","name:sr":"Шабац","name:tt":"Шабац","name:uk":"Шабаць","name:ur":"شاباتس","name:zh":"沙巴茨","alt_name:sq":"Shabaci","old_name:de":"Schabatz;Sabatsch","old_name:tr":"Bügürdelen;Büğürdelen;Büyürdelen;Böğürtlen","name:sr-Latn":"Šabac"},"display_name":"Шабац, Град Шабац, Мачвански управни округ, Централна Србија, Србија","address":{"city":"Шабац","municipality":"Град Шабац","county":"Мачвански управни округ","ISO3166-2-lvl6":"RS-08","state":"Централна Србија","country":"Србија","country_code":"rs"},"population":51163,"osm_type":"node","osm_id":254036931,"type":"city","location":[19.6953972,44.7571535],"bbox":[19.5353972,44.5971535,19.8553972,44.9171535],"border":[{"name":"Град Шабац","other_names":{"name:en":"City of Šabac","name:hr":"Grad Šabac","name:ru":"Шабац","name:sr":"Град Шабац","int_name":"Grad Sabac","name:sr-Latn":"Grad Šabac"},"display_name":"Град Шабац, Мачвански управни округ, Централна Србија, Србија","address":{"municipality":"Град Шабац","county":"Мачвански управни округ","ISO3166-2-lvl6":"RS-08","state":"Централна Србија","country":"Србија","country_code":"rs"},"population":105432,"osm_type":"relation","osm_id":1762274,"type":"administrative","location":[19.589118501773427,44.701144150000005],"bbox":[19.3005178,44.4759938,19.8518771,44.926718]},{"name":"Шабац","other_names":{"name:sr":"Шабац","int_name":"Sabac","name:sr-Latn":"Šabac","name:ar":"شاباتس","name:be":"Шабац","name:bg":"Шабац","name:ce":"Шабац","name:de":"Schabatz","name:el":"Σάμπατς","name:en":"Šabac","name:es":"Šabac","name:et":"Šabac","name:fa":"شاباتس","name:fr":"Šabac","name:he":"שאבאץ","name:hr":"Šabac","name:hu":"Szabács","name:ja":"シャバツ","name:ko":"샤바츠","name:lt":"Šabacas","name:mk":"Шабац","name:ml":"ഷബാറ്റ്സ്","name:ru":"Шабац","name:sl":"Šabac","name:sq":"Sabaku","name:tt":"Шабац","name:uk":"Шабаць","name:ur":"شاباتس","name:zh":"沙巴茨","alt_name:sq":"Shabaci","old_name:de":"Schabatz;Sabatsch","old_name:tr":"Bügürdelen;Büğürdelen;Büyürdelen;Böğürtlen"},"display_name":"Шабац, Град Шабац, Мачвански управни округ, Централна Србија, 15000, Србија","address":{"city":"Шабац","municipality":"Град Шабац","county":"Мачвански управни округ","ISO3166-2-lvl6":"RS-08","state":"Централна Србија","postcode":"15000","country":"Србија","country_code":"rs"},"population":51163,"osm_type":"relation","osm_id":6923343,"type":"administrative","location":[19.6953972,44.7571535],"bbox":[19.6155021,44.7291063,19.7407018,44.8084081]}]}
