{"name":"Ådals-Lidens distrikt","other_names":{"ref":"321039","name:en":"Ådals-Liden District","name:sv":"Ådals-Lidens distrikt","official_name":"Ådals-Liden"},"display_name":"Ådals-Lidens distrikt, Sollefteå kommun, Västernorrlands län, 880 30, Sverige","address":{"city":"Ådals-Lidens distrikt","municipality":"Sollefteå kommun","county":"Västernorrlands län","ISO3166-2-lvl4":"SE-Y","postcode":"880 30","country":"Sverige","country_code":"se"},"osm_type":"relation","osm_id":5828459,"type":"administrative","location":[16.97004788502751,63.5226036],"bbox":[16.6118462,63.3762173,17.3442578,63.6726098],"inferred_type":"city"}
{"name":"Alnö distrikt","other_names":{"ref":"320011","name:en":"Alnö District","name:sv":"Alnö distrikt","official_name":"Alnö"},"display_name":"Alnö distrikt, Sundsvalls kommun, Västernorrlands län, Sverige","address":{"city":"Alnö distrikt","municipality":"Sundsvalls kommun","county":"Västernorrlands län","ISO3166-2-lvl4":"SE-Y","country":"Sverige","country_code":"se"},"osm_type":"relation","osm_id":3069064,"type":"administrative","location":[17.594556004594324,62.3609306],"bbox":[17.3527336,62.2257174,18.2313736,62.4941486],"inferred_type":"city"}
{"name":"Anundsjö distrikt","other_names":{"ref":"321041","name:en":"Anundsjö District","name:sv":"Anundsjö distrikt","official_name":"Anundsjö"},"display_name":"Anundsjö distrikt, Örnsköldsviks kommun, Västernorrlands län, Sverige","address":{"city":"Anundsjö distrikt","municipality":"Örnsköldsviks kommun","county":"Västernorrlands län","ISO3166-2-lvl4":"SE-Y","country":"Sverige","country_code":"se"},"osm_type":"relation","osm_id":5830250,"type":"administrative","location":[17.814692892581583,63.665008799999995],"bbox":[17.1768236,63.3755257,18.3898433,63.9513562],"inferred_type":"city"}
{"name":"Arnäs distrikt","other_names":{"ref":"321034","name:en":"Arnäs District","name:sv":"Arnäs distrikt","official_name":"Arnäs"},"display_name":"Arnäs distrikt, Örnsköldsviks kommun, Västernorrlands län, Sverige","address":{"city":"Arnäs distrikt","municipality":"Örnsköldsviks kommun","county":"Västernorrlands län","ISO3166-2-lvl4":"SE-Y","country":"Sverige","country_code":"se"},"osm_type":"relation","osm_id":5831338,"type":"administrative","location":[18.85127894691047,63.3355733],"bbox":[18.6346953,63.1858134,19.0789319,63.4872402],"inferred_type":"city"}
{"name":"Attmars distrikt","other_names":{"ref":"320001","name:en":"Attmar District","name:sv":"Attmars distrikt","official_name":"Attmar"},"display_name":"Attmars distrikt, Sundsvalls kommun, Västernorrlands län, Sverige","address":{"city":"Attmars distrikt","municipality":"Sundsvalls kommun","county":"Västernorrlands län","ISO3166-2-lvl4":"SE-Y","country":"Sverige","country_code":"se"},"osm_type":"relation","osm_id":5822085,"type":"administrative","location":[16.881151106119585,62.244217250000005],"bbox":[16.5206703,62.155529,17.238748,62.3288933],"inferred_type":"city"}
{"name":"Bodums distrikt","other_names":{"ref":"321047","name:en":"Bodum District","name:sv":"Bodums distrikt","official_name":"Bodum"},"display_name":"Bodums distrikt, Strömsunds kommun, Jämtlands län, 880 51, Sverige","address":{"city":"Bodums distrikt","municipality":"Strömsunds kommun","county":"Jämtlands län","ISO3166-2-lvl4":"SE-Z","postcode":"880 51","country":"Sverige","country_code":"se"},"osm_type":"relation","osm_id":5829029,"type":"administrative","location":[16.331268431494824,64.01081015],"bbox":[15.9305552,63.8454207,16.7188726,64.1740106],"inferred_type":"city"}
{"name":"Borås","other_names":{"name:he":"בורוס","name:lt":"Burosas","name:ru":"Бурос","name:sv":"Borås","name:uk":"Бурос"},"display_name":"Borås, Borås kommun, Västra Götalands län, 503 31, Sverige","address":{"city":"Borås","municipality":"Borås kommun","county":"Västra Götalands län","ISO3166-2-lvl4":"SE-O","postcode":"503 31","country":"Sverige","country_code":"se"},"population":66273,"osm_type":"node","osm_id":1643360977,"type":"city","location":[12.9407407,57.7210839],"bbox":[12.7807407,57.5610839,13.1007407,57.8810839],"border":{"name":"Borås kommun","other_names":{"ref":"1490","name:de":"Gemeinde Borås","name:sv":"Borås kommun","short_name":"Borås","official_name":"Borås kommun"},"display_name":"Borås kommun, Västra Götalands län, Sverige","address":{"municipality":"Borås kommun","county":"Västra Götalands län","ISO3166-2-lvl4":"SE-O","country":"Sverige","country_code":"se"},"population":114492,"osm_type":"relation","osm_id":935544,"type":"administrative","location":[12.966667,57.75],"bbox":[12.6329684,57.5545812,13.308864,57.9418945]}}
{"name":"Borgsjö distrikt","other_names":{"ref":"320013","name:en":"Borgsjö District","name:sv":"Borgsjö distrikt","official_name":"Borgsjö"},"display_name":"Borgsjö distrikt, Ånge kommun, Västernorrlands län, Sverige","address":{"city":"Borgsjö distrikt","municipality":"Ånge kommun","county":"Västernorrlands län","ISO3166-2-lvl4":"SE-Y","country":"Sverige","country_code":"se"},"osm_type":"relation","osm_id":1382887,"type":"administrative","location":[15.70104566341315,62.5000256],"bbox":[15.245101,62.2876056,16.1133501,62.7128242],"inferred_type":"city"}
{"name":"Boteå distrikt","other_names":{"ref":"321028","name:en":"Boteå District","name:sv":"Boteå distrikt","official_name":"Boteå"},"display_name":"Boteå distrikt, Sollefteå kommun, Västernorrlands län, Sverige","address":{"city":"Boteå distrikt","municipality":"Sollefteå kommun","county":"Västernorrlands län","ISO3166-2-lvl4":"SE-Y","country":"Sverige","country_code":"se"},"osm_type":"relation","osm_id":5831594,"type":"administrative","location":[17.865467632921067,63.1892926],"bbox":[17.5911879,63.1087083,18.0551655,63.275392],"inferred_type":"city"}
{"name":"Dals distrikt","other_names":{"ref":"321015","name:en":"Dal District","name:sv":"Dals distrikt","official_name":"Dal"},"display_name":"Dals distrikt, Kramfors kommun, Västernorrlands län, Sverige","address":{"city":"Dals distrikt","municipality":"Kramfors kommun","county":"Västernorrlands län","ISO3166-2-lvl4":"SE-Y","country":"Sverige","country_code":"se"},"osm_type":"relation","osm_id":5831521,"type":"administrative","location":[17.56774476624694,63.05885065],"bbox":[17.35514,63.0056036,17.6962238,63.1142592],"inferred_type":"city"}
{"name":"Eskilstuna","other_names":{"name:lt":"Eskilstiuna","name:ru":"Эскильстуна","name:sr":"Ескилстуна","name:sv":"Eskilstuna","name:uk":"Ескільстуна","name:sr-Latn":"Eskilstuna"},"display_name":"Eskilstuna, Eskilstuna kommun, Södermanlands län, 632 20, Sverige","address":{"city":"Eskilstuna","municipality":"Eskilstuna kommun","county":"Södermanlands län","ISO3166-2-lvl4":"SE-D","postcode":"632 20","country":"Sverige","country_code":"se"},"population":69948,"osm_type":"node","osm_id":28898845,"type":"city","location":[16.5051474,59.3717379],"bbox":[16.3451474,59.2117379,16.6651474,59.5317379],"border":{"name":"Eskilstuna kommun","other_names":{"ref":"0484","name:lt":"Eskilstiunos komuna","name:sv":"Eskilstuna kommun","short_name":"Eskilstuna","official_name":"Eskilstuna kommun"},"display_name":"Eskilstuna kommun, Södermanlands län, Sverige","address":{"municipality":"Eskilstuna kommun","county":"Södermanlands län","ISO3166-2-lvl4":"SE-D","country":"Sverige","country_code":"se"},"population":107857,"osm_type":"relation","osm_id":935569,"type":"administrative","location":[16.483333,59.333333],"bbox":[15.8646513,59.1452862,16.8473629,59.4922751]}}
{"name":"Falun","other_names":{"name:ru":"Фалун","name:sr":"Фалун","name:sv":"Falun","name:uk":"Фалун","old_name":"Fahlun;Fahlund","name:sr-Latn":"Falun"},"display_name":"Falun, Falu kommun, Dalarnas län, 791 71, Sverige","address":{"city":"Falun","municipality":"Falu kommun","county":"Dalarnas län","ISO3166-2-lvl4":"SE-W","postcode":"791 71","country":"Sverige","country_code":"se"},"population":39492,"osm_type":"node","osm_id":510542745,"type":"city","location":[15.6323059,60.6070068],"bbox":[15.4723059,60.4470068,15.7923059,60.7670068],"border":{"name":"Falu kommun","other_names":{"ref":"2080","name:sv":"Falu kommun","short_name":"Falun","official_name":"Falu kommun"},"display_name":"Falu kommun, Dalarnas län, Sverige","address":{"municipality":"Falu kommun","county":"Dalarnas län","ISO3166-2-lvl4":"SE-W","country":"Sverige","country_code":"se"},"population":59855,"osm_type":"relation","osm_id":300963,"type":"administrative","location":[15.6367599,60.6016167],"bbox":[15.2553856,60.4524557,16.386117,61.0542203]}}
{"name":"Fjällsjö distrikt","other_names":{"ref":"321043","name:en":"Fjällsjö District","name:sv":"Fjällsjö distrikt","official_name":"Fjällsjö"},"display_name":"Fjällsjö distrikt, Strömsunds kommun, Jämtlands län, Sverige","address":{"city":"Fjällsjö distrikt","municipality":"Strömsunds kommun","county":"Jämtlands län","ISO3166-2-lvl4":"SE-Z","country":"Sverige","country_code":"se"},"osm_type":"relation","osm_id":5829031,"type":"administrative","location":[16.230542564793538,63.8160938],"bbox":[15.8584166,63.6530404,16.6574192,63.9752707],"inferred_type":"city"}
{"name":"Gävle","other_names":{"name:he":"יבלה","name:hu":"Gävle","name:lt":"Jevlė","name:ru":"Евле","name:sr":"Јевле","name:sv":"Gävle","name:uk":"Євле","old_name":"Gefle","name:sr-Latn":"Jevle"},"display_name":"Gävle, Gävle kommun, Gävleborgs län, Sverige","address":{"city":"Gävle","municipality":"Gävle kommun","county":"Gävleborgs län","ISO3166-2-lvl4":"SE-X","country":"Sverige","country_code":"se"},"population":102904,"osm_type":"node","osm_id":27432055,"type":"city","location":[17.1467019,60.6750132],"bbox":[16.9867019,60.5150132,17.3067019,60.8350132],"border":[{"name":"Gävle kommun","other_names":{"ref":"2180","name:ru":"коммуна Евле","name:sv":"Gävle kommun","short_name":"Gävle","official_name":"Gävle kommun"},"display_name":"Gävle kommun, Gävleborgs län, Sverige","address":{"municipality":"Gävle kommun","county":"Gävleborgs län","ISO3166-2-lvl4":"SE-X","country":"Sverige","country_code":"se"},"population":103409,"osm_type":"relation","osm_id":278620,"type":"administrative","location":[17.166667,60.7],"bbox":[16.7728424,60.2591502,17.9560426,61.0895874]},{"name":"Gävle","other_names":{"name:he":"יבלה","name:hu":"Gävle","name:lt":"Jevlė","name:ru":"Евле","name:sv":"Gävle","old_name":"Gefle","name:sr":"Јевле","name:uk":"Євле","name:sr-Latn":"Jevle"},"display_name":"Gävle, Gävle kommun, Gävleborgs län, Sverige","address":{"city":"Gävle","municipality":"Gävle kommun","county":"Gävleborgs län","ISO3166-2-lvl4":"SE-X","country":"Sverige","country_code":"se"},"population":100000,"osm_type":"relation","osm_id":10663995,"type":"administrative","location":[17.1467019,60.6750132],"bbox":[17.0535868,60.6386513,17.2900969,60.737118]}]}
{"name":"Gideå distrikt","other_names":{"ref":"321040","name:en":"Gideå District","name:sv":"Gideå distrikt"},"display_name":"Gideå distrikt, Örnsköldsviks kommun, Västernorrlands län, Sverige","address":{"city":"Gideå distrikt","municipality":"Örnsköldsviks kommun","county":"Västernorrlands län","ISO3166-2-lvl4":"SE-Y","country":"Sverige","country_code":"se"},"osm_type":"relation","osm_id":1410104,"type":"administrative","location":[18.915408150399053,63.54479535],"bbox":[18.6422484,63.4147506,19.1914833,63.6741339],"inferred_type":"city"}
{"name":"Göteborg","other_names":{"name:af":"Gotenburg","name:am":"ዬተቦርይ","name:ar":"غوتنبرغ","name:az":"Göteborq","name:be":"Гётэбарг","name:bg":"Гьотеборг","name:bn":"গোথেনবার্গ","name:br":"Göteborg","name:bs":"Geteborg","name:ca":"Göteborg","name:ce":"Гётеборг","name:co":"Göteborg","name:cs":"Göteborg","name:cv":"Гётеборг","name:cy":"Göteborg","name:da":"Göteborg","name:de":"Göteborg","name:ee":"Göteborg","name:el":"Γκέτεμποργκ","name:en":"Gothenburg","name:eo":"Göteborg","name:es":"Gotemburgo","name:et":"Göteborg","name:eu":"Göteborg","name:fa":"یوتبری","name:fi":"Göteborg","name:fj":"Gothenburg","name:fo":"Göteborg","name:fr":"Göteborg","name:fy":"Goateboarch","name:ga":"Göteborg","name:gd":"Göteborg","name:gl":"Gotemburgo","name:he":"גטבורג","name:hi":"गोथनबर्ग","name:hr":"Göteborg","name:hu":"Göteborg","name:hy":"Գյոթեբորգ","name:ia":"Göteborg","name:id":"Göteborg","name:ie":"Göteborg","name:io":"Göteborg","name:is":"Gautaborg","name:it":"Göteborg","name:iu":"ᐃᐅᑕᐳᕆ","name:ja":"イェーテボリ","name:jv":"Göteborg","name:ka":"გეტებორგი","name:kk":"Гётеборг","name:ko":"예테보리","name:ku":"Göteborg","name:kw":"Göteborg","name:ky":"Гөтеборг","name:la":"Gothoburgum","name:lb":"Göteborg","name:li":"Göteborg","name:lt":"Geteborgas","name:lv":"Gēteborga","name:mi":"Kotenepara","name:mk":"Гетеборг","name:ml":"ഗോഥെൻബർഗ്","name:mn":"Гётеборг","name:mr":"योहतेबोर्य","name:ms":"Gothenburg","name:my":"ဂိုသန်ဘာ့ဂ်မြို့","name:nl":"Göteborg (stad)","name:nn":"Göteborg","name:no":"Göteborg","name:os":"Гётеборг","name:pl":"Göteborg","name:pt":"Gotemburgo","name:qu":"Gotemburg","name:ro":"Göteborg","name:ru":"Гётеборг","name:sc":"Göteborg","name:sd":"گوٽيبورگ","name:se":"Göteborg","name:sh":"Göteborg","name:sk":"Göteborg","name:sl":"Göteborg","name:sn":"Gothenburg","name:so":"Göteborg","name:sq":"Göteborg","name:sr":"Гетеборг","name:su":"Gothenburg","name:sv":"Göteborg","name:sw":"Göteborg","name:tg":"Гӯтебург","name:th":"กอเทนเบิร์ก","name:tr":"Göteborg","name:tt":"Гөтеборг","name:ug":"گوتېنبۇرگ","name:uk":"Гетеборг","name:ur":"یوہتیبوری","name:uz":"Gyoteborg","name:vi":"Göteborg","name:vo":"Göteborg","name:yi":"געטעבארג","name:zh":"哥德堡","name:arz":"جوتنبرج","name:ast":"Gotemburgu","name:bar":"Gotnburg","name:ckb":"یۆتۆبۆری","name:csb":"Göteborg","name:dsb":"Göteborg","name:frr":"Göteborg","name:hsb":"Göteborg","name:kaa":"Gyoteborg","name:lij":"Göteborg","name:lmo":"Göteborg","name:min":"Göteborg/Gothenburg","name:nds":"Göteborg","name:pms":"Göteborg","name:rue":"Гетеборг","name:sco":"Gothenburg","name:szl":"Göteborg","name:vec":"Göteborg","name:vep":"Göteborg","name:war":"Gothenburg","name:wuu":"哥德堡","short_name":"Gbg","old_name:de":"Gotenburg"},"display_name":"Göteborg, Göteborgs Stad, Västra Götalands län, 411 10, Sverige","address":{"city":"Göteborg","municipality":"Göteborgs Stad","county":"Västra Götalands län","ISO3166-2-lvl4":"SE-O","postcode":"411 10","country":"Sverige","country_code":"se"},"population":607882,"osm_type":"node","osm_id":25930131,"type":"city","location":[11.9670171,57.7072326],"bbox":[11.8070171,57.5472326,12.1270171,57.8672326],"border":{"name":"Göteborgs Stad","other_names":{"ref":"1480","name:de":"Gemeinde Göteborg","name:el":"Γκέτεμποργκ κοινότητα","name:fi":"Göteborgin kunta","name:sv":"Göteborgs Stad","alt_name":"Göteborgs kommun","short_name":"Göteborg","official_name":"Göteborgs Stad"},"display_name":"Göteborgs Stad, Västra Götalands län, Sverige","address":{"municipality":"Göteborgs Stad","county":"Västra Götalands län","ISO3166-2-lvl4":"SE-O","country":"Sverige","country_code":"se"},"population":595574,"osm_type":"relation","osm_id":935611,"type":"administrative","location":[11.9727685,57.710083],"bbox":[11.231564,57.4996624,12.2416073,57.8660032]}}
{"name":"Gudmundrå distrikt","other_names":{"ref":"321008","name:en":"Gudmundrå District","name:sv":"Gudmundrå distrikt","official_name":"Gudmundrå"},"display_name":"Gudmundrå distrikt, Kramfors kommun, Västernorrlands län, Sverige","address":{"city":"Gudmundrå distrikt","municipality":"Kramfors kommun","county":"Västernorrlands län","ISO3166-2-lvl4":"SE-Y","country":"Sverige","country_code":"se"},"osm_type":"relation","osm_id":5831946,"type":"administrative","location":[17.624011013560292,62.905561399999996],"bbox":[17.3267819,62.8224114,17.9071569,62.9867532],"inferred_type":"city"}
{"name":"Halmstad","other_names":{"name:de":"Halmstadt","name:he":"האלמסטד","name:la":"Halmostadium","name:lt":"Halmstadas","name:ru":"Хальмстад","name:sr":"Халмстад","name:sv":"Halmstad","name:uk":"Гальмстад","name:sr-Latn":"Halmstad"},"display_name":"Halmstad, Halmstads kommun, Hallands län, 302 42, Sverige","address":{"city":"Halmstad","municipality":"Halmstads kommun","county":"Hallands län","ISO3166-2-lvl4":"SE-N","postcode":"302 42","country":"Sverige","country_code":"se"},"population":55688,"osm_type":"node","osm_id":1594669682,"type":"city","location":[12.8574827,56.6739826],"bbox":[12.6974827,56.5139826,13.0174827,56.8339826],"border":{"name":"Halmstads kommun","other_names":{"ref":"1380","name:sv":"Halmstads kommun","short_name":"Halmstad","official_name":"Halmstads kommun"},"display_name":"Halmstads kommun, Hallands län, Sverige","address":{"municipality":"Halmstads kommun","county":"Hallands län","ISO3166-2-lvl4":"SE-N","country":"Sverige","country_code":"se"},"population":105173,"osm_type":"relation","osm_id":935442,"type":"administrative","location":[12.8668829,56.6999786],"bbox":[12.240842,56.5423742,13.3251934,56.9444475]}}
{"name":"Härnösands domkyrkodistrikt","other_names":{"ref":"321002","name:sv":"Härnösands domkyrkodistrikt"},"display_name":"Härnösands domkyrkodistrikt, Härnösands kommun, Västernorrlands län, Sverige","address":{"city":"Härnösands domkyrkodistrikt","municipality":"Härnösands kommun","county":"Västernorrlands län","ISO3166-2-lvl4":"SE-Y","country":"Sverige","country_code":"se"},"osm_type":"relation","osm_id":5832018,"type":"administrative","location":[18.21046054863234,62.538164300000005],"bbox":[17.8908358,62.437908,18.5159372,62.65073],"inferred_type":"city"}
{"name":"Hässjö distrikt","other_names":{"ref":"320016","name:en":"Hässjö District","name:sv":"Hässjö distrikt","official_name":"Hässjö"},"display_name":"Hässjö distrikt, Timrå kommun, Västernorrlands län, Sverige","address":{"city":"Hässjö distrikt","municipality":"Timrå kommun","county":"Västernorrlands län","ISO3166-2-lvl4":"SE-Y","country":"Sverige","country_code":"se"},"osm_type":"relation","osm_id":5826199,"type":"administrative","location":[17.59664039143268,62.5094835],"bbox":[17.370892,62.3943895,18.2849976,62.6251771],"inferred_type":"city"}
{"name":"Haverö distrikt","other_names":{"ref":"320006","name:en":"Haverö District","name:sv":"Haverö distrikt","official_name":"Haverö"},"display_name":"Haverö distrikt, Ånge kommun, Västernorrlands län, Sverige","address":{"city":"Haverö distrikt","municipality":"Ånge kommun","county":"Västernorrlands län","ISO3166-2-lvl4":"SE-Y","country":"Sverige","country_code":"se"},"osm_type":"relation","osm_id":1382888,"type":"administrative","location":[15.180829086087252,62.4154268],"bbox":[14.7803342,62.2500202,15.6131514,62.6008267],"inferred_type":"city"}
{"name":"Helsingborg","other_names":{"name:et":"Helsingborg","name:he":"הלסינגבורג","name:hu":"Helsingborg","name:is":"Helsingjaborg","name:lt":"Helsingborgas","name:mk":"Хелсингборг","name:ru":"Хельсингборг","name:sr":"Хелсингборг","name:sv":"Helsingborg","name:uk":"Гельсінгборг","name:zh":"赫尔辛堡","old_name":"Hälsingborg","name:sr-Latn":"Helsingborg"},"display_name":"Helsingborg, Helsingborgs kommun, Skåne län, 252 68, Sverige","address":{"city":"Helsingborg","municipality":"Helsingborgs kommun","county":"Skåne län","ISO3166-2-lvl4":"SE-M","postcode":"252 68","country":"Sverige","country_code":"se"},"population":93838,"osm_type":"node","osm_id":15412058,"type":"city","location":[12.703706,56.0442098],"bbox":[12.543706,55.8842098,12.863706,56.2042098],"border":{"name":"Helsingborgs kommun","other_names":{"ref":"1283","name:sv":"Helsingborgs kommun","short_name":"Helsingborg","official_name":"Helsingborgs kommun"},"display_name":"Helsingborgs kommun, Skåne län, Sverige","address":{"municipality":"Helsingborgs kommun","county":"Skåne län","ISO3166-2-lvl4":"SE-M","country":"Sverige","country_code":"se"},"population":150728,"osm_type":"relation","osm_id":935560,"type":"administrative","location":[12.75,56.083333],"bbox":[12.5396118,55.9170393,12.9891587,56.2621188]}}
{"name":"Hemsö distrikt","other_names":{"ref":"321005","name:en":"Hemsö District","name:sv":"Hemsö distrikt","official_name":"Hemsö"},"display_name":"Hemsö distrikt, Härnösands kommun, Västernorrlands län, Sverige","address":{"city":"Hemsö distrikt","municipality":"Härnösands kommun","county":"Västernorrlands län","ISO3166-2-lvl4":"SE-Y","country":"Sverige","country_code":"se"},"osm_type":"relation","osm_id":5832001,"type":"administrative","location":[18.17055027584165,62.6824743],"bbox":[17.9902625,62.5842139,18.5894397,62.7725008],"inferred_type":"city"}
{"name":"Högsjö distrikt","other_names":{"ref":"321007","name:en":"Högsjö District","name:sv":"Högsjö distrikt","official_name":"Högsjö"},"display_name":"Högsjö distrikt, Härnösands kommun, Västernorrlands län, 870 16, Sverige","address":{"city":"Högsjö distrikt","municipality":"Härnösands kommun","county":"Västernorrlands län","ISO3166-2-lvl4":"SE-Y","postcode":"870 16","country":"Sverige","country_code":"se"},"osm_type":"relation","osm_id":5831994,"type":"administrative","location":[17.8210115970139,62.7897532],"bbox":[17.4390824,62.7055192,18.0545926,62.8712259],"inferred_type":"city"}
{"name":"Indals-Lidens kommundel","other_names":{"ref":"NYKO 8","name:sv":"Indals-Lidens kommundel"},"display_name":"Indals-Lidens kommundel, Sundsvalls kommun, Västernorrlands län, Sverige","address":{"city":"Indals-Lidens kommundel","municipality":"Sundsvalls kommun","county":"Västernorrlands län","ISO3166-2-lvl4":"SE-Y","country":"Sverige","country_code":"se"},"osm_type":"relation","osm_id":2776032,"type":"administrative","location":[16.67531705965215,62.72983385],"bbox":[16.3697187,62.513822,17.2731042,62.9467954],"inferred_type":"city"}
{"name":"Jönköping","other_names":{"name:la":"Junecopia","name:ru":"Йёнчёпинг","name:sr":"Јенћепинг","name:sv":"Jönköping","name:uk":"Єнчепінг","name:zh":"延雪平","short_name":"Jkpg","name:sr-Latn":"Jenćeping"},"display_name":"Jönköping, Jönköpings kommun, Jönköpings län, 551 86, Sverige","address":{"city":"Jönköping","municipality":"Jönköpings kommun","county":"Jönköpings län","ISO3166-2-lvl4":"SE-F","postcode":"551 86","country":"Sverige","country_code":"se"},"population":84423,"osm_type":"node","osm_id":191664748,"type":"city","location":[14.165719,57.7825634],"bbox":[14.005719,57.6225634,14.325719,57.9425634],"border":{"name":"Jönköpings kommun","other_names":{"ref":"0680","name:sv":"Jönköpings kommun","short_name":"Jönköping","official_name":"Jönköpings kommun"},"display_name":"Jönköpings kommun, Jönköpings län, Sverige","address":{"municipality":"Jönköpings kommun","county":"Jönköpings län","ISO3166-2-lvl4":"SE-F","country":"Sverige","country_code":"se"},"population":144947,"osm_type":"relation","osm_id":935495,"type":"administrative","location":[14.133333,57.783333],"bbox":[13.6365223,57.5390886,14.6535194,58.1910439]}}
{"name":"Kalmar","other_names":{"name:la":"Calmaria","name:lt":"Kalmaras","name:ru":"Кальмар","name:sr":"Калмар","name:sv":"Kalmar","name:uk":"Кальмар","old_name":"Calmar","name:sr-Latn":"Kalmar"},"display_name":"Kalmar, Kalmar kommun, Kalmar län, 392 31, Sverige","address":{"city":"Kalmar","municipality":"Kalmar kommun","county":"Kalmar län","ISO3166-2-lvl4":"SE-H","postcode":"392 31","country":"Sverige","country_code":"se"},"population":35170,"osm_type":"node","osm_id":1607319731,"type":"city","location":[16.3662382,56.6628826],"bbox":[16.2062382,56.5028826,16.5262382,56.8228826],"border":{"name":"Kalmar kommun","other_names":{"ref":"0880","name:lt":"Kalmaro savivaldybė","name:sv":"Kalmar kommun","short_name":"Kalmar","official_name":"Kalmar kommun"},"display_name":"Kalmar kommun, Kalmar län, Sverige","address":{"municipality":"Kalmar kommun","county":"Kalmar län","ISO3166-2-lvl4":"SE-H","country":"Sverige","country_code":"se"},"population":71979,"osm_type":"relation","osm_id":935466,"type":"administrative","location":[16.333056,56.666667],"bbox":[15.741359,56.4255722,16.5563002,56.931681]}}
{"name":"Karlskrona","other_names":{"name:he":"קרלסקרונה","name:is":"Karlskróna","name:lt":"Karlskruna","name:ru":"Карлскруна","name:sr":"Карлскрона","name:sv":"Karlskrona","name:uk":"Карлскруна","name:sr-Latn":"Karlskrona"},"display_name":"Karlskrona, Karlskrona kommun, Blekinge län, 371 30, Sverige","address":{"city":"Karlskrona","municipality":"Karlskrona kommun","county":"Blekinge län","ISO3166-2-lvl4":"SE-K","postcode":"371 30","country":"Sverige","country_code":"se"},"population":35212,"osm_type":"node","osm_id":1599473536,"type":"city","location":[15.5866422,56.1621073],"bbox":[15.4266422,56.0021073,15.7466422,56.3221073],"border":{"name":"Karlskrona kommun","other_names":{"ref":"1080","name:de":"Gemeinde Karlskrona","name:lt":"Karlskrunos savivaldybė","name:sv":"Karlskrona kommun","short_name":"Karlskrona","official_name":"Karlskrona kommun"},"display_name":"Karlskrona kommun, Blekinge län, Sverige","address":{"municipality":"Karlskrona kommun","county":"Blekinge län","ISO3166-2-lvl4":"SE-K","country":"Sverige","country_code":"se"},"population":66704,"osm_type":"relation","osm_id":935548,"type":"administrative","location":[15.666667,56.25],"bbox":[15.2306575,55.7466927,16.2236711,56.5035055]}}
{"name":"Karlstad","other_names":{"name:fr":"Karlstad","name:he":"קרלסטד","name:hu":"Karlstad","name:la":"Carolostadium Suevicum","name:lt":"Karlstadas","name:lv":"Kārlstāde","name:ru":"Карлстад","name:sr":"Карлстад","name:sv":"Karlstad","name:uk":"Карлстад","name:gsw":"Karlstad","name:sr-Latn":"Karlstad"},"display_name":"Karlstad, Karlstads kommun, Värmlands län, 652 24, Sverige","address":{"city":"Karlstad","municipality":"Karlstads kommun","county":"Värmlands län","ISO3166-2-lvl4":"SE-S","postcode":"652 24","country":"Sverige","country_code":"se"},"population":62797,"osm_type":"node","osm_id":25975135,"type":"city","location":[13.5027631,59.3809146],"bbox":[13.3427631,59.2209146,13.6627631,59.5409146],"border":{"name":"Karlstads kommun","other_names":{"ref":"1780","name:sv":"Karlstads kommun","short_name":"Karlstad","official_name":"Karlstads kommun"},"display_name":"Karlstads kommun, Värmlands län, Sverige","address":{"municipality":"Karlstads kommun","county":"Värmlands län","ISO3166-2-lvl4":"SE-S","country":"Sverige","country_code":"se"},"population":96392,"osm_type":"relation","osm_id":935514,"type":"administrative","location":[13.8,59.516667],"bbox":[13.0890512,59.16623,14.0312413,59.7738858]}}
{"name":"Linköping","other_names":{"name:ar":"لينشوبينغ","name:be":"Лінчэпінг","name:bg":"Линшьопинг","name:el":"Λινκόπινγκ","name:fa":"لینشوپینگ","name:hy":"Լինչոպինգ","name:ja":"リンシェーピング","name:ka":"ლინჩეპინგი","name:ko":"린셰핑","name:la":"Lincopia","name:lt":"Linšiopingas","name:lv":"Linšēpinga","name:mk":"Линшепинг","name:ru":"Линчёпинг","name:sr":"Линћепинг","name:sv":"Linköping","name:th":"ลินเชอปิง","name:uk":"Лінчепінг","name:zh":"林雪平"},"display_name":"Linköping, Linköpings kommun, Östergötlands län, 582 23, Sverige","address":{"city":"Linköping","municipality":"Linköpings kommun","county":"Östergötlands län","ISO3166-2-lvl4":"SE-E","postcode":"582 23","country":"Sverige","country_code":"se"},"population":116851,"osm_type":"node","osm_id":20975578,"type":"city","location":[15.6245252,58.4098135],"bbox":[15.4645252,58.2498135,15.7845252,58.5698135],"border":{"name":"Linköpings kommun","other_names":{"ref":"0580","name:sv":"Linköpings kommun","short_name":"Linköping","official_name":"Linköpings kommun"},"display_name":"Linköpings kommun, Östergötlands län, Sverige","address":{"municipality":"Linköpings kommun","county":"Östergötlands län","ISO3166-2-lvl4":"SE-E","country":"Sverige","country_code":"se"},"population":167472,"osm_type":"relation","osm_id":935467,"type":"administrative","location":[15.6001215,58.3997329],"bbox":[15.2555505,58.0629275,16.0752723,58.652192]}}
{"name":"Luleå","other_names":{"name:fi":"Luulaja","name:fr":"Luleå","name:lt":"Liuleo","name:ru":"Лулео","name:se":"Luleju","name:sr":"Лулео","name:sv":"Luleå","name:uk":"Лулео","name:fit":"Luulaja","name:gsw":"Lùleà","name:sju":"Lüvllege","name:smj":"Julevu"},"display_name":"Luleå, Luleå kommun, Norrbottens län, 971 28, Sverige","address":{"city":"Luleå","municipality":"Luleå kommun","county":"Norrbottens län","ISO3166-2-lvl4":"SE-BD","postcode":"971 28","country":"Sverige","country_code":"se"},"population":73864,"osm_type":"node","osm_id":27559814,"type":"city","location":[22.1459535,65.5831187],"bbox":[21.9859535,65.4231187,22.3059535,65.7431187],"border":{"name":"Luleå kommun","other_names":{"ref":"2580","name:fi":"Luulajan kunta","name:sv":"Luleå kommun","short_name":"Luleå","official_name":"Luleå kommun"},"display_name":"Luleå kommun, Norrbottens län, Sverige","address":{"municipality":"Luleå kommun","county":"Norrbottens län","ISO3166-2-lvl4":"SE-BD","country":"Sverige","country_code":"se"},"population":79249,"osm_type":"relation","osm_id":935482,"type":"administrative","location":[22.166667,65.683333],"bbox":[21.3356852,65.0695856,23.1608248,66.2831414]}}
{"name":"Lund","other_names":{"name:da":"Lund","name:ja":"ルンド","name:ko":"룬드","name:nn":"Lund","name:no":"Lund","name:ru":"Лунд","name:sv":"Lund","name:uk":"Лунд","name:zh":"隆德","name:yue":"隆德"},"display_name":"Lund, Lunds kommun, Skåne län, Sverige","address":{"city":"Lund","municipality":"Lunds kommun","county":"Skåne län","ISO3166-2-lvl4":"SE-M","country":"Sverige","country_code":"se"},"population":82800,"osm_type":"node","osm_id":27323968,"type":"city","location":[13.1929449,55.7029296],"bbox":[13.0329449,55.5429296,13.3529449,55.8629296],"border":[{"name":"Lunds kommun","other_names":{"ref":"1281","name:en":"Lund Municipality","name:sv":"Lunds kommun","short_name":"Lund","official_name":"Lunds kommun","official_name:en":"Lund Municipality"},"display_name":"Lunds kommun, Skåne län, Sverige","address":{"municipality":"Lunds kommun","county":"Skåne län","ISO3166-2-lvl4":"SE-M","country":"Sverige","country_code":"se"},"population":128378,"osm_type":"relation","osm_id":935666,"type":"administrative","location":[13.320832,55.6932601],"bbox":[13.1114633,55.5249771,13.6173814,55.793989]},{"name":"Lund","other_names":{"name:is":"Lundur","name:ru":"Лунд","name:sv":"Lund","name:da":"Lund","name:ja":"ルンド","name:ko":"룬드","name:nn":"Lund","name:no":"Lund","name:uk":"Лунд","name:zh":"隆德","name:yue":"隆德"},"display_name":"Lund, Lunds kommun, Skåne län, Sverige","address":{"city":"Lund","municipality":"Lunds kommun","county":"Skåne län","ISO3166-2-lvl4":"SE-M","country":"Sverige","country_code":"se"},"population":82800,"osm_type":"relation","osm_id":2468628,"type":"administrative","location":[13.1929449,55.7029296],"bbox":[13.1401706,55.678392,13.263408,55.7412932]}]}
{"name":"Malmö","other_names":{"name:da":"Malmø","name:de":"Malmö","name:en":"Malmö","name:fr":"Malmö","name:he":"מאלמה","name:hu":"Malmö","name:ja":"マルメ","name:ko":"말뫼","name:lt":"Malmė","name:mk":"Малме","name:ro":"Malmö","name:ru":"Мальмё","name:sr":"Малме","name:sv":"Malmö","name:uk":"Мальме","name:yi":"מאלמע","name:zh":"马尔默","name:gsw":"Malmö","name:yue":"馬列麥","alt_name:he":"מאלמו","name:sr-Latn":"Malme"},"display_name":"Malmö, Malmö kommun, Skåne län, Sverige","address":{"city":"Malmö","municipality":"Malmö kommun","county":"Skåne län","ISO3166-2-lvl4":"SE-M","country":"Sverige","country_code":"se"},"population":316588,"osm_type":"node","osm_id":26804505,"type":"city","location":[13.0001566,55.6052931],"bbox":[12.8401566,55.4452931,13.1601566,55.7652931],"border":[{"name":"Malmö kommun","other_names":{"ref":"1280","name:sv":"Malmö kommun","alt_name":"Malmö stad","short_name":"Malmö","official_name":"Malmö kommun"},"display_name":"Malmö kommun, Skåne län, Sverige","address":{"municipality":"Malmö kommun","county":"Skåne län","ISO3166-2-lvl4":"SE-M","country":"Sverige","country_code":"se"},"population":356670,"osm_type":"relation","osm_id":935416,"type":"administrative","location":[13.0027658,55.5836011],"bbox":[12.7171358,55.4805864,13.1516847,55.6797247]},{"name":"Malmö","other_names":{"name:da":"Malmø","name:de":"Malmö","name:en":"Malmö","name:fr":"Malmö ou Malmoe","name:he":"מאלמה","name:hu":"Malmö","name:is":"Malmö","name:ja":"マルメ","name:ko":"말뫼","name:lt":"Malmė","name:mk":"Малме","name:ru":"Мальмё","name:sv":"Malmö","name:yi":"מאלמע","name:zh":"马尔默","name:yue":"馬列麥","alt_name:he":"מאלמו","alt_name:is":"Málmhaugar","old_name:fr":"Malmœ","name:ro":"Malmö","name:sr":"Малме","name:uk":"Мальме","name:gsw":"Malmö","name:sr-Latn":"Malme","alt:fr":"Malmö"},"display_name":"Malmö, Malmö kommun, Skåne län, Sverige","address":{"city":"Malmö","municipality":"Malmö kommun","county":"Skåne län","ISO3166-2-lvl4":"SE-M","country":"Sverige","country_code":"se"},"population":316588,"osm_type":"relation","osm_id":10663667,"type":"administrative","location":[13.0001566,55.6052931],"bbox":[12.9109073,55.5479606,13.1295052,55.6520233]}]}
{"name":"Mo distrikt","other_names":{"ref":"321036","name:en":"Mo District","name:sv":"Mo distrikt","official_name":"Mo"},"display_name":"Mo distrikt, Örnsköldsviks kommun, Västernorrlands län, Sverige","address":{"city":"Mo distrikt","municipality":"Örnsköldsviks kommun","county":"Västernorrlands län","ISO3166-2-lvl4":"SE-Y","country":"Sverige","country_code":"se"},"osm_type":"relation","osm_id":5830185,"type":"administrative","location":[18.452871890924186,63.44582685],"bbox":[18.2512044,63.3450473,18.5869735,63.5314961],"inferred_type":"city"}
{"name":"Nätra distrikt","other_names":{"ref":"321025","name:en":"Nätra District","name:sv":"Nätra distrikt","official_name":"Nätra"},"display_name":"Nätra distrikt, Örnsköldsviks kommun, Västernorrlands län, Sverige","address":{"city":"Nätra distrikt","municipality":"Örnsköldsviks kommun","county":"Västernorrlands län","ISO3166-2-lvl4":"SE-Y","country":"Sverige","country_code":"se"},"osm_type":"relation","osm_id":5830164,"type":"administrative","location":[18.913803396710108,63.047933650000004],"bbox":[18.1517744,62.834241,19.328886,63.281135],"inferred_type":"city"}
{"name":"Norrköping","other_names":{"name:he":"נורשפינג","name:hu":"Norrköping","name:la":"Norcopia","name:ru":"Норрчёпинг","name:sv":"Norrköping","name:uk":"Норрчепінг","name:yi":"נארשעפינג","name:zh":"诺尔雪平"},"display_name":"Norrköping, Norrköpings kommun, Östergötlands län, 602 27, Sverige","address":{"city":"Norrköping","municipality":"Norrköpings kommun","county":"Östergötlands län","ISO3166-2-lvl4":"SE-E","postcode":"602 27","country":"Sverige","country_code":"se"},"population":98088,"osm_type":"node","osm_id":27431648,"type":"city","location":[16.1903511,58.5909124],"bbox":[16.0303511,58.4309124,16.3503511,58.7509124],"border":{"name":"Norrköpings kommun","other_names":{"ref":"0581","name:sv":"Norrköpings kommun","short_name":"Norrköping","official_name":"Norrköpings kommun"},"display_name":"Norrköpings kommun, Östergötlands län, Sverige","address":{"municipality":"Norrköpings kommun","county":"Östergötlands län","ISO3166-2-lvl4":"SE-E","country":"Sverige","country_code":"se"},"population":145163,"osm_type":"relation","osm_id":935447,"type":"administrative","location":[16.333333,58.583333],"bbox":[15.6176019,58.3989812,17.5692784,58.8539615]}}
{"name":"Nyköping","other_names":{"name:lt":"Nišiopingas","name:ru":"Нючёпинг","name:sv":"Nyköping","name:uk":"Нючепінг","name:zh":"尼雪平"},"display_name":"Nyköping, Nyköpings kommun, Södermanlands län, 611 33, Sverige","address":{"city":"Nyköping","municipality":"Nyköpings kommun","county":"Södermanlands län","ISO3166-2-lvl4":"SE-D","postcode":"611 33","country":"Sverige","country_code":"se"},"population":29891,"osm_type":"node","osm_id":11094836,"type":"city","location":[17.0120656,58.7545409],"bbox":[16.8520656,58.5945409,17.1720656,58.9145409],"border":{"name":"Nyköpings kommun","other_names":{"ref":"0480","name:sv":"Nyköpings kommun","short_name":"Nyköping","official_name":"Nyköpings kommun"},"display_name":"Nyköpings kommun, Södermanlands län, Sverige","address":{"municipality":"Nyköpings kommun","county":"Södermanlands län","ISO3166-2-lvl4":"SE-D","country":"Sverige","country_code":"se"},"population":58012,"osm_type":"relation","osm_id":935516,"type":"administrative","location":[17.166667,58.916667],"bbox":[16.2689173,58.4563167,17.8747191,59.030544]}}
{"name":"Örebro","other_names":{"name:he":"ארברו","name:lt":"Erebru","name:ru":"Эребру","name:sr":"Еребро","name:sv":"Örebro","name:uk":"Еребру","name:yi":"ערעברו","old_name":"Ørabro","name:sr-Latn":"Erebro"},"display_name":"Örebro, Örebro kommun, Örebro län, 703 61, Sverige","address":{"city":"Örebro","municipality":"Örebro kommun","county":"Örebro län","ISO3166-2-lvl4":"SE-T","postcode":"703 61","country":"Sverige","country_code":"se"},"population":98237,"osm_type":"node","osm_id":27593232,"type":"city","location":[15.2151181,59.2747287],"bbox":[15.0551181,59.1147287,15.3751181,59.4347287],"border":{"name":"Örebro kommun","other_names":{"ref":"1880","name:sv":"Örebro kommun","short_name":"Örebro","official_name":"Örebro kommun"},"display_name":"Örebro kommun, Örebro län, Sverige","address":{"municipality":"Örebro kommun","county":"Örebro län","ISO3166-2-lvl4":"SE-T","country":"Sverige","country_code":"se"},"population":157919,"osm_type":"relation","osm_id":935628,"type":"administrative","location":[15.416667,59.266667],"bbox":[14.7605937,58.956517,15.7982404,59.5237523]}}
{"name":"Östersund","other_names":{"name:lt":"Estešundas","name:ru":"Эстерсунд","name:sr":"Естерсунд","name:sv":"Östersund","name:uk":"Естерсунд","name:sma":"Staare"},"display_name":"Östersund, Östersunds kommun, Jämtlands län, 831 86, Sverige","address":{"city":"Östersund","municipality":"Östersunds kommun","county":"Jämtlands län","ISO3166-2-lvl4":"SE-Z","postcode":"831 86","country":"Sverige","country_code":"se"},"population":44000,"osm_type":"node","osm_id":27558697,"type":"city","location":[14.6357061,63.1793655],"bbox":[14.4757061,63.0193655,14.7957061,63.3393655],"border":{"name":"Östersunds kommun","other_names":{"ref":"2380","name:sv":"Östersunds kommun","name:sma":"Staaren tjïelte","short_name":"Östersund","official_name":"Östersunds kommun"},"display_name":"Östersunds kommun, Jämtlands län, Sverige","address":{"municipality":"Östersunds kommun","county":"Jämtlands län","ISO3166-2-lvl4":"SE-Z","country":"Sverige","country_code":"se"},"population":64642,"osm_type":"relation","osm_id":935577,"type":"administrative","location":[14.916667,63.25],"bbox":[14.2652319,62.6661489,15.5558896,63.5949668]}}
{"name":"Överlännäs distrikt","other_names":{"ref":"321023","name:en":"Överlännäs District","name:sv":"Överlännäs distrikt","official_name":"Överlännäs"},"display_name":"Överlännäs distrikt, Sollefteå kommun, Västernorrlands län, Sverige","address":{"city":"Överlännäs distrikt","municipality":"Sollefteå kommun","county":"Västernorrlands län","ISO3166-2-lvl4":"SE-Y","country":"Sverige","country_code":"se"},"osm_type":"relation","osm_id":5831513,"type":"administrative","location":[17.64075540495196,63.18155085],"bbox":[17.4100465,63.0846648,17.7542361,63.2956779],"inferred_type":"city"}
{"name":"Ramsele distrikt","other_names":{"ref":"321038","name:en":"Ramsele District","name:sv":"Ramsele distrikt"},"display_name":"Ramsele distrikt, Sollefteå kommun, Västernorrlands län, 880 40, Sverige","address":{"city":"Ramsele distrikt","municipality":"Sollefteå kommun","county":"Västernorrlands län","ISO3166-2-lvl4":"SE-Y","postcode":"880 40","country":"Sverige","country_code":"se"},"osm_type":"relation","osm_id":5828455,"type":"administrative","location":[16.320649963509055,63.52644315],"bbox":[15.79216,63.3371314,16.7625649,63.7140088],"inferred_type":"city"}
{"name":"Sånga distrikt","other_names":{"ref":"321022","name:en":"Sånga District","name:sv":"Sånga distrikt","official_name":"Sånga"},"display_name":"Sånga distrikt, Sollefteå kommun, Västernorrlands län, Sverige","address":{"city":"Sånga distrikt","municipality":"Sollefteå kommun","county":"Västernorrlands län","ISO3166-2-lvl4":"SE-Y","country":"Sverige","country_code":"se"},"osm_type":"relation","osm_id":5828522,"type":"administrative","location":[17.52542467996109,63.1844209],"bbox":[17.4022074,63.0824902,17.5855063,63.2875671],"inferred_type":"city"}
{"name":"Sättna distrikt","other_names":{"ref":"320014","name:en":"Sättna District","name:sv":"Sättna distrikt","official_name":"Sättna"},"display_name":"Sättna distrikt, Sundsvalls kommun, Västernorrlands län, Sverige","address":{"city":"Sättna distrikt","municipality":"Sundsvalls kommun","county":"Västernorrlands län","ISO3166-2-lvl4":"SE-Y","country":"Sverige","country_code":"se"},"osm_type":"relation","osm_id":5824700,"type":"administrative","location":[16.98087451929476,62.503970100000004],"bbox":[16.7505398,62.4418776,17.2253179,62.5666962],"inferred_type":"city"}
{"name":"Skogs distrikt","other_names":{"ref":"321013","name:en":"Skog District","name:sv":"Skogs dsitrikt","official_name":"Skog"},"display_name":"Skogs distrikt, Kramfors kommun, Västernorrlands län, Sverige","address":{"city":"Skogs distrikt","municipality":"Kramfors kommun","county":"Västernorrlands län","ISO3166-2-lvl4":"SE-Y","country":"Sverige","country_code":"se"},"osm_type":"relation","osm_id":5828435,"type":"administrative","location":[18.068220486769732,62.951517550000005],"bbox":[17.9469222,62.8951417,18.1780773,63.0061491],"inferred_type":"city"}
{"name":"Skönsmons distrikt","other_names":{"ref":"320005","name:en":"Skönsmon District","name:sv":"Skönsmons distrikt","official_name":"Skönsmon"},"display_name":"Skönsmons distrikt, Sundsvalls kommun, Västernorrlands län, Sverige","address":{"city":"Skönsmons distrikt","municipality":"Sundsvalls kommun","county":"Västernorrlands län","ISO3166-2-lvl4":"SE-Y","country":"Sverige","country_code":"se"},"osm_type":"relation","osm_id":5821136,"type":"administrative","location":[17.35871709415956,62.3721605],"bbox":[17.3238923,62.3531285,17.3979728,62.3904196],"inferred_type":"city","border":{"name":"Skönsmon","other_names":{"ref":"NYKO 142","name:sv":"Skönsmon","old_name":"Vapelskogen"},"display_name":"Skönsmon, Sundsvalls tätortsområde, Sundsvall, Sundsvalls kommun, Västernorrlands län, Sverige","address":{"suburb":"Skönsmon","city_district":"Sundsvalls tätortsområde","city":"Sundsvall","municipality":"Sundsvalls kommun","county":"Västernorrlands län","ISO3166-2-lvl4":"SE-Y","country":"Sverige","country_code":"se"},"osm_type":"relation","osm_id":2736099,"type":"administrative","location":[17.3420734,62.3789282],"bbox":[17.3144105,62.365989,17.3689756,62.3844903]}}
{"name":"Södertälje","other_names":{"name:la":"Telga australis","name:lt":"Sioderteljė","name:ru":"Сёдертелье","name:sv":"Södertälje","name:uk":"Седертельє","name:zh":"南泰利耶","old_name":"Telje"},"display_name":"Södertälje, Södertälje kommun, Stockholms län, 151 72, Sverige","address":{"city":"Södertälje","municipality":"Södertälje kommun","county":"Stockholms län","ISO3166-2-lvl4":"SE-AB","postcode":"151 72","country":"Sverige","country_code":"se"},"population":64619,"osm_type":"node","osm_id":30097996,"type":"city","location":[17.6271663,59.1964289],"bbox":[17.4671663,59.0364289,17.7871663,59.3564289],"border":{"name":"Södertälje kommun","other_names":{"ref":"0181","name:sv":"Södertälje kommun","short_name":"Södertälje","official_name":"Södertälje kommun"},"display_name":"Södertälje kommun, Stockholms län, Sverige","address":{"municipality":"Södertälje kommun","county":"Stockholms län","ISO3166-2-lvl4":"SE-AB","country":"Sverige","country_code":"se"},"population":102274,"osm_type":"relation","osm_id":398919,"type":"administrative","location":[17.49085301467332,59.083861150000004],"bbox":[17.3121943,58.8152951,17.7430423,59.35171]}}
{"name":"Stigsjö distrikt","other_names":{"ref":"321003","name:en":"Stigsjö District","name:sv":"Stigsjö distrikt","official_name":"Stigsjö"},"display_name":"Stigsjö distrikt, Härnösands kommun, Västernorrlands län, 871 92, Sverige","address":{"city":"Stigsjö distrikt","municipality":"Härnösands kommun","county":"Västernorrlands län","ISO3166-2-lvl4":"SE-Y","postcode":"871 92","country":"Sverige","country_code":"se"},"osm_type":"relation","osm_id":5832090,"type":"administrative","location":[17.603728377491667,62.6857723],"bbox":[17.4382279,62.5773822,17.7688366,62.7888113],"inferred_type":"city"}
{"name":"Stockholm","other_names":{"name:ab":"Стокҳольм","name:am":"ስቶኮልም","name:an":"Estocolmo","name:ar":"ستوكهولم","name:av":"Стокголм","name:az":"Stokholm","name:ba":"Стокгольм","name:be":"Стакгольм","name:bg":"Стокхолм","name:bh":"स्टॉकहोम","name:bm":"Stokolm","name:bn":"স্টকহোম","name:bo":"སི་ཏོག་ཧོ་ལིམ།","name:br":"Stockholm","name:ca":"Estocolm","name:ce":"Стокгольм","name:co":"Stoccolma","name:cs":"Stockholm","name:cu":"Стоколмъ","name:cv":"Стокгольм","name:da":"Stockholm","name:de":"Stockholm","name:el":"Στοκχόλμη","name:en":"Stockholm","name:eo":"Stokholmo","name:es":"Estocolmo","name:et":"Stockholm","name:eu":"Stockholm","name:fa":"استکهلم","name:fi":"Tukholma","name:fj":"Sitokomi","name:fo":"Stokkhólmur","name:fr":"Stockholm","name:fy":"Stokholm","name:ga":"Stócólm","name:gl":"Estocolmo","name:gn":"Estocolmo","name:he":"סטוקהולם","name:hi":"स्टॉकहोम","name:hr":"Stockholm","name:ht":"Stokolm","name:hu":"Stockholm","name:hy":"Ստոքհոլմ","name:is":"Stokkhólmur","name:it":"Stoccolma","name:iu":"ᔅᑑᒃᓱᓪᒻ","name:ja":"ストックホルム","name:ka":"სტოკჰოლმი","name:kk":"Стокгольм","name:kn":"ಸ್ಟಾಕ್‍ಹೋಮ್","name:ko":"스톡홀름","name:ku":"Stokholm","name:kv":"Стокгольм","name:la":"Holmia","name:lt":"Stokholmas","name:lv":"Stokholma","name:mi":"Hitokahoma","name:mk":"Стокхолм","name:ml":"സ്റ്റോക്ക്‌ഹോം","name:mn":"Стокхольм","name:mr":"स्टॉकहोम","name:mt":"Stokkolma","name:my":"စတော့ဟုမ်းမြို့","name:ne":"स्टकहोम","name:nl":"Stockholm","name:no":"Stockholm","name:nv":"Tótabineʼadziihí","name:oc":"Estocòlme","name:os":"Стокгольм","name:pa":"ਸਟਾਕਹੋਮ","name:pl":"Sztokholm","name:ps":"سټاکهولم","name:pt":"Estocolmo","name:qu":"Istukulmu","name:ro":"Stockholm","name:ru":"Стокгольм","name:sc":"Stoccolma","name:sd":"اسٽاڪ هوم","name:se":"Stockholbma","name:sk":"Štokholm","name:sq":"Stokholmi","name:sr":"Стокхолм","name:sv":"Stockholm","name:ta":"ஸ்டாக்ஹோம்","name:te":"స్టాక్‌హోమ్","name:tg":"Стокҳолм","name:th":"สตอกโฮล์ม","name:tk":"Stokgolm","name:tl":"Estokolmo","name:to":"Sitokiholimi","name:tr":"Stokholm","name:tt":"Стокһолм","name:ty":"Stockolm","name:ug":"Stokgolm","name:uk":"Стокгольм","name:ur":"سٹاکہوم","name:uz":"Stokgolm","name:wa":"Stocom","name:wo":"Stokolm","name:yi":"שטאקהאלם","name:zh":"斯德哥爾摩","name:zu":"IStokholmu","name:ang":"Stoccholm","name:arc":"ܣܛܘܩܗܘܠܡ","name:arz":"ستوكهولم","name:ast":"Estocolmu","name:ckb":"ستۆکھۆڵم","name:csb":"Sztokhòlm","name:diq":"Stokholm","name:ext":"Estocolmu","name:fit":"Stokholmi","name:gsw":"Stockholm","name:kab":"Stukulm","name:koi":"Стёколна","name:lad":"Estokolma","name:lij":"Stoccolma","name:lmo":"Stuculma","name:lzh":"斯德哥爾摩","name:mdf":"Стокольма","name:mhr":"Стокгольм","name:mrj":"Стокгольм","name:myv":"Стокгольм ош","name:mzn":"استکهلم","name:nah":"Estocolmo","name:nds":"Stockholm","name:pms":"Stocòlma","name:pnb":"سٹاکہوم","name:sah":"Стокhольм","name:sju":"Tjåsskasulla","name:sma":"Stuehkie","name:smj":"Stockhoalmma","name:smn":"Tukholma","name:szl":"Sztokholm","name:udm":"Стокгольм","name:vec":"Stocólma","name:vro":"Stokholm","name:yue":"斯德哥爾摩","short_name":"Sthlm","alt_name:gl":"Stockholm","alt_name:he":"שטוקהולם","alt_name:fit":"Tokholmi","name:bat-smg":"Stuokhuolms","name:zh-Hans":"斯德哥尔摩","name:zh-Hant":"斯德哥爾摩","name:be-tarask":"Стакгольм"},"display_name":"Stockholm, Stockholms kommun, Stockholms län, 111 29, Sverige","address":{"city":"Stockholm","municipality":"Stockholms kommun","county":"Stockholms län","ISO3166-2-lvl4":"SE-AB","postcode":"111 29","country":"Sverige","country_code":"se"},"population":984748,"osm_type":"node","osm_id":25929985,"type":"city","location":[18.0710935,59.3251172],"bbox":[17.9110935,59.1651172,18.2310935,59.4851172],"border":{"name":"Stockholms kommun","other_names":{"ref":"0180","name:en":"Stockholm Municipality","name:eo":"Stokholmo","name:es":"Estocolmo","name:fi":"Tukholman kunta","name:gl":"Estocolmo","name:is":"Stokkhólmur","name:ru":"Стокгольм","name:sk":"Štokholm","name:sv":"Stockholms kommun","short_name":"Stockholm","official_name":"Stockholms kommun"},"display_name":"Stockholms kommun, Stockholms län, Sverige","address":{"municipality":"Stockholms kommun","county":"Stockholms län","ISO3166-2-lvl4":"SE-AB","country":"Sverige","country_code":"se"},"population":994298,"osm_type":"relation","osm_id":398021,"type":"administrative","location":[18.027697348913556,59.3336173],"bbox":[17.7606917,59.2272559,18.2000673,59.4402838]}}
{"name":"Sundsvall","other_names":{"name:fr":"Sundsvall","name:he":"סונדרסוואל","name:ru":"Сундсвалль","name:sr":"Сундсвал","name:sv":"Sundsvall","name:uk":"Сундсвалль","name:gsw":"Sùndsvall","name:sma":"Sjädtavaellie","name:sr-Latn":"Sundsval"},"display_name":"Sundsvall, Sundsvalls kommun, Västernorrlands län, Sverige","address":{"city":"Sundsvall","municipality":"Sundsvalls kommun","county":"Västernorrlands län","ISO3166-2-lvl4":"SE-Y","country":"Sverige","country_code":"se"},"population":57606,"osm_type":"node","osm_id":283253592,"type":"city","location":[17.3071024,62.3907552],"bbox":[17.1471024,62.2307552,17.4671024,62.5507552],"border":[{"name":"Sundsvalls kommun","other_names":{"ref":"2281","name:en":"Sundsvall Municipality","name:sv":"Sundsvalls kommun","short_name":"Sundsvall","official_name":"Sundsvalls kommun"},"display_name":"Sundsvalls kommun, Västernorrlands län, Sverige","address":{"municipality":"Sundsvalls kommun","county":"Västernorrlands län","ISO3166-2-lvl4":"SE-Y","country":"Sverige","country_code":"se"},"population":99342,"osm_type":"relation","osm_id":935497,"type":"administrative","location":[17.299768,62.383354],"bbox":[16.2512551,62.0872099,18.2313736,62.9467954]},{"name":"Sundsvall","other_names":{"name:he":"סונדרסוואל","name:ru":"Сундсвалль","name:sv":"Sundsvall","name:sma":"Sjädtavaellie","name:fr":"Sundsvall","name:sr":"Сундсвал","name:uk":"Сундсвалль","name:gsw":"Sùndsvall","name:sr-Latn":"Sundsval"},"display_name":"Sundsvall, Sundsvalls kommun, Västernorrlands län, Sverige","address":{"city":"Sundsvall","municipality":"Sundsvalls kommun","county":"Västernorrlands län","ISO3166-2-lvl4":"SE-Y","country":"Sverige","country_code":"se"},"population":57606,"osm_type":"relation","osm_id":10276532,"type":"administrative","location":[17.3071024,62.3907552],"bbox":[17.196125,62.3619984,17.3993176,62.4723192]}]}
{"name":"Sundsvalls Gustav Adolfs distrikt","other_names":{"ref":"320004","name:en":"Sundsvalls Gustav Adolf District","name:sv":"Sundsvalls Gustav Adolfs district","official_name":"Sundsvalls Gustav Adolf"},"display_name":"Sundsvalls Gustav Adolfs distrikt, Sundsvalls kommun, Västernorrlands län, Sverige","address":{"city":"Sundsvalls Gustav Adolfs distrikt","municipality":"Sundsvalls kommun","county":"Västernorrlands län","ISO3166-2-lvl4":"SE-Y","country":"Sverige","country_code":"se"},"osm_type":"relation","osm_id":5821114,"type":"administrative","location":[17.272770404419063,62.37734185],"bbox":[17.2137536,62.3424327,17.3342428,62.4123871],"inferred_type":"city"}
{"name":"Tåsjö distrikt","other_names":{"ref":"321049","name:en":"Tåsjö District","name:sv":"Tåsjö distrikt","official_name":"Tåsjö"},"display_name":"Tåsjö distrikt, Strömsunds kommun, Jämtlands län, Sverige","address":{"city":"Tåsjö distrikt","municipality":"Strömsunds kommun","county":"Jämtlands län","ISO3166-2-lvl4":"SE-Z","country":"Sverige","country_code":"se"},"osm_type":"relation","osm_id":5829286,"type":"administrative","location":[15.819090144026148,64.29522685],"bbox":[15.2994496,64.0206092,16.4113594,64.5380088],"inferred_type":"city"}
{"name":"Torps distrikt","other_names":{"ref":"320007","name:en":"Torp District","name:sv":"Torps distrikt","official_name":"Torp"},"display_name":"Torps distrikt, Ånge kommun, Västernorrlands län, Sverige","address":{"city":"Torps distrikt","municipality":"Ånge kommun","county":"Västernorrlands län","ISO3166-2-lvl4":"SE-Y","country":"Sverige","country_code":"se"},"osm_type":"relation","osm_id":5824637,"type":"administrative","location":[16.200830714402617,62.48380095],"bbox":[15.8783283,62.2342967,16.5709014,62.710162],"inferred_type":"city"}
{"name":"Torsåkers distrikt","other_names":{"ref":"321016","name:en":"Torsåker District","name:sv":"Torsåkers distrikt","official_name":"Torsåker"},"display_name":"Torsåkers distrikt, Kramfors kommun, Västernorrlands län, 873 93, Sverige","address":{"city":"Torsåkers distrikt","municipality":"Kramfors kommun","county":"Västernorrlands län","ISO3166-2-lvl4":"SE-Y","postcode":"873 93","country":"Sverige","country_code":"se"},"osm_type":"relation","osm_id":5831529,"type":"administrative","location":[17.717409280530493,63.074681999999996],"bbox":[17.1788079,62.9805789,17.7849813,63.1291894],"inferred_type":"city"}
{"name":"Tuna distrikt","other_names":{"ref":"320003","name:en":"Tuna District","name:sv":"Tuna distrikt","official_name":"Tuna"},"display_name":"Tuna distrikt, Sundsvalls kommun, Västernorrlands län, Sverige","address":{"city":"Tuna distrikt","municipality":"Sundsvalls kommun","county":"Västernorrlands län","ISO3166-2-lvl4":"SE-Y","country":"Sverige","country_code":"se"},"osm_type":"relation","osm_id":5821642,"type":"administrative","location":[17.028694288304116,62.336889799999994],"bbox":[16.6418743,62.2599043,17.2961856,62.4126928],"inferred_type":"city"}
{"name":"Tynderö distrikt","other_names":{"ref":"320012","name:en":"Tynderö District","name:sv":"Tynder distrikt","official_name":"Tynderö"},"display_name":"Tynderö distrikt, Timrå kommun, Västernorrlands län, Sverige","address":{"city":"Tynderö distrikt","municipality":"Timrå kommun","county":"Västernorrlands län","ISO3166-2-lvl4":"SE-Y","country":"Sverige","country_code":"se"},"osm_type":"relation","osm_id":5826217,"type":"administrative","location":[17.90355914061984,62.40446705],"bbox":[17.4937105,62.3083726,18.2759587,62.4944842],"inferred_type":"city"}
{"name":"Umeå","other_names":{"name:eo":"Umeå","name:et":"Umeå","name:fi":"Uumaja","name:hu":"Umeå","name:lt":"Umeo","name:pl":"Umeå","name:ru":"Умео","name:se":"Ubmi","name:sr":"Умео","name:uk":"Умео"},"display_name":"Umeå, Umeå kommun, Västerbottens län, Sverige","address":{"city":"Umeå","municipality":"Umeå kommun","county":"Västerbottens län","ISO3166-2-lvl4":"SE-AC","country":"Sverige","country_code":"se"},"population":89607,"osm_type":"node","osm_id":27432369,"type":"city","location":[20.2630745,63.8256568],"bbox":[20.1030745,63.6656568,20.4230745,63.9856568],"border":[{"name":"Umeå kommun","other_names":{"ref":"2480","name:fi":"Uumajan kunta","name:sv":"Umeå kommun","short_name":"Umeå","official_name":"Umeå kommun"},"display_name":"Umeå kommun, Västerbottens län, Sverige","address":{"municipality":"Umeå kommun","county":"Västerbottens län","ISO3166-2-lvl4":"SE-AC","country":"Sverige","country_code":"se"},"population":132175,"osm_type":"relation","osm_id":935646,"type":"administrative","location":[20.283333,63.833333],"bbox":[19.6810533,63.2343176,21.4714067,64.3940817]},{"name":"Umeå","other_names":{"name:eo":"Umeå","name:et":"Umeå","name:fi":"Uumaja","name:he":"אומאו","name:hu":"Umeå","name:lt":"Umeo","name:pl":"Umeå","name:ru":"Умео","name:se":"Ubmi","name:sr":"Умео","name:sv":"Umeå","name:uk":"Умео","official_name":"Umeå centralort"},"display_name":"Umeå, Umeå kommun, Västerbottens län, Sverige","address":{"city":"Umeå","municipality":"Umeå kommun","county":"Västerbottens län","ISO3166-2-lvl4":"SE-AC","country":"Sverige","country_code":"se"},"population":79594,"osm_type":"relation","osm_id":7392435,"type":"administrative","location":[20.2630745,63.8256568],"bbox":[20.1338355,63.7855589,20.3853529,63.8820322]}]}
{"name":"Uppsala","other_names":{"name:de":"Uppsala","name:eo":"Upsalo","name:fi":"Uppsala","name:he":"אופסלה","name:hu":"Uppsala","name:is":"Uppsalir","name:ko":"웁살라","name:lt":"Upsala","name:ru":"Уппсала","name:sr":"Упсала","name:sv":"Uppsala","name:uk":"Уппсала","name:yi":"אופסאלא","name:nds":"Uppsala","old_name":"Östra Aros","old_name:fi":"Upsala","name:sr-Latn":"Upsala"},"display_name":"Uppsala, Uppsala kommun, Uppsala län, 753 20, Sverige","address":{"city":"Uppsala","municipality":"Uppsala kommun","county":"Uppsala län","ISO3166-2-lvl4":"SE-C","postcode":"753 20","country":"Sverige","country_code":"se"},"population":166698,"osm_type":"node","osm_id":25735371,"type":"city","location":[17.6387436,59.8586126],"bbox":[17.4787436,59.6986126,17.7987436,60.0186126],"border":{"name":"Uppsala kommun","other_names":{"ref":"0380","name:sv":"Uppsala kommun","short_name":"Uppsala","official_name":"Uppsala kommun"},"display_name":"Uppsala kommun, Uppsala län, Sverige","address":{"municipality":"Uppsala kommun","county":"Uppsala län","ISO3166-2-lvl4":"SE-C","country":"Sverige","country_code":"se"},"osm_type":"relation","osm_id":305455,"type":"administrative","location":[17.5984327,59.8661986],"bbox":[17.0799315,59.7306328,18.4733592,60.1861597]}}
{"name":"Västerås","other_names":{"name:he":"וסטרוס","name:lt":"Vesterosas","name:ru":"Вестерос","name:sr":"Вестерос","name:sv":"Västerås","name:uk":"Вестерос","name:yi":"וועסטעראס","name:zh":"韦斯特罗斯","name:sr-Latn":"Vesteros"},"display_name":"Västerås, Västerås kommun, Västmanlands län, 721 01, Sverige","address":{"city":"Västerås","municipality":"Västerås kommun","county":"Västmanlands län","ISO3166-2-lvl4":"SE-U","postcode":"721 01","country":"Sverige","country_code":"se"},"population":110877,"osm_type":"node","osm_id":27513227,"type":"city","location":[16.5463679,59.6110992],"bbox":[16.3863679,59.4510992,16.7063679,59.7710992],"border":{"name":"Västerås kommun","other_names":{"ref":"1980","name:sv":"Västerås kommun","short_name":"Västerås","official_name":"Västerås kommun"},"display_name":"Västerås kommun, Västmanlands län, Sverige","address":{"municipality":"Västerås kommun","county":"Västmanlands län","ISO3166-2-lvl4":"SE-U","country":"Sverige","country_code":"se"},"population":158500,"osm_type":"relation","osm_id":935588,"type":"administrative","location":[16.5804658,59.6168326],"bbox":[16.2346265,59.4523287,16.9659486,59.8459826]}}
{"name":"Växjö","other_names":{"name:he":"וקשה","name:hu":"Växjö","name:la":"Wexionia","name:lt":"Vekšė","name:ru":"Векшё","name:sr":"Векше","name:sv":"Växjö","name:uk":"Векше","name:sr-Latn":"Vekše"},"display_name":"Växjö, Växjö kommun, Kronobergs län, 351 04, Sverige","address":{"city":"Växjö","municipality":"Växjö kommun","county":"Kronobergs län","ISO3166-2-lvl4":"SE-G","postcode":"351 04","country":"Sverige","country_code":"se"},"population":55600,"osm_type":"node","osm_id":25508576,"type":"city","location":[14.8094385,56.8787183],"bbox":[14.6494385,56.7187183,14.9694385,57.0387183],"border":{"name":"Växjö kommun","other_names":{"ref":"0780","name:sv":"Växjö kommun","short_name":"Växjö","official_name":"Växjö kommun"},"display_name":"Växjö kommun, Kronobergs län, Sverige","address":{"municipality":"Växjö kommun","county":"Kronobergs län","ISO3166-2-lvl4":"SE-G","country":"Sverige","country_code":"se"},"population":97081,"osm_type":"relation","osm_id":935654,"type":"administrative","location":[14.816667,56.866667],"bbox":[14.4725776,56.6083106,15.2370179,57.2280419]}}
{"name":"Vibyggerå distrikt","other_names":{"ref":"321018","name:en":"Vibyggerå District","name:sv":"Vibyggerå distrikt","official_name":"Vibyggerå"},"display_name":"Vibyggerå distrikt, Kramfors kommun, Västernorrlands län, Sverige","address":{"city":"Vibyggerå distrikt","municipality":"Kramfors kommun","county":"Västernorrlands län","ISO3166-2-lvl4":"SE-Y","country":"Sverige","country_code":"se"},"osm_type":"relation","osm_id":5831308,"type":"administrative","location":[18.334057879223185,63.088192250000006],"bbox":[18.0031544,63.000809,18.6010122,63.1756848],"inferred_type":"city"}
{"name":"Visby","other_names":{"name:ar":"فيسبي","name:el":"Βίσμπυ","name:fa":"ویزبه","name:ja":"ヴィースビ","name:ko":"비스뷔","name:lt":"Visbis","name:lv":"Visbija","name:mk":"Висби","name:ne":"भिस्बी","name:ru":"Висбю","name:sr":"Висби","name:sv":"Visby","name:uk":"Вісбю","name:ur":"ویسپے","name:zh":"維斯比","name:xmf":"ვისბიუ","old_name":"Wisby"},"display_name":"Visby, Gotlands kommun, Gotlands län, 621 45, Sverige","address":{"city":"Visby","municipality":"Gotlands kommun","county":"Gotlands län","ISO3166-2-lvl4":"SE-I","postcode":"621 45","country":"Sverige","country_code":"se"},"population":22593,"osm_type":"node","osm_id":27150427,"type":"city","location":[18.297982,57.6379361],"bbox":[18.137982,57.4779361,18.457982,57.7979361]}
{"name":"Ytterlännäs distrikt","other_names":{"ref":"321011","name:en":"Ytterlännäs District","name:sv":"Ytterlännäs distrikt","official_name":"Ytterlännäs"},"display_name":"Ytterlännäs distrikt, Kramfors kommun, Västernorrlands län, 873 50, Sverige","address":{"city":"Ytterlännäs distrikt","municipality":"Kramfors kommun","county":"Västernorrlands län","ISO3166-2-lvl4":"SE-Y","postcode":"873 50","country":"Sverige","country_code":"se"},"osm_type":"relation","osm_id":5831528,"type":"administrative","location":[17.48799420933308,62.98081405],"bbox":[17.2106838,62.9117962,17.8018427,63.0824902],"inferred_type":"city"}
