{"name":"Adana","other_names":{"name:ar":"Ø£Ø¶Ù†Ø©","name:de":"Adana","name:el":"Î†Î´Î±Î½Î±","name:en":"Adana","name:es":"Adana","name:fa":"Ø¢Ø¯Ø§Ù†Ø§","name:hi":"à¤…à¤¦à¤¾à¤¨à¤¾","name:hu":"Adana","name:hy":"Ô±Õ¤Õ¡Õ¶Õ¡","name:ja":"ã‚¢ãƒ€ãƒŠ","name:ka":"áƒáƒ“áƒáƒœáƒ","name:ko":"ì•„ë‹¤ë‚˜","name:ku":"Edene","name:ml":"à´…à´¦à´¾à´¨","name:nl":"Adana","name:pl":"Adana","name:pt":"Adana","name:ru":"ĞĞ´Ğ°Ğ½Ğ°","name:sr":"ĞĞ´Ğ°Ğ½Ğ°","name:sv":"Adana","name:tr":"Adana","name:uk":"ĞĞ´Ğ°Ğ½Ğ°","name:ur":"Ø¢Ø·Ù†Û","name:zh":"é˜¿è¾¾çº³","name:ckb":"Ø¦Ø§Ø¯Ø§Ù†Ø§","name:diq":"Edene","alt_name:ur":"Ø§Ø¯Ø§Ù†Ø§"},"display_name":"Adana, Seyhan, Adana, Akdeniz BÃ¶lgesi, 01060, TÃ¼rkiye","address":{"city":"Adana","town":"Seyhan","province":"Adana","ISO3166-2-lvl4":"TR-01","region":"Akdeniz BÃ¶lgesi","postcode":"01060","country":"TÃ¼rkiye","country_code":"tr"},"population":2258718,"osm_type":"node","osm_id":26480399,"type":"city","location":[35.3252861,36.9863599],"bbox":[35.1652861,36.8263599,35.4852861,37.1463599]}
{"name":"AdÄ±yaman","other_names":{"name:ar":"Ø£Ø¯ÙŠØ§Ù…Ø§Ù†","name:bg":"ĞĞ´ÑŠÑĞ¼Ğ°Ğ½","name:bn":"à¦†à¦¦à¦¿à¦¯à¦¼à¦¾à¦®à¦¾à¦¨","name:ce":"ĞĞ´Ğ¸Ğ¹Ğ°Ğ¼Ğ°Ğ½","name:el":"Î‘Î½Ï„Î¹Î³Î¹Î±Î¼Î¬Î½","name:en":"AdÄ±yaman","name:fa":"Ø¢Ø¯ÛŒØ§Ù…Ø§Ù†","name:he":"××“×™×××Ÿ","name:hy":"Ô±Õ¤Õ«ÕµÕ¡Õ´Õ¡Õ¶","name:ja":"ã‚¢ãƒ‰ã‚¥ãƒ¤ãƒãƒ³","name:ka":"áƒáƒ“áƒ˜áƒáƒ›áƒáƒœáƒ˜","name:ko":"ì•„ë””ì•¼ë§Œ","name:ku":"SemsÃ»r","name:lt":"Adijamanas","name:lv":"Adijamana","name:ml":"à´…à´¦à´¿à´¯à´¾à´®à´¾àµ»","name:ru":"ĞĞ´Ñ‹ÑĞ¼Ğ°Ğ½","name:sr":"ĞĞ´Ğ¸Ñ˜Ğ°Ğ¼Ğ°Ğ½","name:tg":"ĞĞ´Ğ¸Ñ‘Ğ¼Ğ¾Ğ½","name:tr":"AdÄ±yaman","name:tt":"ĞĞ´Ñ‹ÑĞ¼Ğ°Ğ½","name:uk":"ĞĞ´Ğ¸ÑĞ¼Ğ°Ğ½","name:ur":"Ø¢Ø¯ÛŒØ§Ù…Ø§Ù†","name:zh":"é˜¿å¾·äºšæ›¼","alt_name":"Adiyaman","name:ckb":"Ø³Û•Ù…Ø³ÙˆÙˆØ±","name:ota":"Ø­ØµÙ† Ù…Ù†ØµÙˆØ±","name:zza":"SemsÃ»r","old_name":"HÄ±snÄ±mansur;HÄ±snÄ± MansÃ»r"},"display_name":"AdÄ±yaman, AdÄ±yaman Merkez, AdÄ±yaman, GÃ¼neydoÄŸu Anadolu BÃ¶lgesi, TÃ¼rkiye","address":{"city":"AdÄ±yaman","province":"AdÄ±yaman","ISO3166-2-lvl4":"TR-02","region":"GÃ¼neydoÄŸu Anadolu BÃ¶lgesi","country":"TÃ¼rkiye","country_code":"tr"},"population":632459,"osm_type":"node","osm_id":26487468,"type":"city","location":[38.2772986,37.7602985],"bbox":[38.1172986,37.6002985,38.4372986,37.9202985],"border":{"name":"AdÄ±yaman Merkez","other_names":{"name:ar":"Ø£Ø¯ÙŠØ§Ù…Ø§Ù†","name:bg":"ĞĞ´ÑŠÑĞ¼Ğ°Ğ½","name:bn":"à¦†à¦¦à¦¿à¦¯à¦¼à¦¾à¦®à¦¾à¦¨","name:ce":"ĞĞ´Ğ¸Ğ¹Ğ°Ğ¼Ğ°Ğ½","name:de":"AdÄ±yaman Merkez","name:el":"Î‘Î½Ï„Î¹Î³Î¹Î±Î¼Î¬Î½","name:en":"AdÄ±yaman","name:fa":"Ø¢Ø¯ÛŒØ§Ù…Ø§Ù†","name:he":"××“×™×××Ÿ","name:hy":"Ô±Õ¤Õ«ÕµÕ¡Õ´Õ¡Õ¶","name:ja":"ã‚¢ãƒ‰ã‚¥ãƒ¤ãƒãƒ³","name:ka":"áƒáƒ“áƒ˜áƒáƒ›áƒáƒœáƒ˜","name:ko":"ì•„ë””ì•¼ë§Œ","name:ku":"SemsÃ»r (navend)","name:lt":"Adijamanas","name:lv":"Adijamana","name:sr":"ĞĞ´Ğ¸Ñ˜Ğ°Ğ¼Ğ°Ğ½","name:tg":"ĞĞ´Ğ¸Ñ‘Ğ¼Ğ¾Ğ½","name:tr":"AdÄ±yaman Merkez","name:tt":"ĞĞ´Ñ‹ÑĞ¼Ğ°Ğ½","name:uk":"ĞĞ´Ğ¸ÑĞ¼Ğ°Ğ½","name:ur":"Ø¢Ø¯ÛŒØ§Ù…Ø§Ù†","name:zh":"é˜¿å¾·äºšæ›¼","alt_name":"Adiyaman","name:ota":"Ø­ØµÙ† Ù…Ù†ØµÙˆØ±","name:zza":"SemsÃ»r","name:ml":"à´…à´¦à´¿à´¯à´¾à´®à´¾àµ»","name:ru":"ĞĞ´Ñ‹ÑĞ¼Ğ°Ğ½","name:ckb":"Ø³Û•Ù…Ø³ÙˆÙˆØ±","old_name":"HÄ±snÄ±mansur;HÄ±snÄ± MansÃ»r","alt":"AdÄ±yaman","alt:ku":"SemsÃ»r","alt:tr":"AdÄ±yaman"},"display_name":"AdÄ±yaman Merkez, AdÄ±yaman, GÃ¼neydoÄŸu Anadolu BÃ¶lgesi, TÃ¼rkiye","address":{"city":"AdÄ±yaman Merkez","province":"AdÄ±yaman","ISO3166-2-lvl4":"TR-02","region":"GÃ¼neydoÄŸu Anadolu BÃ¶lgesi","country":"TÃ¼rkiye","country_code":"tr"},"population":632459,"osm_type":"relation","osm_id":1825792,"type":"administrative","location":[38.2772986,37.7602985],"bbox":[37.9661026,37.4096946,38.5075467,38.0128133]}}
{"name":"Afyonkarahisar","other_names":{"name:ar":"Ø£ÙÙŠÙˆÙ† Ù‚Ø±Ù‡ Ø­ØµØ§Ø±","name:bg":"ĞÑ„Ğ¸Ğ¾Ğ½ĞºĞ°Ñ€Ğ°Ñ…Ğ¸ÑĞ°Ñ€","name:de":"Afyonkarahisar","name:el":"Î‘Ï†Î¹ÏŒÎ½ ÎšÎ±ÏÎ±Ï‡Î¹ÏƒÎ¬Ï","name:en":"Afyonkarahisar","name:es":"Afyonkarahisar","name:fa":"Ø§ÙÛŒÙˆÙ† Ù‚Ø±Ù‡â€ŒØ­ØµØ§Ø±","name:fr":"Afyonkarahisar","name:hi":"à¤…à¤«à¤¯à¥‹à¤‚à¤•à¤°à¤¹à¤¿à¤¸à¤¾à¤°","name:hu":"Afyonkarahisar","name:it":"Afyonkarahisar","name:lt":"Afjonkarahisaras","name:ml":"à´…à´«àµà´¯àµ‹àµºà´•àµà´•à´±à´¹à´¿à´¸à´¾àµ¼","name:no":"Afyonkarahisar","name:pl":"Afyonkarahisar","name:pt":"Afioncaraquissar","name:ru":"ĞÑ„ÑŒĞ¾Ğ½ĞºĞ°Ñ€Ğ°Ñ…Ğ¸ÑĞ°Ñ€","name:sr":"ĞÑ„Ñ˜Ğ¾Ğ½ĞºĞ°Ñ€Ğ°Ñ…Ğ¸ÑĞ°Ñ€","name:sv":"Afyonkarahisar","name:tr":"Afyonkarahisar","name:uk":"ĞÑ„Ğ¹Ğ¾Ğ½ĞºĞ°Ñ€Ğ°Ñ…Ñ–ÑĞ°Ñ€","name:ur":"Ø§ÙÛŒÙˆÙ† Ù‚Ø±Û Ø­ØµØ§Ø±","name:zh":"é˜¿è²æ°¸å¡æ‹‰å¸Œè¨å°”","alt_name":"Afyon","alt_name:ar":"Ø£ÙÙŠÙˆÙ†"},"display_name":"Afyonkarahisar, Afyonkarahisar Merkez, Afyonkarahisar, Ege BÃ¶lgesi, TÃ¼rkiye","address":{"city":"Afyonkarahisar","province":"Afyonkarahisar","ISO3166-2-lvl4":"TR-03","region":"Ege BÃ¶lgesi","country":"TÃ¼rkiye","country_code":"tr"},"population":747555,"osm_type":"node","osm_id":25869720,"type":"city","location":[30.5387044,38.7568597],"bbox":[30.3787044,38.5968597,30.6987044,38.9168597],"border":{"name":"Afyonkarahisar Merkez","other_names":{"name:ar":"Ø£ÙÙŠÙˆÙ† Ù‚Ø±Ù‡ Ø­ØµØ§Ø±","name:az":"Afyonqarahisar","name:be":"ĞÑ„â€™Ñ‘Ğ½","name:ce":"ĞÑ„Ğ¹Ğ¾Ğ½ĞºĞ°Ñ€Ğ°Ñ…Ó€Ğ¸ÑĞ°Ñ€","name:el":"Î‘Ï†Î¹ÏŒÎ½ ÎšÎ±ÏÎ±Ï‡Î¹ÏƒÎ¬Ï","name:fa":"Ø§ÙÛŒÙˆÙ† Ù‚Ø±Ù‡â€ŒØ­ØµØ§Ø±","name:hy":"Ô±Ö†ÕµÕ¸Õ¶Ö„Õ¡Ö€Õ¡Õ°Õ«Õ½Õ¡Ö€","name:ja":"ã‚¢ãƒ•ã‚£ãƒ¨ãƒ³ã‚«ãƒ©ãƒ’ã‚µãƒ¼ãƒ«","name:ka":"áƒáƒ¤áƒ˜áƒáƒœ-áƒ§áƒáƒ áƒáƒ°áƒ˜áƒ¡áƒáƒ áƒ˜","name:kk":"ĞÑ„Ğ¸Ğ¾Ğ½Ò›Ğ°Ñ€Ğ°Ñ…Ğ¸ÑĞ°Ñ€","name:ko":"ì•„í”¼ì˜¨ì¹´ë¼íˆì‚¬ë¥´","name:la":"Acroenus","name:lt":"Afjonkarahisaras","name:lv":"Afjonkarahisara","name:ru":"ĞÑ„ÑŒĞ¾Ğ½ĞºĞ°Ñ€Ğ°Ñ…Ğ¸ÑĞ°Ñ€","name:sq":"Afjonkarahisar","name:sr":"ĞÑ„Ğ¸Ğ¾Ğ½ĞºĞ°Ñ€Ğ°Ñ…Ğ¸ÑĞ°Ñ€","name:tg":"ĞÑ„ÑĞ½Ò›Ğ°Ñ€Ğ°Ò³Ğ¸ÑĞ¾Ñ€","name:tr":"Afyonkarahisar Merkez","name:uk":"ĞÑ„ÑŒĞ¾Ğ½-ĞšĞ°Ñ€Ğ°Ñ…Ñ–ÑĞ°Ñ€","name:zh":"é˜¿è²æ°¸å¡æ‹‰å¸Œè¨å°”","alt_name":"Afyonkarahisar;Afyon Karahisar","old_name":"Karahisar","name:bg":"ĞÑ„Ğ¸Ğ¾Ğ½ĞºĞ°Ñ€Ğ°Ñ…Ğ¸ÑĞ°Ñ€","name:de":"Afyonkarahisar","name:en":"Afyonkarahisar","name:es":"Afyonkarahisar","name:fr":"Afyonkarahisar","name:hi":"à¤…à¤«à¤¯à¥‹à¤‚à¤•à¤°à¤¹à¤¿à¤¸à¤¾à¤°","name:hu":"Afyonkarahisar","name:it":"Afyonkarahisar","name:ml":"à´…à´«àµà´¯àµ‹àµºà´•àµà´•à´±à´¹à´¿à´¸à´¾àµ¼","name:no":"Afyonkarahisar","name:pl":"Afyonkarahisar","name:pt":"Afioncaraquissar","name:sv":"Afyonkarahisar","name:ur":"Ø§ÙÛŒÙˆÙ† Ù‚Ø±Û Ø­ØµØ§Ø±","_place_alt_name":"Afyon","alt_name:ar":"Ø£ÙÙŠÙˆÙ†","alt":"Afyonkarahisar","alt:sr":"ĞÑ„Ñ˜Ğ¾Ğ½ĞºĞ°Ñ€Ğ°Ñ…Ğ¸ÑĞ°Ñ€","alt:tr":"Afyonkarahisar","alt:uk":"ĞÑ„Ğ¹Ğ¾Ğ½ĞºĞ°Ñ€Ğ°Ñ…Ñ–ÑĞ°Ñ€"},"display_name":"Afyonkarahisar Merkez, Afyonkarahisar, Ege BÃ¶lgesi, TÃ¼rkiye","address":{"city":"Afyonkarahisar Merkez","province":"Afyonkarahisar","ISO3166-2-lvl4":"TR-03","region":"Ege BÃ¶lgesi","country":"TÃ¼rkiye","country_code":"tr"},"population":747555,"osm_type":"relation","osm_id":1263753,"type":"administrative","location":[30.5387044,38.7568597],"bbox":[30.187985,38.5594725,30.8572953,38.9992005]}}
{"name":"AÄŸrÄ±","other_names":{"name:ar":"Ø£ØºØ±ÙŠ","name:es":"Agri","name:fa":"Ø¢ØºØ±ÛŒ","name:fr":"Agri","name:hi":"à¤…à¤—à¥à¤°à¤¿","name:hy":"Ô±Õ²Ö€Õ«","name:ku":"AgirÃ®","name:mk":"ĞĞ³Ñ€Ğ¸","name:ml":"à´†à´—àµà´°à´¿","name:pa":"à¨†à¨—à¨°à©€","name:ru":"ĞĞ³Ñ€Ñ‹","name:sr":"ĞĞ³Ñ€Ğ¸","name:tg":"ĞÒ“Ñ€Ğ¸","name:tr":"AÄŸrÄ±","name:tt":"ĞĞ³Ñ€Ñ‹","name:ug":"Ø¦Ø§ØºØ±Ù‰","name:uk":"ĞĞ³Ñ€Ğ¸","name:ur":"Ø¢ØºØ±ÛŒ","name:arc":"ÜÜ“ÜªÜ","name:azb":"Ø¢ØºØ±ÛŒ","name:ckb":"Ù‚Û•Ø±Û•Ú©Û†Ø³Û•","name:grc":"á¼ŒÎ³ÏÎ¹","name:ota":"Ù‚Ø±Ù‡â€ŒÚ©Ù„ÛŒØ³Ø§","name:syc":"ÜÜ“ÜªÜ","old_name":"KarakÃ¶se","old_name:de":"Karakilise","old_name:es":"Karakilise","old_name:fa":"Ù‚Ø±Ù‡â€ŒÚ©Ù„ÛŒØ³Ø§","old_name:fr":"Karakilise","old_name:hy":"Õ”Õ¡Ö€Õ¢Õ¥Ö€","old_name:azb":"Ù‚Ø§Ø±Ø§Ú©Ù„ÛŒØ³","old_name:grc":"ÎšÎ±ÏÎ±ÎºÎ¯Î»Î¹ÏƒÎµ"},"display_name":"AÄŸrÄ±, Yavuz Mahallesi, AÄŸrÄ± Merkez, AÄŸrÄ±, DoÄŸu Anadolu BÃ¶lgesi, 04100, TÃ¼rkiye","address":{"city":"AÄŸrÄ±","county":"AÄŸrÄ± Merkez","province":"AÄŸrÄ±","ISO3166-2-lvl4":"TR-04","region":"DoÄŸu Anadolu BÃ¶lgesi","postcode":"04100","country":"TÃ¼rkiye","country_code":"tr"},"population":120390,"osm_type":"node","osm_id":26486334,"type":"city","location":[43.0504894,39.719125],"bbox":[42.8904894,39.559125,43.2104894,39.879125],"border":{"name":"AÄŸrÄ± Merkez","other_names":{"name:ar":"Ø£ØºØ±ÙŠ","name:bg":"ĞĞ³Ñ€ÑŠ","name:ce":"ĞĞ³Ó€Ñ€Ğ¸","name:el":"Î†Î³ÏÎ¹","name:es":"Agri","name:fa":"Ø¢Ú¯Ø±ÛŒ","name:fr":"Agri","name:hy":"Ô±Õ²Ö€Õ¨","name:ja":"ã‚¢ãƒ¼ãƒ«","name:ka":"áƒáƒ¦áƒ áƒ˜","name:ko":"ì•„ë¥´","name:ku":"Qerekose","name:lt":"Ahras","name:mk":"ĞĞ³Ñ€Ğ¸","name:pa":"à¨†à¨—à¨°à©€","name:ru":"ĞĞ³Ñ€Ñ‹","name:sr":"ĞĞ³Ñ€Ğ¸","name:tg":"ĞÒ“Ñ€Ğ¸","name:tr":"AÄŸrÄ± Merkez","name:tt":"ĞĞ³Ñ€Ñ‹","name:ug":"Ø¦Ø§ØºØ±Ù‰","name:uk":"ĞĞ³Ñ€Ğ¸","name:ur":"Ø¢ØºØ±ÛŒ","name:zh":"é˜¿å‹’","name:arc":"ÜÜ“ÜªÜ","name:azb":"Ø¢ØºØ±ÛŒ","name:grc":"á¼ŒÎ³ÏÎ¹","name:ota":"Ù‚Ø±Ù‡â€ŒÚ©Ù„ÛŒØ³Ø§","name:syc":"ÜÜ“ÜªÜ","old_name":"KarakÃ¶se","alt_name:ku":"Qerekose;QerekilÃ®s;QerekÃ®s;QereysÃ®","old_name:de":"Karakilise","old_name:es":"Karakilise","old_name:fr":"Karakilise","old_name:hy":"Õ”Õ¡Ö€Õ¢Õ¥Ö€","old_name:azb":"Ù‚Ø±Ù‡â€ŒÚ©Ù„ÛŒØ³Ø§","old_name:grc":"ÎšÎ±ÏÎ±ÎºÎ¯Î»Î¹ÏƒÎµ"},"display_name":"AÄŸrÄ± Merkez, AÄŸrÄ±, DoÄŸu Anadolu BÃ¶lgesi, TÃ¼rkiye","address":{"county":"AÄŸrÄ± Merkez","province":"AÄŸrÄ±","ISO3166-2-lvl4":"TR-04","region":"DoÄŸu Anadolu BÃ¶lgesi","country":"TÃ¼rkiye","country_code":"tr"},"osm_type":"relation","osm_id":1837704,"type":"administrative","location":[43.168437098021585,39.7779175],"bbox":[42.8559036,39.5582503,43.4273324,40.0023008]}}
{"name":"Aksaray","other_names":{"name:ar":"Ø¢Ù‚ Ø³Ø±Ø§ÙŠ","name:bg":"ĞĞºÑĞ°Ñ€Ğ°Ğ¹","name:ce":"ĞĞºÑĞ°Ñ€Ğ°Ğ¹","name:el":"Î†ÎºÏƒÎµÏÎ¬Î¹","name:es":"Aksaray","name:fa":"Ø¢Ù‚â€ŒØ³Ø±Ø§ÛŒ","name:hi":"à¤…à¤•à¥à¤¸à¤°à¤¾à¤¯","name:hu":"Aksaray","name:hy":"Ô±Ö„Õ½Õ¡Ö€Õ¡Õµ","name:ja":"ã‚¢ã‚¯ã‚µãƒ©ã‚¤","name:ka":"áƒáƒ¥áƒ¡áƒáƒ áƒáƒ˜","name:kk":"ĞÒ›ÑĞ°Ñ€Ğ°Ğ¹","name:ko":"ì•…ì‚¬ë¼ì´","name:ml":"à´†à´•àµà´¸à´±à´¾à´¯àµ","name:pa":"à¨…à¨•à¨¸à¨¾à¨°à¨¾à¨","name:ru":"ĞĞºÑĞ°Ñ€Ğ°Ğ¹","name:sr":"ĞĞºÑĞ°Ñ€Ğ°Ñ˜","name:tg":"ĞÒ›ÑĞ°Ñ€Ğ¾Ğ¹","name:tt":"ĞĞºÑĞ°Ñ€Ğ°Ğ¹","name:uk":"ĞĞºÑĞ°Ñ€Ğ°Ğ¹","name:ur":"Ø¢Ù‚ Ø³Ø±Ø§Ø¦Û’","name:zh":"é˜¿å…‹è¨èµ–","old_name":"GarsaÃºra;Garsaura;Gausaura;Arkhelais;Archaleis;Akserai;Taxara"},"display_name":"Aksaray, Aksaray Merkez, Aksaray, Ä°Ã§ Anadolu BÃ¶lgesi, TÃ¼rkiye","address":{"city":"Aksaray","province":"Aksaray","ISO3166-2-lvl4":"TR-68","region":"Ä°Ã§ Anadolu BÃ¶lgesi","country":"TÃ¼rkiye","country_code":"tr"},"population":423011,"osm_type":"node","osm_id":26482228,"type":"city","location":[34.026907,38.3705416],"bbox":[33.866907,38.2105416,34.186907,38.5305416],"border":{"name":"Aksaray Merkez","other_names":{"name:ar":"Ø¢Ù‚ Ø³Ø±Ø§ÙŠ","name:bg":"ĞĞºÑĞ°Ñ€Ğ°Ğ¹","name:ce":"ĞĞºÑĞ°Ñ€Ğ°Ğ¹","name:de":"Aksaray","name:el":"Î†ÎºÏƒÎµÏÎ¬Î¹","name:en":"Aksaray","name:fa":"Ø¢Ù‚â€ŒØ³Ø±Ø§ÛŒ","name:hi":"à¤…à¤•à¥à¤¸à¤¾à¤°à¤¾à¤¯","name:hy":"Ô±Ö„Õ½Õ¡Ö€Õ¡Õµ","name:ja":"ã‚¢ã‚¯ã‚µãƒ©ã‚¤","name:ka":"áƒáƒ¥áƒ¡áƒáƒ áƒáƒ˜","name:kk":"ĞÒ›ÑĞ°Ñ€Ğ°Ğ¹","name:ko":"ì•…ì‚¬ë¼ì´","name:pa":"à¨…à¨•à¨¸à¨¾à¨°à¨¾à¨","name:ru":"ĞĞºÑĞ°Ñ€Ğ°Ğ¹","name:sr":"ĞĞºÑĞ°Ñ€Ğ°Ñ˜","name:tg":"ĞÒ›ÑĞ°Ñ€Ğ¾Ğ¹","name:tr":"Aksaray Merkez","name:tt":"ĞĞºÑĞ°Ñ€Ğ°Ğ¹","name:uk":"ĞĞºÑĞ°Ñ€Ğ°Ğ¹","name:ur":"Ø¢Ù‚ Ø³Ø±Ø§Ø¦Û’","name:zh":"é˜¿å…‹è¨èµ–","name:es":"Aksaray","name:hu":"Aksaray","name:ml":"à´†à´•àµà´¸à´±à´¾à´¯àµ","old_name":"GarsaÃºra;Garsaura;Gausaura;Arkhelais;Archaleis;Akserai;Taxara","alt":"Aksaray","alt:hi":"à¤…à¤•à¥à¤¸à¤°à¤¾à¤¯"},"display_name":"Aksaray Merkez, Aksaray, Ä°Ã§ Anadolu BÃ¶lgesi, TÃ¼rkiye","address":{"city":"Aksaray Merkez","province":"Aksaray","ISO3166-2-lvl4":"TR-68","region":"Ä°Ã§ Anadolu BÃ¶lgesi","country":"TÃ¼rkiye","country_code":"tr"},"population":423011,"osm_type":"relation","osm_id":1717633,"type":"administrative","location":[34.026907,38.3705416],"bbox":[33.3593413,38.061363,34.4285844,38.7184168]}}
{"name":"Amasya","other_names":{"name:ar":"Ø£Ù…Ø§ØµÙŠØ§","name:bg":"ĞĞ¼Ğ°ÑĞ¸Ñ","name:ce":"ĞĞ¼Ğ°ÑĞ¸","name:de":"Amasya","name:el":"Î‘Î¼Î¬ÏƒÎµÎ¹Î±","name:en":"Amasya","name:fa":"Ø¢Ù…Ø§Ø³ÛŒÙ‡","name:fr":"Amasya","name:he":"×××¡×™×”","name:hu":"Amasya","name:hy":"Ô±Õ´Õ¡Õ½Õ«Õ¡","name:it":"Amasya","name:ja":"ã‚¢ãƒã‚¹ã‚£ãƒ¤","name:ka":"áƒáƒ›áƒáƒ¡áƒ˜áƒ","name:ko":"ì•„ë§ˆì‹œì•„","name:la":"Amasea","name:lt":"Amasija","name:lv":"Amasja","name:mk":"ĞĞ¼Ğ°ÑĞ¸Ñ˜Ğ°","name:ml":"à´…à´®à´¾à´¸àµà´¯","name:no":"Amasya","name:os":"ĞĞ¼Ğ°ÑÑŒÑ","name:pa":"à¨…à¨®à¨¾à¨¸à¨¿à¨†","name:pl":"Amasya","name:pt":"Amasia","name:ru":"ĞĞ¼Ğ°ÑÑŒÑ","name:so":"Amaasiya","name:sq":"Amasia","name:sr":"ĞĞ¼Ğ°ÑĞ¸Ñ˜Ğ°","name:sv":"Amasya","name:tg":"ĞĞ¼Ğ¾ÑĞ¸Ñ","name:tr":"Amasya","name:tt":"ĞĞ¼Ğ°ÑÑŒÑ","name:uk":"ĞĞ¼Ğ°ÑÑŒÑ","name:ur":"Ø§Ù…Ø§Ø³ÛŒØ§","name:zh":"é˜¿é¦¬è¥¿äº","name:grc":"Î†Î¼Î¬ÏƒÎµÎ¹Î±","name:pnt":"Î‘Î¼Î¬ÏƒÎµÎ¹Î±"},"display_name":"Amasya, Dere Mahallesi, Amasya Merkez, Amasya, Karadeniz BÃ¶lgesi, 05100, TÃ¼rkiye","address":{"city":"Amasya","county":"Amasya Merkez","province":"Amasya","ISO3166-2-lvl4":"TR-05","region":"Karadeniz BÃ¶lgesi","postcode":"05100","country":"TÃ¼rkiye","country_code":"tr"},"population":114921,"osm_type":"node","osm_id":26482974,"type":"city","location":[35.8329148,40.6503248],"bbox":[35.6729148,40.4903248,35.9929148,40.8103248],"border":{"name":"Amasya Merkez","other_names":{"name:ar":"Ø£Ù…Ø§ØµÙŠØ§","name:bg":"ĞĞ¼Ğ°ÑĞ¸Ñ","name:ce":"ĞĞ¼Ğ°ÑĞ¸","name:de":"Amasya","name:el":"Î‘Î¼Î¬ÏƒÎµÎ¹Î±","name:en":"Amasya","name:fa":"Ø¢Ù…Ø§Ø³ÛŒÙ‡","name:fr":"Amasya","name:he":"×××¡×™×”","name:hu":"Amasya","name:hy":"Ô±Õ´Õ¡Õ½Õ«Õ¡","name:it":"Amasya","name:ja":"ã‚¢ãƒã‚¹ã‚£ãƒ¤","name:ka":"áƒáƒ›áƒáƒ¡áƒ˜áƒ","name:ko":"ì•„ë§ˆì‹œì•„","name:la":"Amasea","name:lt":"Amasija","name:lv":"Amasja","name:mk":"ĞĞ¼Ğ°ÑĞ¸Ñ˜Ğ°","name:ml":"à´…à´®à´¾à´¸àµà´¯","name:no":"Amasya","name:os":"ĞĞ¼Ğ°ÑÑŒÑ","name:pa":"à¨…à¨®à¨¾à¨¸à¨¿à¨†","name:pl":"Amasya","name:pt":"Amasia","name:ru":"ĞĞ¼Ğ°ÑÑŒÑ","name:so":"Amaasiya","name:sq":"Amasia","name:sr":"ĞĞ¼Ğ°ÑĞ¸Ñ˜Ğ°","name:sv":"Amasya","name:tg":"ĞĞ¼Ğ¾ÑĞ¸Ñ","name:tr":"Amasya","name:tt":"ĞĞ¼Ğ°ÑÑŒÑ","name:uk":"ĞĞ¼Ğ°ÑÑŒÑ","name:ur":"Ø§Ù…Ø§Ø³ÛŒØ§","name:zh":"é˜¿é¦¬è¥¿äº","name:grc":"Î†Î¼Î¬ÏƒÎµÎ¹Î±","name:pnt":"Î‘Î¼Î¬ÏƒÎµÎ¹Î±"},"display_name":"Amasya Merkez, Amasya, Karadeniz BÃ¶lgesi, TÃ¼rkiye","address":{"county":"Amasya Merkez","province":"Amasya","ISO3166-2-lvl4":"TR-05","region":"Karadeniz BÃ¶lgesi","country":"TÃ¼rkiye","country_code":"tr"},"population":148908,"osm_type":"relation","osm_id":1837141,"type":"administrative","location":[35.81638523852773,40.6339677],"bbox":[35.4043222,40.4255195,36.3127136,40.8486836]}}
{"name":"Ankara","other_names":{"name:aa":"Ankara","name:ab":"ĞĞ½ĞºĞ°Ñ€Ğ°","name:ae":"ğ¬‚ğ¬¥ğ¬ğ¬‚ğ¬­ğ¬‚","name:af":"Ankara","name:am":"áŠ áŠ•áŠ«áˆ«","name:an":"Ankara","name:ar":"Ø£Ù†Ù‚Ø±Ø©","name:as":"à¦†à¦¨à¦•à¦¾à§°à¦¾","name:av":"ĞĞ½ĞºĞ°Ñ€Ğ°","name:ba":"ĞĞ½Ò¡Ğ°Ñ€Ğ°","name:be":"ĞĞ½ĞºĞ°Ñ€Ğ°","name:bg":"ĞĞ½ĞºĞ°Ñ€Ğ°","name:bn":"à¦†à¦™à§à¦•à¦¾à¦°à¦¾","name:bo":"à½¨à½“à¼‹à½à¼‹à½¢à¼","name:br":"Ankara","name:bs":"Ankara","name:ca":"Ankara","name:ce":"ĞĞ½ĞºĞ°Ñ€Ğ°","name:co":"Ankara","name:cs":"Ankara","name:cu":"ĞĞ½ĞºÑ·Ñ€Ğ°","name:cv":"ĞĞ½ĞºĞ°Ñ€Ğ°","name:cy":"Ankara","name:da":"Ankara","name:de":"Ankara","name:dv":"Ş‡Ş¦Ş‚Ş°Ş†Ş§ŞƒŞ§ Ş‡Ş¬ŞˆŞ¬","name:el":"Î†Î³ÎºÏ…ÏÎ±","name:en":"Ankara","name:eo":"Ankaro","name:es":"Ankara","name:eu":"Ankara","name:fa":"Ø¢Ù†Ú©Ø§Ø±Ø§","name:fo":"Ankara","name:fr":"Ankara","name:fy":"Ankara","name:ga":"Ankara","name:gd":"Ankara","name:gl":"Ancara","name:gn":"AnkÃ¡ra","name:he":"×× ×§×¨×”","name:hi":"à¤…à¤‚à¤•à¤¾à¤°à¤¾","name:hr":"Ankara","name:hu":"Ankara","name:hy":"Ô±Õ¶Õ¯Õ¡Ö€Õ¡","name:ie":"Ancara","name:is":"Ankara","name:it":"Ankara","name:ja":"ã‚¢ãƒ³ã‚«ãƒ©","name:ka":"áƒáƒœáƒ™áƒáƒ áƒ","name:ki":"Ankara","name:kk":"ĞĞ½ĞºĞ°Ñ€Ğ°","name:kl":"Ankara","name:km":"á¢á„áŸ‹á€á¶ášáŸ‰á¶","name:kn":"à²…à²‚à²•à²¾à²°à²¾","name:ko":"ì•™ì¹´ë¼","name:ks":"Ø§Ù†Ú©Ø§Ø±Ø§","name:ku":"Enqere","name:kw":"Ankara","name:ky":"ĞĞ½ĞºĞ°Ñ€Ğ°","name:la":"Ancyra","name:lb":"Ankara","name:li":"Ankara","name:lo":"àº­àº±àº‡àºàº²àº¥àº²","name:mi":"Anakara","name:mk":"ĞĞ½ĞºĞ°Ñ€Ğ°","name:ml":"à´…à´™àµà´•à´¾à´±","name:mn":"ĞĞ½ĞºĞ°Ñ€Ğ°","name:mr":"à¤…à¤‚à¤•à¤¾à¤°à¤¾","name:mt":"Ankara","name:my":"á€¡á€”á€ºá€€á€¬á€›á€¬á€™á€¼á€­á€¯á€·","name:ne":"à¤…à¤™à¥à¤•à¤¾à¤°à¤¾","name:nl":"Ankara","name:nn":"Ankara","name:no":"Ankara","name:nv":"TsÃ©Å‚bÃ¡Ã­ Dah YiskÊ¼id","name:oc":"Ankara","name:or":"à¬…à¬™à­à¬•à¬¾à¬°","name:os":"ĞĞ½ĞºĞ°Ñ€Ğ°","name:pa":"à¨…à©°à¨•à¨¾à¨°à¨¾","name:pl":"Ankara","name:ps":"Ø§Ù†Ù‚Ø±Ù‡","name:pt":"Ancara","name:rm":"Ankara","name:ro":"Ankara","name:ru":"ĞĞ½ĞºĞ°Ñ€Ğ°","name:sc":"Ankara","name:sd":"Ø§Ù†Ù‚Ø±Ù‡","name:se":"Ankara","name:sh":"Ankara","name:sk":"Ankara","name:sl":"Ankara","name:sm":"Ankara","name:so":"Ankara","name:sq":"Ankaraja","name:sr":"ĞĞ½ĞºĞ°Ñ€Ğ°","name:sv":"Ankara","name:ta":"à®…à®™à¯à®•à®¾à®°à®¾","name:te":"à°…à°‚à°•à°¾à°°à°¾","name:tg":"ĞĞ½ĞºĞ°Ñ€Ğ°","name:th":"à¸­à¸±à¸‡à¸à¸²à¸£à¸²","name:ti":"áŠ£áŠ•áŠ«áˆ«","name:tk":"Ankara","name:tl":"Ankara","name:tr":"Ankara","name:tt":"Ó˜Ğ½ĞºĞ°Ñ€Ğ°","name:ty":"Ankara","name:ug":"Ø¦Û•Ù†Ù‚Û•Ø±Û•","name:uk":"ĞĞ½ĞºĞ°Ñ€Ğ°","name:ur":"Ø§Ù†Ù‚Ø±Û","name:uz":"Anqara","name:vi":"Ankara","name:wa":"Ankara","name:wo":"Ankara","name:yi":"×× ×§××¨×","name:zh":"å®‰å¡æ‹‰","name:ace":"Ankara","name:acy":"Î‘Î½ÎºÎ±ÏÎ±","name:ady":"ĞĞ½ĞºĞ°Ñ€Ğ°","name:als":"Ankara","name:alt":"ĞĞ½ĞºĞ°Ñ€Ğ°","name:ang":"Ancyra","name:apc":"Ø£Ù†Ù‚Ø±Ø©","name:arc":"ÜÜ¢Ü©ÜªÜ","name:arz":"Ø§Ù†Ù‚Ø±Ù‡","name:ast":"Ankara","name:azb":"Ø¢Ù†Ú©Ø§Ø±Ø§","name:bar":"Ankara","name:bjn":"Angkara","name:cdo":"Ä‚ng-kÄ-lÃ¡","name:chr":"á á‚á§á³","name:ckb":"Ø¦Û•Ù†Ù‚Û•Ø±Û•","name:cnr":"Ankara","name:cop":"â²â²›â²•â²â²£â²","name:cpg":"Î†Î³ÎºÏ…ÏÎ±","name:crh":"Ankara","name:csb":"Ankara","name:diq":"Anqara","name:dsb":"Ankara","name:eml":"Ankara","name:ext":"Anquara","name:frp":"Ankara","name:frr":"Ankara","name:fur":"Ankara","name:gag":"Ankara","name:gct":"Ankara","name:glk":"Ø¢Ù†Ú©Ø§Ø±Ø§","name:got":"ğŒ°ğŒ½ğŒºğŒ¹ğ‚ğŒ°","name:grc":"á¼ŒÎ³ÎºÏ…ÏÎ±","name:gsw":"Ankara","name:haw":"Ankara","name:hit":"ğ’€­ğ’†ªğ’‰¿ğ’€¸","name:hsb":"Ankara","name:hyw":"Ô±Õ¶Õ£Õ¡Ö€Õ¡","name:kaa":"Ankara","name:kbd":"ĞĞ½ĞºĞ°Ñ€Ğ°","name:kiu":"Anqara","name:koi":"ĞĞ½ĞºĞ°Ñ€Ğ°","name:ksh":"Ankara","name:lad":"Ankara","name:lbe":"ĞĞ½ĞºÑŠĞ°Ñ€Ğ°","name:lez":"ĞĞ½ĞºĞ°Ñ€Ğ°","name:lij":"Ankara","name:lld":"Ankara","name:lmo":"Ankara","name:mdf":"ĞĞ½ĞºĞ°Ñ€Ğ°","name:mhr":"ĞĞ½ĞºĞ°Ñ€Ğ°","name:mnc":"á  á ¨á ‹á Šá¡´á Šá  á¡µá  ","name:mrj":"ĞĞ½ĞºĞ°Ñ€Ğ°","name:mwl":"Ankara","name:mzn":"Ø¢Ù†Ú©Ø§Ø±Ø§","name:nah":"Ancara","name:nap":"Ankara","name:nrm":"Ankara","name:ota":"Ø¢Ù†Ù‚Ø±Ù‡","name:pcd":"Ankara","name:pdc":"Ankara","name:peo":"ğ ğ´ğ¤ğºğ","name:pfl":"Ankara","name:pgl":"ášáš…áš‰áš”ášáš","name:pih":"Ankara","name:pms":"Ankara","name:pnb":"Ø§Ù†Ú©Ø±Û","name:pnt":"Î†Î³ÎºÏ…ÏÎ±","name:prs":"Ø§Ù†Ù‚Ø±Ù‡","name:rmy":"Ankara","name:rue":"ĞĞ½ĞºĞ°Ñ€Ğ°","name:rup":"Ancara","name:ruq":"Ancara","name:sah":"ĞĞ½ĞºĞ°Ñ€Ğ°","name:scn":"Ankara","name:sco":"Ankara","name:smn":"Ankara","name:smp":"à €à Ÿà à ’à Ÿà “à Ÿà „","name:sqr":"Ø£Ù†ÙƒÙˆØ±ÙŠØ©","name:stq":"Ankara","name:swg":"Ankara","name:szl":"Ankara","name:tet":"Ankara","name:tly":"Ankara","name:tpi":"Ankara","name:tsd":"Î†Î³ÎºÏ…ÏÎ±","name:udm":"ĞĞ½ĞºĞ°Ñ€Ğ°","name:vec":"Angora","name:vep":"Ankar","name:vls":"Ankara","name:wae":"Ankara","name:wuu":"å®‰å¡æ‹‰","name:xal":"ĞĞ½ĞºĞ°Ñ€Ğ°","name:xlc":"ğŠ€ğŠğŠŒğŠ’ğŠ•ğŠ€","name:xmf":"áƒáƒœáƒ™áƒáƒ áƒ","name:yue":"å®‰å¡æ‹‰","name:zea":"Ankara","name:zza":"Anqara","name:vlce":"Ankara","alt_name:cy":"Ancara","alt_name:ga":"Ancara","alt_name:gl":"Ankara","name:nds-nl":"Ankara","old_name:be":"ĞĞ½Ğ³Ğ¾Ñ€Ğ°","old_name:es":"Angora","name:cu-Glag":"â°€â°â°â°«â°“â°€","name:ks-Arab":"Ø§Ù†Ú©Ø§Ø±Ø§","name:mn-Mong":"á  á ¨á »á  á ·á  ","name:roa-rup":"Ancara","name:ug-Latn":"Enqere","name:cnr-Cyrl":"ĞĞ½ĞºĞ°Ñ€Ğ°","name:lad-Hebr":"×× ×§×¨×”","name:roa-tara":"Ankara","name:xal-Mong":"á  â€á ¨á ‹â€á¡á ‹â€á  â€á ·â€á  ","name:be-tarask":"ĞĞ½ĞºĞ°Ñ€Ğ°"},"display_name":"Ankara, Ã‡ankaya, Ankara, Ä°Ã§ Anadolu BÃ¶lgesi, 06420, TÃ¼rkiye","address":{"city":"Ankara","town":"Ã‡ankaya","state":"Ankara","ISO3166-2-lvl4":"TR-06","region":"Ä°Ã§ Anadolu BÃ¶lgesi","postcode":"06420","country":"TÃ¼rkiye","country_code":"tr"},"population":5864049,"osm_type":"node","osm_id":25869410,"type":"city","location":[32.8540497,39.9207759],"bbox":[32.6940497,39.7607759,33.0140497,40.0807759]}
{"name":"Antalya","other_names":{"name:ab":"ĞĞ½Ò­Ğ°Ğ»Ğ¸Ğ°","name:af":"Antalya","name:ar":"Ø£Ù†Ø·Ø§Ù„ÙŠØ§","name:av":"ĞĞ½Ñ‚Ğ°Ğ»Ğ¸Ñ","name:az":"Antalya","name:ba":"ĞĞ½Ñ‚Ğ°Ğ»ÑŒÑ","name:be":"ĞĞ½Ñ‚Ğ°Ğ»ÑŒÑ","name:bg":"ĞĞ½Ñ‚Ğ°Ğ»Ğ¸Ñ","name:bn":"à¦†à¦¨à¦¤à¦¾à¦²à¦¿à§Ÿà¦¾","name:br":"Antalya","name:bs":"Antalya","name:ca":"Antalya","name:ce":"ĞĞ½Ñ‚Ğ°Ğ»Ğ¸","name:cs":"Antalya","name:cv":"ĞĞ½Ñ‚Ğ°Ğ»ÑŒÑ","name:cy":"Antalya","name:da":"Antalya","name:de":"Antalya","name:el":"Î‘Ï„Ï„Î¬Î»ÎµÎ¹Î±","name:en":"Antalya","name:eo":"Antalya","name:es":"Antalya","name:et":"Antalya","name:eu":"Antalya","name:fa":"Ø¢Ù†ØªØ§Ù„ÛŒØ§","name:fi":"Antalya","name:fr":"Antalya","name:gd":"Antalya","name:gl":"Antalya","name:ha":"Antalya","name:he":"×× ×˜×œ×™×”","name:hi":"à¤…à¤‚à¤¤à¤¾à¤²à¥à¤¯à¤¾","name:hr":"Antalya","name:hu":"Antalya","name:hy":"Ô±Õ¶Õ©Õ¡Õ¬Õ«Õ¡","name:id":"Antalya","name:io":"Antalya","name:it":"Adalia","name:ja":"ã‚¢ãƒ³ã‚¿ãƒ«ãƒ¤","name:ka":"áƒáƒœáƒ—áƒáƒšáƒ˜áƒ","name:kk":"ĞĞ½Ñ‚Ğ°Ğ»Ğ¸Ğ°","name:ko":"ì•ˆíƒˆë¦¬ì•„","name:ku":"Antalya","name:ky":"ĞĞ½Ñ‚Ğ°Ğ»ÑŒÑ","name:la":"Attalea","name:lt":"Antalija","name:lv":"Antalja","name:mk":"ĞĞ½Ñ‚Ğ°Ğ»Ğ¸Ñ˜Ğ°","name:ml":"à´…à´¨àµà´¤à´¾à´²àµà´¯","name:mr":"à¤…à¤‚à¤¤à¤¾à¤²à¥à¤¯à¤¾","name:ms":"Antalya","name:na":"Antalya","name:nl":"Antalya","name:nn":"Antalya","name:no":"Antalya","name:os":"ĞĞ½Ñ‚Ğ°Ğ»ÑŒÑ","name:pl":"Antalya","name:ps":"Ø§Ù†ØªØ§Ù„ÛŒØ§","name:pt":"AntÃ¡lia","name:ro":"Antalya","name:ru":"ĞĞ½Ñ‚Ğ°Ğ»ÑŒÑ","name:rw":"Antalya","name:sd":"Ø§Ù†ØªØ§Ù„ÙŠØ§","name:sh":"Antalya","name:sk":"Antalya","name:sl":"Antalya","name:so":"Antalya","name:sq":"Antalia","name:sr":"ĞĞ½Ñ‚Ğ°Ğ»Ğ¸Ñ˜Ğ°","name:sv":"Antalya","name:sw":"Antalya","name:ta":"à®†à®¨à¯à®¤à®¾à®²à®¿à®¯à®¾","name:tg":"ĞĞ½Ñ‚Ğ°Ğ»Ğ¸Ñ‘","name:th":"à¸­à¸±à¸™à¸—à¸±à¸¥à¸¢à¸²","name:tr":"Antalya","name:tt":"ĞĞ½Ñ‚Ğ°Ğ»Ğ¸Ñ","name:tw":"Antalya","name:uk":"ĞĞ½Ñ‚Ğ°Ğ»Ñ–Ñ","name:ur":"Ø§Ù†Ø·Ø§Ù„ÛŒÛ","name:uz":"Antaliya","name:vi":"Antalya","name:wo":"Atali","name:zh":"å®‰å¡”åˆ©äºš","name:arz":"Ø§Ù†Ø·Ø§Ù„ÙŠØ§","name:azb":"Ø¢Ù†ØªØ§Ù„ÛŒØ§","name:ceb":"Antalya","name:ckb":"Ø¦Ø§Ù†ØªØ§Ù„ÛŒØ§","name:diq":"Antalya","name:gag":"Antalya","name:kaa":"Antalya","name:lbe":"ĞĞ½Ñ‚Ğ°Ğ»ÑŒÑ","name:mhr":"ĞĞ½Ñ‚Ğ°Ğ»ÑŒÑ","name:min":"Antalya","name:mrj":"ĞĞ½Ñ‚Ğ°Ğ»ÑŒÑ","name:myv":"ĞĞ½Ñ‚Ğ°Ğ»ÑŒÑ","name:pnb":"Ø¢Ù†ØªØ§Ù„ÛŒØ§","name:sco":"Antalya","name:szl":"Alanya","name:tum":"Antalya","name:udm":"ĞĞ½Ñ‚Ğ°Ğ»ÑŒÑ","name:vep":"Antal'j","name:war":"Antalya","name:wuu":"å®‰å¡”åˆ©äºš","name:yue":"å®‰å¡”åˆ©äº","old_name":"Adalia;Attaleia","name:simple":"Antalya","name:be-tarask":"ĞĞ½Ñ‚Ğ°Ğ»ÑŒÑ"},"display_name":"Antalya, MuratpaÅŸa, Antalya, Akdeniz BÃ¶lgesi, 07050, TÃ¼rkiye","address":{"city":"Antalya","town":"MuratpaÅŸa","province":"Antalya","ISO3166-2-lvl4":"TR-07","region":"Akdeniz BÃ¶lgesi","postcode":"07050","country":"TÃ¼rkiye","country_code":"tr"},"population":2722103,"osm_type":"node","osm_id":428039517,"type":"city","location":[30.7030242,36.8865728],"bbox":[30.5430242,36.7265728,30.8630242,37.0465728]}
{"name":"Ardahan","other_names":{"name:ar":"Ø£Ø±Ø¯Ø§Ù‡Ø§Ù†","name:bg":"ĞÑ€Ğ´Ğ°Ñ…Ğ°Ğ½","name:ce":"ĞÑ€Ğ´Ğ°Ñ…Ó€Ğ°Ğ½","name:de":"Ardahan","name:el":"Î‘ÏÎ½Ï„Î±Ï‡Î¬Î½","name:en":"Ardahan","name:es":"Ardahan","name:fa":"Ø§Ø±Ø¯Ù‡Ø§Ù†","name:fr":"Ardahan","name:he":"××¨×“×”××Ÿ","name:hy":"Ô±Ö€Õ¤Õ¡Õ°Õ¡Õ¶","name:ja":"ã‚¢ãƒ«ãƒ€ãƒãƒ³","name:ka":"áƒáƒ áƒ¢áƒáƒáƒœáƒ˜","name:ko":"ì•„ë¥´ë‹¤í•œ","name:ku":"ErdÃªxan","name:ml":"à´…àµ¼à´¦à´¹à´¾àµ»","name:pt":"ArdaÃ£","name:ru":"ĞÑ€Ğ´Ğ°Ñ…Ğ°Ğ½","name:sr":"ĞÑ€Ğ´Ğ°Ñ…Ğ°Ğ½","name:tt":"ĞÑ€Ğ´Ğ°Ñ…Ğ°Ğ½","name:uk":"ĞÑ€Ğ´Ğ°Ñ…Ğ°Ğ½","name:ur":"Ø§Ø±Ø¯Ø§ÛØ§Ù†","name:zh":"é˜¿çˆ¾é”æ¼¢","alt_name":"Ardahan ilÃ§esi;Ardahan merkez","name:ckb":"Ø¦Û•Ø±Ø¯ÛØ®Ø§Ù†","name:ota":"Ø§Ø±Ø¯Ù‡Ø§Ù†","alt_name:ku":"ErdÃªhan"},"display_name":"Ardahan, Ardahan Merkez, Ardahan, DoÄŸu Anadolu BÃ¶lgesi, TÃ¼rkiye","address":{"city":"Ardahan","province":"Ardahan","ISO3166-2-lvl4":"TR-75","region":"DoÄŸu Anadolu BÃ¶lgesi","country":"TÃ¼rkiye","country_code":"tr"},"population":96161,"osm_type":"node","osm_id":26486338,"type":"city","location":[42.7035585,41.1102966],"bbox":[42.5435585,40.9502966,42.8635585,41.2702966],"border":{"name":"Ardahan Merkez","other_names":{"name:ar":"Ø£Ø±Ø¯Ø§Ù‡Ø§Ù†","name:az":"ÆrdÉ™han","name:bg":"ĞÑ€Ğ´Ğ°Ñ…Ğ°Ğ½","name:ce":"ĞÑ€Ğ´Ğ°Ñ…Ó€Ğ°Ğ½","name:de":"Ardahan","name:el":"Î‘ÏÎ½Ï„Î±Ï‡Î¬Î½","name:en":"Ardahan","name:fa":"Ø§Ø±Ø¯Ù‡Ø§Ù†","name:he":"××¨×“×”××Ÿ","name:hy":"Ô±Ö€Õ¤Õ¡Õ°Õ¡Õ¶","name:ja":"ã‚¢ãƒ«ãƒ€ãƒãƒ³","name:ka":"áƒáƒ áƒ¢áƒáƒáƒœáƒ˜","name:ko":"ì•„ë¥´ë‹¤í•œ","name:ku":"ErdÃªxan","name:pt":"ArdaÃ£","name:ru":"ĞÑ€Ğ´Ğ°Ñ…Ğ°Ğ½","name:tg":"ĞÑ€Ğ´Ğ°Ò³Ğ¾Ğ½","name:tr":"Ardahan Merkez","name:tt":"ĞÑ€Ğ´Ğ°Ñ…Ğ°Ğ½","name:uk":"ĞÑ€Ğ´Ğ°Ñ…Ğ°Ğ½","name:ur":"Ø§Ø±Ø¯Ø§ÛØ§Ù†","name:zh":"é˜¿çˆ¾é”æ¼¢","alt_name":"Ardahan merkez ilÃ§esi;Ardahan ilÃ§esi;Ardahan merkez","name:es":"Ardahan","name:fr":"Ardahan","name:ml":"à´…àµ¼à´¦à´¹à´¾àµ»","name:sr":"ĞÑ€Ğ´Ğ°Ñ…Ğ°Ğ½","_place_alt_name":"Ardahan ilÃ§esi;Ardahan merkez","name:ckb":"Ø¦Û•Ø±Ø¯ÛØ®Ø§Ù†","name:ota":"Ø§Ø±Ø¯Ù‡Ø§Ù†","alt_name:ku":"ErdÃªhan","alt":"Ardahan"},"display_name":"Ardahan Merkez, Ardahan, DoÄŸu Anadolu BÃ¶lgesi, 75000, TÃ¼rkiye","address":{"city":"Ardahan Merkez","province":"Ardahan","ISO3166-2-lvl4":"TR-75","region":"DoÄŸu Anadolu BÃ¶lgesi","postcode":"75000","country":"TÃ¼rkiye","country_code":"tr"},"population":96161,"osm_type":"relation","osm_id":1651536,"type":"administrative","location":[42.7035585,41.1102966],"bbox":[42.3579362,40.8772707,43.0528134,41.2600522]}}
{"name":"Artvin","other_names":{"name:ab":"ĞÑ€Ò­Ğ²Ğ¸Ğ½","name:ar":"Ø£Ø±ØªÙˆÙŠÙ†","name:av":"ĞÑ€Ñ‚Ğ²Ğ¸Ğ½","name:bg":"ĞÑ€Ñ‚Ğ²Ğ¸Ğ½","name:ce":"ĞÑ€Ñ‚Ğ²Ğ¸Ğ½","name:de":"Artvin","name:el":"Î‘ÏÏ„Î²Î¯Î½","name:en":"Artvin","name:es":"Artvin","name:fa":"Ø¢Ø±ØªÙˆÛŒÙ†","name:fr":"Artvin","name:hu":"Artvin","name:hy":"Ô±Ö€Õ¤Õ¾Õ«Õ¶","name:ja":"ã‚¢ãƒ«ãƒˆãƒ´ã‚£ãƒ³","name:ka":"áƒáƒ áƒ—áƒ•áƒ˜áƒœáƒ˜","name:ko":"ì•„ë¥´íŠ¸ë¹ˆ","name:ku":"Artvin","name:ml":"à´†àµ¼à´¤àµà´µàµ€àµ»","name:os":"ĞÑ€Ñ‚Ğ²Ğ¸Ğ½","name:ru":"ĞÑ€Ñ‚Ğ²Ğ¸Ğ½","name:sr":"ĞÑ€Ñ‚Ğ²Ğ¸Ğ½","name:tg":"ĞÑ€Ñ‚Ğ²Ğ¸Ğ½","name:tt":"ĞÑ€Ñ‚Ğ²Ğ¸Ğ½","name:uk":"ĞÑ€Ñ‚Ğ²Ñ–Ğ½","name:ur":"Ø¢Ø±ØªÙˆÛŒÙ†","name:zh":"é˜¿çˆ¾ç‰¹æº«","name:lzz":"áƒáƒ áƒ—áƒ•áƒ˜áƒœáƒ˜","name:ota":"Ø¢Ø±ØªÙˆÙ†ÛŒ"},"display_name":"Artvin, Artvin Merkez, Artvin, Karadeniz BÃ¶lgesi, TÃ¼rkiye","address":{"city":"Artvin","province":"Artvin","ISO3166-2-lvl4":"TR-08","region":"Karadeniz BÃ¶lgesi","country":"TÃ¼rkiye","country_code":"tr"},"population":25841,"osm_type":"node","osm_id":26482975,"type":"city","location":[41.8287448,41.1830811],"bbox":[41.6687448,41.0230811,41.9887448,41.3430811],"border":{"name":"Artvin Merkez","other_names":{"name:ab":"ĞÑ€Ò­Ğ²Ğ¸Ğ½","name:ar":"Ø£Ø±ØªÙˆÙŠÙ†","name:av":"ĞÑ€Ñ‚Ğ²Ğ¸Ğ½","name:bg":"ĞÑ€Ñ‚Ğ²Ğ¸Ğ½","name:ce":"ĞÑ€Ñ‚Ğ²Ğ¸Ğ½","name:el":"Î‘ÏÏ„Î²Î¯Î½","name:fa":"Ø¢Ø±ØªÙˆÛŒÙ†","name:hy":"Ô±Ö€Õ¤Õ¾Õ«Õ¶","name:ja":"ã‚¢ãƒ«ãƒˆãƒ´ã‚£ãƒ³","name:ka":"áƒáƒ áƒ—áƒ•áƒ˜áƒœáƒ˜","name:ko":"ì•„ë¥´íŠ¸ë¹ˆ","name:os":"ĞÑ€Ñ‚Ğ²Ğ¸Ğ½","name:ru":"ĞÑ€Ñ‚Ğ²Ğ¸Ğ½","name:tg":"ĞÑ€Ñ‚Ğ²Ğ¸Ğ½","name:tr":"Artvin Merkez","name:tt":"ĞÑ€Ñ‚Ğ²Ğ¸Ğ½","name:uk":"ĞÑ€Ñ‚Ğ²Ñ–Ğ½","name:ur":"Ø¢Ø±ØªÙˆÛŒÙ†","name:zh":"é˜¿çˆ¾ç‰¹æº«","name:de":"Artvin","name:en":"Artvin","name:es":"Artvin","name:fr":"Artvin","name:hu":"Artvin","name:ku":"Artvin","name:ml":"à´†àµ¼à´¤àµà´µàµ€àµ»","name:sr":"ĞÑ€Ñ‚Ğ²Ğ¸Ğ½","name:lzz":"áƒáƒ áƒ—áƒ•áƒ˜áƒœáƒ˜","name:ota":"Ø¢Ø±ØªÙˆÙ†ÛŒ","alt":"Artvin"},"display_name":"Artvin Merkez, Artvin, Karadeniz BÃ¶lgesi, 08000, TÃ¼rkiye","address":{"city":"Artvin Merkez","province":"Artvin","ISO3166-2-lvl4":"TR-08","region":"Karadeniz BÃ¶lgesi","postcode":"08000","country":"TÃ¼rkiye","country_code":"tr"},"population":34537,"osm_type":"relation","osm_id":1838464,"type":"administrative","location":[41.8287448,41.1830811],"bbox":[41.5150624,40.9290102,42.1795948,41.3617705]}}
{"name":"AydÄ±n","other_names":{"name:ar":"Ø£ÙŠØ¯ÙŠÙ†","name:av":"ĞĞ¹Ğ´Ñ‹Ğ½","name:az":"AydÄ±n","name:ba":"ĞĞ¹Ğ´Ñ‹Ğ½","name:be":"ĞĞ¹Ğ´Ñ‹Ğ½","name:bg":"ĞĞ¹Ğ´ÑŠĞ½","name:ce":"ĞĞ¹Ğ´Ğ¸Ğ½","name:da":"Aydin","name:el":"Î‘ÏŠÎ´Î¯Î½Î¹Î¿","name:en":"Aydin","name:fa":"Ø¢ÛŒØ¯ÛŒÙ†","name:fy":"AydÄ±n","name:he":"××™×™×“×Ÿ","name:hi":"à¤à¤¦à¤¿à¤¨","name:hu":"AydÄ±n","name:hy":"Ô±ÕµÕ¤Õ¨Õ¶","name:ja":"ã‚¢ã‚¤ãƒ‰ã‚¥ãƒ³","name:ka":"áƒáƒ˜áƒ“áƒ˜áƒœáƒ˜","name:ko":"ì•„ì´ë“ ","name:ku":"AydÃ®n","name:la":"Tralles","name:lt":"Aidinas","name:lv":"Ajdina","name:ml":"à´à´¦àµ€àµ»","name:nl":"AydÄ±n","name:os":"ĞĞ¹Ğ´Ñ‹Ğ½","name:pa":"à¨à¨¦à¨¿à¨¨","name:pt":"Aidim","name:ru":"ĞĞ¹Ğ´Ñ‹Ğ½","name:sq":"AjdÃ«n","name:sr":"ĞÑ˜Ğ´Ğ¸Ğ½","name:tg":"ĞĞ¹Ğ´Ğ¸Ğ½","name:tr":"AydÄ±n","name:uk":"ĞĞ¹Ğ´Ğ¸Ğ½","name:ur":"Ø¢ÛŒØ¯ÛŒÙ†","name:zh":"è‰¾ç™» (åœŸè€³å…¶)","old_name":"Tralles;GÃ¼zelhisar;Guzel Hissar;Î¤ÏÎ±Î»Î»Îµá¿–Ï‚;Anthea;Euanthia;Erynina;Seleucia ad Maeandrum"},"display_name":"AydÄ±n, Efeler, AydÄ±n, Ege BÃ¶lgesi, 09110, TÃ¼rkiye","address":{"city":"AydÄ±n","town":"Efeler","province":"AydÄ±n","ISO3166-2-lvl4":"TR-09","region":"Ege BÃ¶lgesi","postcode":"09110","country":"TÃ¼rkiye","country_code":"tr"},"population":1119084,"osm_type":"node","osm_id":8603453649,"type":"city","location":[27.8435878,37.8483767],"bbox":[27.6835878,37.6883767,28.0035878,38.0083767]}
{"name":"BalÄ±kesir","other_names":{"name:ab":"Ğ‘Ğ°Ğ»Ñ‹Ò›ĞµÑĞ¸Ñ€","name:ar":"Ø¨Ø§Ù„Ù‚ Ø£Ø³ÙŠØ±","name:az":"BalÄ±kÉ™sir","name:be":"Ğ‘Ğ°Ğ»Ñ‹ĞºĞµÑÑ–Ñ€","name:bg":"Ğ‘Ğ°Ğ»ÑŠĞºĞµÑĞ¸Ñ€","name:ce":"Ğ‘Ğ°Ğ»Ğ¸ĞºĞµÑĞ¸Ñ€","name:de":"BalÄ±kesir","name:el":"ÎœÏ€Î±Î»Î¹ÎºÎµÏƒÎ¯Ï","name:en":"BalÄ±kesir","name:es":"BalÄ±kesir","name:fa":"Ø¨Ø§Ù„ÛŒÚ©Ø³ÛŒØ±","name:fr":"BalÄ±kesir","name:hi":"à¤¬à¤¾à¤²à¤¿à¤•à¥‡à¤¸à¤¿à¤°","name:hu":"BalÄ±kesir","name:hy":"Ô²Õ¡Õ¬Õ¨Ö„Õ¥Õ½Õ«Ö€","name:it":"BalÄ±kesir","name:ja":"ãƒãƒ«ã‚±ã‚¹ã‚£ãƒ«","name:ka":"áƒ‘áƒáƒšáƒ˜áƒ¥áƒ”áƒ¡áƒ˜áƒ áƒ˜","name:ko":"ë°œë¦¬ì¼€ì‹œë¥´","name:lt":"Balikesyras","name:lv":"Balikesira","name:mk":"Ğ‘Ğ°Ğ»Ğ¸ĞºĞµÑĞ¸Ñ€","name:ml":"à´¬à´¾à´²à´¿à´–à´¸à´¿àµ¼","name:nl":"BalÄ±kesir","name:no":"BalÄ±kesir","name:os":"Ğ‘Ğ°Ğ»Ñ‹ĞºĞµÑĞ¸Ñ€","name:pt":"BalÄ±kesir","name:ro":"BalÄ±kesir","name:ru":"Ğ‘Ğ°Ğ»Ñ‹ĞºĞµÑĞ¸Ñ€","name:sq":"BallÃ«kesir","name:sr":"Ğ‘Ğ°Ğ»Ğ¸ĞºĞµÑĞ¸Ñ€","name:sv":"BalÄ±kesir","name:tg":"Ğ‘Ğ¾Ğ»Ğ¸ĞºĞµÑĞ¸Ñ€","name:tr":"BalÄ±kesir","name:tt":"Ğ‘Ğ°Ğ»Ñ‹ĞºĞµÑĞ¸Ñ€","name:uk":"Ğ‘Ğ°Ğ»Ğ¸ĞºĞµÑÑ–Ñ€","name:ur":"Ø¨Ø§Ù„Ù‚ Ø§Ø³ÛŒØ±","name:uz":"Baliqesir","name:zh":"å·´å‹’å…‹åŸƒè¥¿çˆ¾"},"display_name":"BalÄ±kesir, Karesi, BalÄ±kesir, Marmara BÃ¶lgesi, 10010, TÃ¼rkiye","address":{"city":"BalÄ±kesir","town":"Karesi","province":"BalÄ±kesir","ISO3166-2-lvl4":"TR-10","region":"Marmara BÃ¶lgesi","postcode":"10010","country":"TÃ¼rkiye","country_code":"tr"},"population":1196170,"osm_type":"node","osm_id":25869582,"type":"city","location":[27.8879787,39.6473917],"bbox":[27.7279787,39.4873917,28.0479787,39.8073917]}
{"name":"BartÄ±n","other_names":{"name:ar":"Ø¨Ø§Ø±ØªÙŠÙ†","name:az":"BartÄ±n","name:ce":"Ğ‘Ğ°Ñ€Ñ‚Ğ¸Ğ½","name:de":"BartÄ±n","name:el":"Î Î±ÏÎ¸Î­Î½Î¹Î¿Î½;Î Î±ÏÎ¸ÎµÎ½Î¯Î¿Ï…","name:en":"BartÄ±n","name:es":"BartÄ±n","name:fa":"Ø¨Ø§Ø±ØªÛŒÙ†","name:fr":"BartÄ±n","name:hu":"BartÄ±n","name:hy":"Ô²Õ¡Ö€Õ©Õ¨Õ¶","name:it":"BartÄ±n","name:ja":"ãƒãƒ«ãƒˆã‚¥ãƒ³","name:ka":"áƒ‘áƒáƒ áƒ—áƒ˜áƒœáƒ˜","name:ko":"ë°”ë¥´í‹´","name:ml":"à´¬à´¾àµ¼à´Ÿàµà´Ÿà´¿àµ»","name:ms":"BartÄ±n","name:na":"BartÄ±n","name:no":"BartÄ±n","name:os":"Ğ‘Ğ°Ñ€Ñ‚Ñ‹Ğ½","name:pl":"BartÄ±n","name:pt":"BartÄ±n","name:ro":"BartÄ±n","name:ru":"Ğ‘Ğ°Ñ€Ñ‚Ñ‹Ğ½","name:rw":"BartÄ±n","name:sh":"BartÄ±n","name:sr":"Ğ‘Ğ°Ñ€Ñ‚Ğ¸Ğ½","name:sw":"BartÄ±n Merkez","name:tg":"Ğ‘Ğ°Ñ€Ñ‚Ğ¸Ğ½","name:tr":"BartÄ±n","name:tt":"Ğ‘Ğ°Ñ€Ñ‚Ñ‹Ğ½","name:uk":"Ğ‘Ğ°Ñ€Ñ‚Ğ¸Ğ½","name:ur":"Ø¨Ø§Ø±ØªÛŒÙ†","name:vi":"BartÄ±n","name:vo":"BartÄ±n","name:zh":"å·´çˆ¾æ»•","name:arz":"Ø¨Ø§Ø±ØªÙŠÙ†","name:ceb":"BartÄ±n","name:crh":"BartÄ±n","name:frr":"BartÄ±n","name:gag":"BartÄ±n","name:min":"BartÄ±n","name:mrj":"Ğ‘Ğ°Ñ€Ñ‚Ñ‹Ğ½","name:sco":"BartÄ±n","name:udm":"Ğ‘Ğ°Ñ€Ñ‚Ñ‹Ğ½","name:war":"BartÄ±n"},"display_name":"BartÄ±n, BartÄ±n Merkez, BartÄ±n, Karadeniz BÃ¶lgesi, TÃ¼rkiye","address":{"city":"BartÄ±n","province":"BartÄ±n","ISO3166-2-lvl4":"TR-74","region":"Karadeniz BÃ¶lgesi","country":"TÃ¼rkiye","country_code":"tr"},"population":207634,"osm_type":"node","osm_id":26483113,"type":"city","location":[32.3366205,41.6350461],"bbox":[32.1766205,41.4750461,32.4966205,41.7950461],"border":{"name":"BartÄ±n Merkez","other_names":{"name:de":"BartÄ±n","name:en":"BartÄ±n","name:tr":"BartÄ±n Merkez","name:ar":"Ø¨Ø§Ø±ØªÙŠÙ†","name:az":"BartÄ±n","name:ce":"Ğ‘Ğ°Ñ€Ñ‚Ğ¸Ğ½","name:el":"Î Î±ÏÎ¸Î­Î½Î¹Î¿Î½;Î Î±ÏÎ¸ÎµÎ½Î¯Î¿Ï…","name:es":"BartÄ±n","name:fa":"Ø¨Ø§Ø±ØªÛŒÙ†","name:fr":"BartÄ±n","name:hu":"BartÄ±n","name:hy":"Ô²Õ¡Ö€Õ©Õ¨Õ¶","name:it":"BartÄ±n","name:ja":"ãƒãƒ«ãƒˆã‚¥ãƒ³","name:ka":"áƒ‘áƒáƒ áƒ—áƒ˜áƒœáƒ˜","name:ko":"ë°”ë¥´í‹´","name:ml":"à´¬à´¾àµ¼à´Ÿàµà´Ÿà´¿àµ»","name:ms":"BartÄ±n","name:na":"BartÄ±n","name:no":"BartÄ±n","name:os":"Ğ‘Ğ°Ñ€Ñ‚Ñ‹Ğ½","name:pl":"BartÄ±n","name:pt":"BartÄ±n","name:ro":"BartÄ±n","name:ru":"Ğ‘Ğ°Ñ€Ñ‚Ñ‹Ğ½","name:rw":"BartÄ±n","name:sh":"BartÄ±n","name:sr":"Ğ‘Ğ°Ñ€Ñ‚Ğ¸Ğ½","name:sw":"BartÄ±n Merkez","name:tg":"Ğ‘Ğ°Ñ€Ñ‚Ğ¸Ğ½","name:tt":"Ğ‘Ğ°Ñ€Ñ‚Ñ‹Ğ½","name:uk":"Ğ‘Ğ°Ñ€Ñ‚Ğ¸Ğ½","name:ur":"Ø¨Ø§Ø±ØªÛŒÙ†","name:vi":"BartÄ±n","name:vo":"BartÄ±n","name:zh":"å·´çˆ¾æ»•","name:arz":"Ø¨Ø§Ø±ØªÙŠÙ†","name:ceb":"BartÄ±n","name:crh":"BartÄ±n","name:frr":"BartÄ±n","name:gag":"BartÄ±n","name:min":"BartÄ±n","name:mrj":"Ğ‘Ğ°Ñ€Ñ‚Ñ‹Ğ½","name:sco":"BartÄ±n","name:udm":"Ğ‘Ğ°Ñ€Ñ‚Ñ‹Ğ½","name:war":"BartÄ±n","alt":"BartÄ±n","alt:tr":"BartÄ±n"},"display_name":"BartÄ±n Merkez, BartÄ±n, Karadeniz BÃ¶lgesi, TÃ¼rkiye","address":{"city":"BartÄ±n Merkez","province":"BartÄ±n","ISO3166-2-lvl4":"TR-74","region":"Karadeniz BÃ¶lgesi","country":"TÃ¼rkiye","country_code":"tr"},"population":207634,"osm_type":"relation","osm_id":1423097,"type":"administrative","location":[32.3366205,41.6350461],"bbox":[32.0949082,41.3029432,32.867821,41.789361]}}
{"name":"Batman","other_names":{"name:ar":"Ø¨Ø·Ù…Ø§Ù†","name:bg":"Ğ‘Ğ°Ñ‚Ğ¼Ğ°Ğ½","name:ce":"Ğ‘Ğ°Ñ‚Ğ¼Ğ°Ğ½","name:el":"ÎœÏ€Î±Ï„Î¼Î¬Î½","name:fa":"Ø¨Ø§ØªÙ…Ø§Ù†","name:he":"×‘×˜××Ÿ","name:hi":"à¤¬à¥ˆà¤Ÿà¤®à¥ˆà¤¨","name:hy":"Ô²Õ¡Õ©Õ´Õ¡Õ¶","name:ja":"ãƒãƒˆãƒãƒ³","name:ka":"áƒ‘áƒáƒ—áƒ›áƒáƒœáƒ˜","name:ko":"ë°”íŠ¸ë§Œ","name:ku":"ÃŠlih","name:ml":"à´¬à´¾à´¤àµà´®à´¾àµ»","name:ru":"Ğ‘Ğ°Ñ‚Ğ¼Ğ°Ğ½","name:sr":"Ğ‘Ğ°Ñ‚Ğ¼Ğ°Ğ½","name:tr":"Batman","name:tt":"Ğ‘Ğ°Ñ‚Ğ¼Ğ°Ğ½","name:uk":"Ğ‘Ğ°Ñ‚Ğ¼Ğ°Ğ½","name:ur":"Ø¨Ø§ØªÙ…Ø§Ù†","name:zh":"å·´ç‰¹æ›¼","name:ckb":"Ø¦ÛÙ„Ø­"},"display_name":"Batman, Batman Merkez, Batman, GÃ¼neydoÄŸu Anadolu BÃ¶lgesi, TÃ¼rkiye","address":{"city":"Batman","province":"Batman","ISO3166-2-lvl4":"TR-72","region":"GÃ¼neydoÄŸu Anadolu BÃ¶lgesi","country":"TÃ¼rkiye","country_code":"tr"},"population":634491,"osm_type":"node","osm_id":26487469,"type":"city","location":[41.1277565,37.8835738],"bbox":[40.9677565,37.7235738,41.2877565,38.0435738],"border":{"name":"Batman Merkez","other_names":{"name:ar":"Ø¨Ø·Ù…Ø§Ù†","name:de":"Batman","name:en":"Batman","name:ku":"ÃŠlih (navend)","name:tr":"Batman Merkez","alt_name":"Batman","name:bg":"Ğ‘Ğ°Ñ‚Ğ¼Ğ°Ğ½","name:ce":"Ğ‘Ğ°Ñ‚Ğ¼Ğ°Ğ½","name:el":"ÎœÏ€Î±Ï„Î¼Î¬Î½","name:fa":"Ø¨Ø§ØªÙ…Ø§Ù†","name:he":"×‘×˜××Ÿ","name:hi":"à¤¬à¥ˆà¤Ÿà¤®à¥ˆà¤¨","name:hy":"Ô²Õ¡Õ©Õ´Õ¡Õ¶","name:ja":"ãƒãƒˆãƒãƒ³","name:ka":"áƒ‘áƒáƒ—áƒ›áƒáƒœáƒ˜","name:ko":"ë°”íŠ¸ë§Œ","name:ml":"à´¬à´¾à´¤àµà´®à´¾àµ»","name:ru":"Ğ‘Ğ°Ñ‚Ğ¼Ğ°Ğ½","name:sr":"Ğ‘Ğ°Ñ‚Ğ¼Ğ°Ğ½","name:tt":"Ğ‘Ğ°Ñ‚Ğ¼Ğ°Ğ½","name:uk":"Ğ‘Ğ°Ñ‚Ğ¼Ğ°Ğ½","name:ur":"Ø¨Ø§ØªÙ…Ø§Ù†","name:zh":"å·´ç‰¹æ›¼","name:ckb":"Ø¦ÛÙ„Ø­","alt":"Batman","alt:ku":"ÃŠlih","alt:tr":"Batman"},"display_name":"Batman Merkez, Batman, GÃ¼neydoÄŸu Anadolu BÃ¶lgesi, TÃ¼rkiye","address":{"city":"Batman Merkez","province":"Batman","ISO3166-2-lvl4":"TR-72","region":"GÃ¼neydoÄŸu Anadolu BÃ¶lgesi","country":"TÃ¼rkiye","country_code":"tr"},"population":477456,"osm_type":"relation","osm_id":1842145,"type":"administrative","location":[41.1277565,37.8835738],"bbox":[40.9864447,37.7133281,41.4804861,38.0824247]}}
{"name":"Bayburt","other_names":{"name:ar":"Ø¨Ø§ÙŠØ¨ÙˆØ±Øª","name:az":"Bayburt","name:ca":"Bayburt","name:ce":"Ğ‘Ğ°Ğ¹Ğ±ÑƒÑ€Ñ‚","name:cs":"Bayburt","name:de":"Bayburt","name:el":"ÎœÏ€Î±ÏŠÎ¼Ï€Î¿ÏÏÏ„","name:en":"Bayburt","name:eo":"Bayburt","name:es":"Bayburt","name:fa":"Ø¨Ø§ÛŒØ¨ÙˆØ±Ø¯","name:fr":"Bayburt","name:hi":"à¤¬à¥‡à¤¬à¤°à¥à¤Ÿ","name:hu":"Bayburt","name:hy":"Ô²Õ¡Õ¢Õ¥Ö€Õ¤","name:it":"Bayburt","name:ja":"ãƒã‚¤ãƒ–ãƒ«ãƒˆ","name:ka":"áƒ‘áƒáƒ˜áƒ‘áƒ£áƒ áƒ—áƒ˜","name:ko":"ë°”ì´ë¶€ë¥´íŠ¸","name:ku":"BaybÃ»rd","name:ml":"à´¬à´¾à´¯àµà´¬àµ‚àµ¼à´¤àµà´¤àµ","name:ms":"Bayburt","name:na":"Bayburt","name:nl":"Bayburt","name:no":"Bayburt","name:pa":"à¨¬à©‡à¨¬à©à¨°à¨¤","name:pl":"Bayburt","name:pt":"Bayburt","name:ro":"Bayburt","name:ru":"Ğ‘Ğ°Ğ¹Ğ±ÑƒÑ€Ñ‚","name:rw":"Bayburt","name:sh":"Bayburt","name:sr":"Ğ‘Ğ°Ñ˜Ğ±ÑƒÑ€Ñ‚","name:sv":"Bayburt","name:sw":"Bayburt","name:tg":"Ğ‘Ğ°Ğ¹Ğ±ÑƒÑ€Ñ‚","name:tr":"Bayburt","name:tt":"Ğ‘Ğ°Ğ¹Ğ±ÑƒÑ€Ñ‚","name:uk":"Ğ‘Ğ°Ğ¹Ğ±ÑƒÑ€Ñ‚","name:ur":"Ø¨Ø§ÛŒØ¨ÙˆØ±Øª","name:vi":"Bayburt","name:vo":"Bayburt","name:zh":"å·´ä¼Šå¸ƒçˆ¾ç‰¹","alt_name":"Papert;Baberc;Baybert","name:ast":"Bayburt","name:azb":"Ø¨Ø§ÛŒØ¨ÙˆØ±Øª","name:ceb":"Bayburt","name:crh":"Bayburt","name:diq":"Bayburt","name:gag":"Bayburt","name:min":"Bayburt","name:mrj":"Ğ‘Ğ°Ğ¹Ğ±ÑƒÑ€Ñ‚","name:pnb":"Ø¨ÛŒØ¨ÙˆØ±Øª","name:pnt":"Î Î±ÏŠÏ€Î¿ÏÏÏ„","name:sco":"Bayburt","name:udm":"Ğ‘Ğ°Ğ¹Ğ±ÑƒÑ€Ñ‚","name:vep":"Baiburt","name:war":"Bayburt","name:zza":"Bayburt","alt_name:hy":"Ô²Õ¡ÕµÕ¢Õ¥Ö€Õ¤;Ô²Õ¡Õ¢Õ¥Ö€Õ±","alt_name:ml":"à´¬à´¾à´¯àµà´¬àµ‚àµ¼à´¦àµ"},"display_name":"Bayburt, Bayburt Merkez, Bayburt, Karadeniz BÃ¶lgesi, TÃ¼rkiye","address":{"city":"Bayburt","province":"Bayburt","ISO3166-2-lvl4":"TR-69","region":"Karadeniz BÃ¶lgesi","country":"TÃ¼rkiye","country_code":"tr"},"population":90154,"osm_type":"node","osm_id":26483234,"type":"city","location":[40.2205036,40.2551608],"bbox":[40.0605036,40.0951608,40.3805036,40.4151608],"border":{"name":"Bayburt Merkez","other_names":{"name:ar":"Ø¨Ø§ÙŠØ¨ÙˆØ±Øª","name:ce":"Ğ‘Ğ°Ğ¹Ğ±ÑƒÑ€Ñ‚","name:de":"Bayburt","name:el":"ÎœÏ€Î±ÏŠÎ¼Ï€Î¿ÏÏÏ„","name:en":"Bayburt","name:fa":"Ø¨Ø§ÛŒØ¨ÙˆØ±Ø¯","name:hi":"à¤¬à¥‡à¤¬à¤°à¥à¤Ÿ","name:hu":"Bayburt","name:hy":"Ô²Õ¡Õ¢Õ¥Ö€Õ¤","name:ja":"ãƒã‚¤ãƒ–ãƒ«ãƒˆ","name:ka":"áƒ‘áƒáƒ˜áƒ‘áƒ£áƒ áƒ—áƒ˜","name:ko":"ë°”ì´ë¶€ë¥´íŠ¸","name:ku":"BaybÃ»rd","name:os":"Ğ‘Ğ°Ğ¹Ğ±ÑƒÑ€Ñ‚","name:pa":"à¨¬à©‡à¨¬à©à¨°à¨¤","name:ru":"Ğ‘Ğ°Ğ¹Ğ±ÑƒÑ€Ñ‚","name:tg":"Ğ‘Ğ¾Ğ¹Ğ±ÑƒÑ€Ñ‚","name:tr":"Bayburt Merkez","name:tt":"Ğ‘Ğ°Ğ¹Ğ±ÑƒÑ€Ñ‚","name:uk":"Ğ‘Ğ°Ğ¹Ğ±ÑƒÑ€Ñ‚","name:ur":"Ø¨Ø§ÛŒØ¨ÙˆØ±Øª","name:zh":"å·´ä¼Šå¸ƒçˆ¾ç‰¹","alt_name":"Papert;Baberc;Baybert","name:pnt":"Î Î±ÏŠÏ€Î¿ÏÏÏ„","name:zza":"Bayburt","name:az":"Bayburt","name:ca":"Bayburt","name:cs":"Bayburt","name:eo":"Bayburt","name:es":"Bayburt","name:fr":"Bayburt","name:it":"Bayburt","name:ml":"à´¬à´¾à´¯àµà´¬àµ‚àµ¼à´¤àµà´¤àµ","name:ms":"Bayburt","name:na":"Bayburt","name:nl":"Bayburt","name:no":"Bayburt","name:pl":"Bayburt","name:pt":"Bayburt","name:ro":"Bayburt","name:rw":"Bayburt","name:sh":"Bayburt","name:sr":"Ğ‘Ğ°Ñ˜Ğ±ÑƒÑ€Ñ‚","name:sv":"Bayburt","name:sw":"Bayburt","name:vi":"Bayburt","name:vo":"Bayburt","name:ast":"Bayburt","name:azb":"Ø¨Ø§ÛŒØ¨ÙˆØ±Øª","name:ceb":"Bayburt","name:crh":"Bayburt","name:diq":"Bayburt","name:gag":"Bayburt","name:min":"Bayburt","name:mrj":"Ğ‘Ğ°Ğ¹Ğ±ÑƒÑ€Ñ‚","name:pnb":"Ø¨ÛŒØ¨ÙˆØ±Øª","name:sco":"Bayburt","name:udm":"Ğ‘Ğ°Ğ¹Ğ±ÑƒÑ€Ñ‚","name:vep":"Baiburt","name:war":"Bayburt","alt_name:hy":"Ô²Õ¡ÕµÕ¢Õ¥Ö€Õ¤;Ô²Õ¡Õ¢Õ¥Ö€Õ±","alt_name:ml":"à´¬à´¾à´¯àµà´¬àµ‚àµ¼à´¦àµ","alt":"Bayburt","alt:tg":"Ğ‘Ğ°Ğ¹Ğ±ÑƒÑ€Ñ‚","alt:tr":"Bayburt"},"display_name":"Bayburt Merkez, Bayburt, Karadeniz BÃ¶lgesi, 69000, TÃ¼rkiye","address":{"city":"Bayburt Merkez","province":"Bayburt","ISO3166-2-lvl4":"TR-69","region":"Karadeniz BÃ¶lgesi","postcode":"69000","country":"TÃ¼rkiye","country_code":"tr"},"population":90154,"osm_type":"relation","osm_id":1596962,"type":"administrative","location":[40.2205036,40.2551608],"bbox":[39.802039,39.9944819,40.7078413,40.5556457]}}
{"name":"Bilecik","other_names":{"name:ar":"Ø¨ÙŠÙ„Ø¬ÙŠÙƒ","name:az":"BilÉ™cik","name:be":"Ğ‘Ñ–Ğ»ĞµĞ´Ğ¶Ñ‹Ğº","name:bg":"Ğ‘Ğ¸Ğ»ĞµĞ´Ğ¶Ğ¸Ğº","name:el":"ÎœÏ€Î¹Î»ÎµÏ„Î¶Î¯Îº","name:fa":"Ø§Ø³ØªØ§Ù† Ø¨ÛŒÙ„Ù‡â€ŒØ¬Ú©","name:hu":"Bilecik","name:hy":"Ô²Õ«Õ¬Õ¥Õ»Õ«Ö„Õ« Õ´Õ¡Ö€Õ¦","name:ka":"áƒ‘áƒ˜áƒšáƒ”áƒ¯áƒ˜áƒ¥áƒ˜áƒ¡ áƒáƒ áƒáƒ•áƒ˜áƒœáƒªáƒ˜áƒ","name:ml":"à´¬à´¿à´²àµ†à´œà´¿à´•àµ","name:ru":"Ğ‘Ğ¸Ğ»ĞµĞ´Ğ¶Ğ¸Ğº","name:sr":"Ğ‘Ğ¸Ğ»ĞµÑŸĞ¸Ğº","name:tr":"Bilecik","name:uk":"Ğ‘Ñ–Ğ»ĞµĞ´Ğ¶Ğ¸Ğº","name:zh":"æ¯”è±å‰å…‹çœ","name:arc":"Ü’ÜÜ Ü“ÜÜŸ","old_name":"ErtuÄŸrul"},"display_name":"Bilecik, Bilecik Merkez, Bilecik, Marmara BÃ¶lgesi, TÃ¼rkiye","address":{"city":"Bilecik","province":"Bilecik","ISO3166-2-lvl4":"TR-11","region":"Marmara BÃ¶lgesi","country":"TÃ¼rkiye","country_code":"tr"},"population":51260,"osm_type":"node","osm_id":25869729,"type":"city","location":[29.9752911,40.1435101],"bbox":[29.8152911,39.9835101,30.1352911,40.3035101],"border":{"name":"Bilecik Merkez","other_names":{"name:ar":"Ø¨ÙŠÙ„Ø¬ÙŠÙƒ","name:az":"BilÉ™cik","name:bg":"Ğ‘Ğ¸Ğ»ĞµĞ´Ğ¶Ğ¸Ğº","name:ce":"Ğ‘Ğ¸Ğ»ĞµĞ´Ğ¶Ğ¸Ğº","name:cs":"BiledÅ¾ik","name:de":"Bilecik","name:el":"ÎœÏ€Î¹Î»ÎµÏ„Î¶Î¯Îº","name:en":"Bilecik","name:fa":"Ø§Ø³ØªØ§Ù† Ø¨ÛŒÙ„Ù‡â€ŒØ¬Ú©","name:hu":"Bilecik","name:hy":"Ô²Õ«Õ¬Õ¥Õ»Õ«Ö„Õ« Õ´Õ¡Ö€Õ¦","name:ja":"ãƒ“ãƒ¬ã‚¸ã‚¯","name:ka":"áƒ‘áƒ˜áƒšáƒ”áƒ¯áƒ˜áƒ¥áƒ˜","name:ko":"ë¹Œë ˆì§€í¬","name:ru":"Ğ‘Ğ¸Ğ»ĞµĞ´Ğ¶Ğ¸Ğº","name:tg":"Ğ‘Ğ¸Ğ»ĞµÒ·Ğ¸Ğº","name:tr":"Bilecik Merkez","name:tt":"Ğ‘Ğ¸Ğ»ĞµÒ—Ğ¸Ğº","name:uk":"Ğ‘Ñ–Ğ»ĞµĞ´Ğ¶Ğ¸Ğº","name:ur":"Ø¨ÛŒÙ„ÛŒØ¬Ú©","name:zh":"æ¯”è±å‰å…‹çœ","name:be":"Ğ‘Ñ–Ğ»ĞµĞ´Ğ¶Ñ‹Ğº","name:ml":"à´¬à´¿à´²àµ†à´œà´¿à´•àµ","name:sr":"Ğ‘Ğ¸Ğ»ĞµÑŸĞ¸Ğº","name:arc":"Ü’ÜÜ Ü“ÜÜŸ","old_name":"ErtuÄŸrul","alt":"Bilecik","alt:ka":"áƒ‘áƒ˜áƒšáƒ”áƒ¯áƒ˜áƒ¥áƒ˜áƒ¡ áƒáƒ áƒáƒ•áƒ˜áƒœáƒªáƒ˜áƒ","alt:tr":"Bilecik"},"display_name":"Bilecik Merkez, Bilecik, Marmara BÃ¶lgesi, TÃ¼rkiye","address":{"city":"Bilecik Merkez","province":"Bilecik","ISO3166-2-lvl4":"TR-11","region":"Marmara BÃ¶lgesi","country":"TÃ¼rkiye","country_code":"tr"},"population":51260,"osm_type":"relation","osm_id":1238969,"type":"administrative","location":[29.9752911,40.1435101],"bbox":[29.720592,39.9933092,30.1595548,40.3137287]}}
{"name":"BingÃ¶l","other_names":{"name:ar":"Ø¨ÙŠÙ†ÙƒÙ„","name:az":"BingÃ¶l","name:ba":"Ğ‘Ğ¸Ğ½Ğ³ÑŒĞ¾Ğ»","name:bg":"Ğ‘Ğ¸Ğ½Ğ³ÑŒĞ¾Ğ»","name:br":"BingÃ¶l","name:ca":"Ã‡ewlÃ®k","name:ce":"Ğ‘Ğ¸Ğ½Ğ³Ğ¾ÑŒĞ»","name:cs":"BingÃ¶l","name:da":"BingÃ¶l","name:de":"BingÃ¶l","name:el":"ÎœÏ€Î¹Î½Î³ÎºÎ¹ÏŒÎ»","name:en":"BingÃ¶l","name:eo":"Bingol","name:es":"BingÃ¶l","name:et":"BingÃ¶l","name:fa":"Ø¨ÛŒÙ†Ú¯ÙˆÙ„","name:fi":"BingÃ¶l","name:fr":"BingÃ¶l","name:he":"×‘×™× ×’×œ","name:hu":"BingÃ¶l","name:hy":"ÕƒÕ¡ÕºÕ¡Õ²Õ»Õ¸Ö‚Ö€","name:ie":"BingÃ¶l","name:it":"BingÃ¶l","name:ja":"ãƒ“ãƒ³ã‚®ãƒ§ãƒ«","name:ka":"áƒ‘áƒ˜áƒœáƒ’áƒáƒšáƒ˜","name:ko":"ë¹™ê´¼","name:ku":"Ã‡ewlÃ®g","name:ml":"à´¬à´¿à´™àµà´•àµ‹àµ¾","name:ms":"BingÃ¶l","name:na":"BingÃ¶l","name:nl":"BingÃ¶l","name:no":"BingÃ¶l","name:oc":"BingÃ¶l","name:os":"Ğ‘Ğ¸Ğ½Ğ³Ñ‘Ğ»ÑŒ","name:pa":"à¨¬à¨¿à©°à¨—à©‹à¨²","name:pl":"BingÃ¶l","name:pt":"BingÃ¶l","name:ro":"BingÃ¶l","name:ru":"Ğ‘Ğ¸Ğ½Ğ³Ñ‘Ğ»ÑŒ","name:rw":"BingÃ¶l","name:sh":"BingÃ¶l","name:sr":"Ğ‘Ğ¸Ğ½Ğ³Ğ¾Ğ»","name:sv":"BingÃ¶l","name:sw":"BingÃ¶l","name:tg":"Ğ‘Ğ¸Ğ½Ğ³Ñ‘Ğ»","name:tr":"BingÃ¶l","name:tt":"Ğ‘Ğ¸Ğ½Ğ³Ó©Ğ»","name:tw":"BingÃ¶l","name:uk":"Ğ‘Ñ–Ğ½Ğ³ÑŒĞ¾Ğ»ÑŒ","name:ur":"Ø¨ÛŒÙ†Ú¯ÙˆÙ„","name:vi":"BingÃ¶l","name:vo":"BingÃ¶l","name:zh":"è³“æ ¼çˆ¾","alt_name":"Ã‡evlik;Ã‡olik","name:arz":"Ø¨ÙŠÙ†ÙƒÙ„","name:ast":"BingÃ¶l","name:azb":"Ø¨ÛŒÙ†Ú¯Ø¤Ù„","name:ceb":"BingÃ¶l","name:ckb":"Ú†Û•ÙˆÙ„ÛŒÚ¯","name:crh":"BingÃ¶l","name:diq":"Ã‡olig","name:gag":"BingÃ¶l","name:min":"BingÃ¶l","name:mrj":"Ğ‘Ğ¸Ğ½Ğ³Ó§Ğ»ÑŒ","name:pnb":"Ø¨Ù†Ú¯ÙˆÙ„","name:scn":"BingÃ¶l","name:sco":"BingÃ¶l","name:szl":"BingÃ¶l","name:udm":"Ğ‘Ğ¸Ğ½Ğ³Ñ‘Ğ»ÑŒ","name:war":"BingÃ¶l","name:zza":"Ã‡olig","old_name":"Ã‡olik;Ã‡apakÃ§ur;Ã‡abakÃ§ur","alt_name:hy":"ÕƒÕ¡ÕºÕ²Õ»Õ¸Ö‚Ö€;ÕƒÕ¡ÕºÕ¡Õ²;Ô¿Õ©Õ¡Õ¼Õ«Õ³;Ô½Õ¸Ö‚Õ¬Öƒ;Ô²Õ«Õ¶Õ£ÕµÕ¸Õ¬","alt_name:ku":"Ã‡olÃ®g;Ã‡ebexÃ§Ã»r"},"display_name":"BingÃ¶l, BingÃ¶l Merkez, BingÃ¶l, DoÄŸu Anadolu BÃ¶lgesi, TÃ¼rkiye","address":{"city":"BingÃ¶l","province":"BingÃ¶l","ISO3166-2-lvl4":"TR-12","region":"DoÄŸu Anadolu BÃ¶lgesi","country":"TÃ¼rkiye","country_code":"tr"},"population":269560,"osm_type":"node","osm_id":26486414,"type":"city","location":[40.4972333,38.8861265],"bbox":[40.3372333,38.7261265,40.6572333,39.0461265],"border":{"name":"BingÃ¶l Merkez","other_names":{"name:ar":"Ø¨ÙŠÙ†ÙƒÙ„","name:bg":"Ğ‘Ğ¸Ğ½Ğ³ÑŒĞ¾Ğ»","name:ce":"Ğ‘Ğ¸Ğ½Ğ³Ğ¾ÑŒĞ»","name:de":"BingÃ¶l","name:el":"ÎœÏ€Î¹Î½Î³ÎºÎ¹ÏŒÎ»","name:fa":"Ø¨ÛŒÙ†Ú¯ÙˆÙ„","name:he":"×‘×™× ×’×œ","name:hy":"ÕƒÕ¡ÕºÕ¡Õ²Õ»Õ¸Ö‚Ö€","name:ja":"ãƒ“ãƒ³ã‚®ãƒ§ãƒ«","name:ka":"áƒ‘áƒ˜áƒœáƒ’áƒáƒšáƒ˜","name:ko":"ë¹™ê´¼","name:ku":"Ã‡ewlÃ®g","name:pa":"à¨¬à¨¿à©°à¨—à©‹à¨²","name:ru":"Ğ‘Ğ¸Ğ½Ğ³Ñ‘Ğ»ÑŒ","name:tr":"BingÃ¶l Merkez","name:tt":"Ğ‘Ğ¸Ğ½Ğ³Ó©Ğ»","name:uk":"Ğ‘Ñ–Ğ½Ğ³ÑŒĞ¾Ğ»ÑŒ","name:ur":"Ø¨ÛŒÙ†Ú¯ÙˆÙ„","name:vi":"BingÃ¶l","name:zh":"è³“æ ¼çˆ¾","alt_name":"BingÃ¶l","name:zza":"Ã‡olig","alt_name:ku":"Ã‡olÃ®g;Ã‡ebexÃ§Ã»r","name:az":"BingÃ¶l","name:ba":"Ğ‘Ğ¸Ğ½Ğ³ÑŒĞ¾Ğ»","name:br":"BingÃ¶l","name:ca":"Ã‡ewlÃ®k","name:cs":"BingÃ¶l","name:da":"BingÃ¶l","name:en":"BingÃ¶l","name:eo":"Bingol","name:es":"BingÃ¶l","name:et":"BingÃ¶l","name:fi":"BingÃ¶l","name:fr":"BingÃ¶l","name:hu":"BingÃ¶l","name:ie":"BingÃ¶l","name:it":"BingÃ¶l","name:ml":"à´¬à´¿à´™àµà´•àµ‹àµ¾","name:ms":"BingÃ¶l","name:na":"BingÃ¶l","name:nl":"BingÃ¶l","name:no":"BingÃ¶l","name:oc":"BingÃ¶l","name:os":"Ğ‘Ğ¸Ğ½Ğ³Ñ‘Ğ»ÑŒ","name:pl":"BingÃ¶l","name:pt":"BingÃ¶l","name:ro":"BingÃ¶l","name:rw":"BingÃ¶l","name:sh":"BingÃ¶l","name:sr":"Ğ‘Ğ¸Ğ½Ğ³Ğ¾Ğ»","name:sv":"BingÃ¶l","name:sw":"BingÃ¶l","name:tg":"Ğ‘Ğ¸Ğ½Ğ³Ñ‘Ğ»","name:tw":"BingÃ¶l","name:vo":"BingÃ¶l","_place_alt_name":"Ã‡evlik;Ã‡olik","name:arz":"Ø¨ÙŠÙ†ÙƒÙ„","name:ast":"BingÃ¶l","name:azb":"Ø¨ÛŒÙ†Ú¯Ø¤Ù„","name:ceb":"BingÃ¶l","name:ckb":"Ú†Û•ÙˆÙ„ÛŒÚ¯","name:crh":"BingÃ¶l","name:diq":"Ã‡olig","name:gag":"BingÃ¶l","name:min":"BingÃ¶l","name:mrj":"Ğ‘Ğ¸Ğ½Ğ³Ó§Ğ»ÑŒ","name:pnb":"Ø¨Ù†Ú¯ÙˆÙ„","name:scn":"BingÃ¶l","name:sco":"BingÃ¶l","name:szl":"BingÃ¶l","name:udm":"Ğ‘Ğ¸Ğ½Ğ³Ñ‘Ğ»ÑŒ","name:war":"BingÃ¶l","old_name":"Ã‡olik;Ã‡apakÃ§ur;Ã‡abakÃ§ur","alt_name:hy":"ÕƒÕ¡ÕºÕ²Õ»Õ¸Ö‚Ö€;ÕƒÕ¡ÕºÕ¡Õ²;Ô¿Õ©Õ¡Õ¼Õ«Õ³;Ô½Õ¸Ö‚Õ¬Öƒ;Ô²Õ«Õ¶Õ£ÕµÕ¸Õ¬","alt":"BingÃ¶l","alt:tr":"BingÃ¶l"},"display_name":"BingÃ¶l Merkez, BingÃ¶l, DoÄŸu Anadolu BÃ¶lgesi, 12000, TÃ¼rkiye","address":{"city":"BingÃ¶l Merkez","province":"BingÃ¶l","ISO3166-2-lvl4":"TR-12","region":"DoÄŸu Anadolu BÃ¶lgesi","postcode":"12000","country":"TÃ¼rkiye","country_code":"tr"},"population":269560,"osm_type":"relation","osm_id":1836191,"type":"administrative","location":[40.4972333,38.8861265],"bbox":[40.1801646,38.7125832,40.8524305,39.1504202]}}
{"name":"Bitlis","other_names":{"name:ab":"Ğ‘Ğ¸Ò­Ğ»Ğ¸Ñ","name:ar":"Ø¨Ø¯Ù„ÙŠØ³","name:az":"Bitlis","name:bg":"Ğ‘Ğ¸Ñ‚Ğ»Ğ¸Ñ","name:ca":"Bitlis","name:ce":"Ğ‘Ğ¸Ñ‚Ğ»Ğ¸Ñ","name:cs":"Bitlis","name:de":"Bitlis","name:el":"ÎœÏ€Î¹Ï„Î»Î¯Ï‚","name:en":"Bitlis","name:eo":"Bitlis","name:es":"Bitlis","name:fa":"Ø¨ÛŒØªÙ„ÛŒØ³","name:fr":"Bitlis","name:hy":"Ô²Õ¡Õ²Õ¥Õ·","name:it":"Bitlis","name:ja":"ãƒ“ãƒˆãƒªã‚¹","name:ka":"áƒ‘áƒ˜áƒ—áƒšáƒ˜áƒ¡áƒ˜","name:ko":"ë¹„í‹€ë¦¬ìŠ¤","name:ku":"BidlÃ®s","name:lt":"Bitlisas","name:ml":"à´¬à´¿à´¤àµà´²àµ€à´¸àµ","name:ms":"Bitlis","name:na":"Bitlis","name:nl":"Bitlis","name:nn":"Bitlis","name:no":"Bitlis","name:os":"Ğ‘Ğ¸Ñ‚Ğ»Ğ¸Ñ","name:pl":"Bitlis","name:pt":"Bitlis","name:ro":"Bitlis","name:ru":"Ğ‘Ğ¸Ñ‚Ğ»Ğ¸Ñ","name:rw":"Bitlis","name:sh":"Bitlis","name:sq":"Bitlis","name:sr":"Ğ‘Ğ¸Ñ‚Ğ»Ğ¸Ñ","name:sv":"Bitlis","name:th":"à¸šà¸´à¸•à¸¥à¸´à¸ª","name:tr":"Bitlis","name:tt":"Ğ‘Ğ¸Ñ‚Ğ»Ğ¸Ñ","name:uk":"Ğ‘Ñ–Ñ‚Ğ»Ñ–Ñ","name:ur":"Ø¨ØªÙ„ÛŒØ³","name:vi":"Bitlis","name:vo":"Bitlis","name:zh":"æ¯”ç‰¹åˆ©æ–¯","name:arc":"Ü’ÜÜ¬ Ü•Ü ÜÜ£","name:ast":"Bitlis","name:azb":"Ø¨ØªÙ„ÛŒØ³","name:ckb":"Ø¨Ø¯Ù„ÛŒØ³","name:gag":"Bitlis","name:ota":"Ø¨Ø¯Ù„ÙŠØ³","name:syc":"Ü’ÜÜ¬ Ü•Ü ÜÜ£","name:war":"Bitlis","name:wuu":"æ¯”ç‰¹åˆ©æ–¯","name:zza":"BÄ±dlis","alt_name:ar":"Ø¨ÙŠØ·Ù„ÙŠØ³;Ø¨ØªÙ„ÙŠØ³","alt_name:ml":"à´¬à´¿à´¦àµà´²àµ€à´¸àµ"},"display_name":"Bitlis, Bitlis Merkez, Bitlis, DoÄŸu Anadolu BÃ¶lgesi, TÃ¼rkiye","address":{"city":"Bitlis","province":"Bitlis","ISO3166-2-lvl4":"TR-13","region":"DoÄŸu Anadolu BÃ¶lgesi","country":"TÃ¼rkiye","country_code":"tr"},"population":352277,"osm_type":"node","osm_id":26486498,"type":"city","location":[42.1084568,38.4020539],"bbox":[41.9484568,38.2420539,42.2684568,38.5620539],"border":{"name":"Bitlis Merkez","other_names":{"name:ar":"Ø¨Ø¯Ù„ÙŠØ³","name:bg":"Ğ‘Ğ¸Ñ‚Ğ»Ğ¸Ñ","name:ce":"Ğ‘Ğ¸Ñ‚Ğ»Ğ¸Ñ","name:de":"Bitlis","name:el":"ÎœÏ€Î¹Ï„Î»Î¯Ï‚","name:en":"Bitlis","name:fa":"Ø¨ÛŒØªÙ„ÛŒØ³","name:hy":"Ô²Õ¡Õ²Õ¥Õ·","name:ja":"ãƒ“ãƒˆãƒªã‚¹","name:ka":"áƒ‘áƒ˜áƒ—áƒšáƒ˜áƒ¡áƒ˜","name:ko":"ë¹„í‹€ë¦¬ìŠ¤","name:ku":"BidlÃ®s","name:lt":"Bitlisas","name:ru":"Ğ‘Ğ¸Ñ‚Ğ»Ğ¸Ñ","name:sr":"Ğ‘Ğ¸Ñ‚Ğ»Ğ¸Ñ","name:th":"à¸šà¸´à¸•à¸¥à¸´à¸ª","name:tr":"Bitlis Merkez","name:tt":"Ğ‘Ğ¸Ñ‚Ğ»Ğ¸Ñ","name:uk":"Ğ‘Ñ–Ñ‚Ğ»Ñ–Ñ","name:ur":"Ø¨ØªÙ„ÛŒØ³","name:vi":"Bitlis","name:zh":"æ¯”ç‰¹åˆ©æ–¯","alt_name":"Bitlis","name:ota":"Ø¨Ø¯Ù„ÙŠØ³","name:zza":"BÄ±dlis","name:ab":"Ğ‘Ğ¸Ò­Ğ»Ğ¸Ñ","name:az":"Bitlis","name:ca":"Bitlis","name:cs":"Bitlis","name:eo":"Bitlis","name:es":"Bitlis","name:fr":"Bitlis","name:it":"Bitlis","name:ml":"à´¬à´¿à´¤àµà´²àµ€à´¸àµ","name:ms":"Bitlis","name:na":"Bitlis","name:nl":"Bitlis","name:nn":"Bitlis","name:no":"Bitlis","name:os":"Ğ‘Ğ¸Ñ‚Ğ»Ğ¸Ñ","name:pl":"Bitlis","name:pt":"Bitlis","name:ro":"Bitlis","name:rw":"Bitlis","name:sh":"Bitlis","name:sq":"Bitlis","name:sv":"Bitlis","name:vo":"Bitlis","name:arc":"Ü’ÜÜ¬ Ü•Ü ÜÜ£","name:ast":"Bitlis","name:azb":"Ø¨ØªÙ„ÛŒØ³","name:ckb":"Ø¨Ø¯Ù„ÛŒØ³","name:gag":"Bitlis","name:syc":"Ü’ÜÜ¬ Ü•Ü ÜÜ£","name:war":"Bitlis","name:wuu":"æ¯”ç‰¹åˆ©æ–¯","alt_name:ar":"Ø¨ÙŠØ·Ù„ÙŠØ³;Ø¨ØªÙ„ÙŠØ³","alt_name:ml":"à´¬à´¿à´¦àµà´²àµ€à´¸àµ","alt":"Bitlis","alt:tr":"Bitlis"},"display_name":"Bitlis Merkez, Bitlis, DoÄŸu Anadolu BÃ¶lgesi, 13000, TÃ¼rkiye","address":{"city":"Bitlis Merkez","province":"Bitlis","ISO3166-2-lvl4":"TR-13","region":"DoÄŸu Anadolu BÃ¶lgesi","postcode":"13000","country":"TÃ¼rkiye","country_code":"tr"},"population":71077,"osm_type":"relation","osm_id":1836397,"type":"administrative","location":[42.1084568,38.4020539],"bbox":[41.79767,38.1577338,42.4212912,38.5029508]}}
{"name":"Bolu","other_names":{"name:ar":"Ø¨ÙˆÙ„Ùˆ","name:de":"Bolu","name:el":"Î’Î¹Î¸ÏÎ½Î¹Î¿Î½","name:en":"Bolu","name:es":"Bolu","name:fr":"Bolu","name:it":"Bolu","name:ko":"ë³¼ë£¨","name:la":"Claudiopolis","name:ml":"à´¬àµ‹à´²àµ","name:nl":"Bolu","name:no":"Bolu","name:pl":"Bolu","name:pt":"Bolu","name:ru":"Ğ‘Ğ¾Ğ»Ñƒ","name:sr":"Ğ‘Ğ¾Ğ»Ñƒ","name:sv":"Bolu","name:tr":"Bolu","name:uk":"Ğ‘Ğ¾Ğ»Ñƒ","name:zh":"åšç›§","name:grc":"Î’Î¹Î¸ÏÎ½Î¹Î¿Î½","alt_name:el":"ÎœÏ€Î¿Î»Î¿Ï","alt_name:la":"Bithynium"},"display_name":"Bolu, Bolu Merkez, Bolu, Karadeniz BÃ¶lgesi, TÃ¼rkiye","address":{"city":"Bolu","province":"Bolu","ISO3166-2-lvl4":"TR-14","region":"Karadeniz BÃ¶lgesi","country":"TÃ¼rkiye","country_code":"tr"},"population":184682,"osm_type":"node","osm_id":3479054194,"type":"city","location":[31.6110479,40.7332953],"bbox":[31.4510479,40.5732953,31.7710479,40.8932953],"border":{"name":"Bolu Merkez","other_names":{"name:ar":"Ø¨ÙˆÙ„Ùˆ","name:be":"Ğ‘Ğ°Ğ»Ñƒ","name:bg":"Ğ‘Ğ¾Ğ»Ñƒ","name:ce":"Ğ‘Ğ¾Ğ»Ñƒ","name:de":"Bolu","name:el":"ÎœÏ€Î¿Î»Î¿Ï","name:en":"Bolu","name:fa":"Ø¨ÙˆÙ„Ùˆ","name:hy":"Ô²Õ¸Õ¬Õ¸Ö‚","name:ja":"ãƒœãƒ«","name:ka":"áƒ‘áƒáƒšáƒ£","name:ko":"ë³¼ë£¨","name:os":"Ğ‘Ğ¾Ğ»Ñƒ","name:ru":"Ğ‘Ğ¾Ğ»Ñƒ","name:tg":"neighbourhood","name:tr":"Bolu Merkez","name:tt":"Ğ‘Ğ¾Ğ»Ñƒ","name:uk":"Ğ‘Ğ¾Ğ»Ñƒ","name:ur":"Ø¨ÙˆÙ„Ùˆ","name:es":"Bolu","name:fr":"Bolu","name:it":"Bolu","name:la":"Claudiopolis","name:ml":"à´¬àµ‹à´²àµ","name:nl":"Bolu","name:no":"Bolu","name:pl":"Bolu","name:pt":"Bolu","name:sr":"Ğ‘Ğ¾Ğ»Ñƒ","name:sv":"Bolu","name:zh":"åšç›§","name:grc":"Î’Î¹Î¸ÏÎ½Î¹Î¿Î½","alt_name:el":"ÎœÏ€Î¿Î»Î¿Ï","alt_name:la":"Bithynium","alt":"Bolu","alt:el":"Î’Î¹Î¸ÏÎ½Î¹Î¿Î½","alt:tr":"Bolu"},"display_name":"Bolu Merkez, Bolu, Karadeniz BÃ¶lgesi, TÃ¼rkiye","address":{"city":"Bolu Merkez","province":"Bolu","ISO3166-2-lvl4":"TR-14","region":"Karadeniz BÃ¶lgesi","country":"TÃ¼rkiye","country_code":"tr"},"population":217935,"osm_type":"relation","osm_id":1795630,"type":"administrative","location":[31.6110479,40.7332953],"bbox":[31.3027852,40.5238481,31.9966609,40.9878651]}}
{"name":"Burdur","other_names":{"name:ar":"Ø¨ÙˆØ±Ø¯ÙˆØ±","name:ce":"Ğ‘ÑƒÑ€Ğ´ÑƒÑ€","name:el":"ÎœÏ€Î¿Ï…ÏÎ½Ï„Î¿ÏÏ","name:fa":"Ø¨ÙˆØ±Ø¯ÙˆØ±","name:hu":"Burdur","name:hy":"Ô²Õ¸Ö‚Ö€Õ¤Õ¸Ö‚Ö€","name:ja":"ãƒ–ãƒ«ãƒ‰ã‚¥ãƒ«","name:ka":"áƒ‘áƒ£áƒ áƒ“áƒ£áƒ áƒ˜","name:ko":"ë¶€ë¥´ë‘ë¥´","name:ru":"Ğ‘ÑƒÑ€Ğ´ÑƒÑ€","name:sr":"Ğ‘ÑƒÑ€Ğ´ÑƒÑ€","name:tg":"Ğ‘ÑƒÑ€Ğ´ÑƒÑ€","name:tr":"Burdur","name:uk":"Ğ‘ÑƒÑ€Ğ´ÑƒÑ€","name:zh":"å¸ƒçˆ¾æœçˆ¾"},"display_name":"Burdur, Burdur Merkez, Burdur, Akdeniz BÃ¶lgesi, TÃ¼rkiye","address":{"city":"Burdur","province":"Burdur","ISO3166-2-lvl4":"TR-15","region":"Akdeniz BÃ¶lgesi","country":"TÃ¼rkiye","country_code":"tr"},"population":261401,"osm_type":"node","osm_id":25869752,"type":"city","location":[30.2887286,37.7248394],"bbox":[30.1287286,37.5648394,30.4487286,37.8848394],"border":{"name":"Burdur Merkez","other_names":{"name:ar":"Ø¨ÙˆØ±Ø¯ÙˆØ±","name:ce":"Ğ‘ÑƒÑ€Ğ´ÑƒÑ€","name:el":"ÎœÏ€Î¿Ï…ÏÎ½Ï„Î¿ÏÏ","name:fa":"Ø¨ÙˆØ±Ø¯ÙˆØ±","name:hu":"Burdur","name:hy":"Ô²Õ¸Ö‚Ö€Õ¤Õ¸Ö‚Ö€","name:ja":"ãƒ–ãƒ«ãƒ‰ã‚¥ãƒ«","name:ka":"áƒ‘áƒ£áƒ áƒ“áƒ£áƒ áƒ˜","name:ko":"ë¶€ë¥´ë‘ë¥´","name:ru":"Ğ‘ÑƒÑ€Ğ´ÑƒÑ€","name:tg":"Ğ‘ÑƒÑ€Ğ´ÑƒÑ€","name:tr":"Burdur Merkez","name:uk":"Ğ‘ÑƒÑ€Ğ´ÑƒÑ€","name:zh":"å¸ƒçˆ¾æœçˆ¾","alt_name":"Burdur","name:sr":"Ğ‘ÑƒÑ€Ğ´ÑƒÑ€","alt":"Burdur","alt:tr":"Burdur"},"display_name":"Burdur Merkez, Burdur, Akdeniz BÃ¶lgesi, TÃ¼rkiye","address":{"city":"Burdur Merkez","province":"Burdur","ISO3166-2-lvl4":"TR-15","region":"Akdeniz BÃ¶lgesi","country":"TÃ¼rkiye","country_code":"tr"},"population":261401,"osm_type":"relation","osm_id":1280048,"type":"administrative","location":[30.2887286,37.7248394],"bbox":[29.9642844,37.3619714,30.4885217,37.8326588]}}
{"name":"Bursa","other_names":{"name:ar":"Ø¨ÙˆØ±ØµØ©","name:bg":"Ğ‘ÑƒÑ€ÑĞ°","name:bn":"à¦¬à§à¦°à¦¸à¦¾","name:ce":"Ğ‘ÑƒÑ€ÑĞ°","name:de":"Bursa","name:el":"Î ÏÎ¿ÏÏƒÎ±","name:en":"Bursa","name:es":"Bursa","name:fa":"Ø¨ÙˆØ±Ø³Ø§","name:fr":"Bursa","name:he":"×‘×•×¨×¡×”","name:hi":"à¤¬à¥à¤°à¥à¤¸à¤¾","name:hu":"Bursa","name:hy":"Ô²Õ¸Ö‚Ö€Õ½Õ¡","name:it":"Bursa","name:ja":"ãƒ–ãƒ«ã‚µ","name:ka":"áƒ‘áƒ£áƒ áƒ¡áƒ","name:kk":"Ğ‘ÑƒÑ€ÑĞ°","name:kn":"à²¬à³à²°à³à²¸à²¾","name:ko":"ë¶€ë¥´ì‚¬","name:ku":"Bursa","name:mk":"Ğ‘ÑƒÑ€ÑĞ°","name:ml":"à´¬àµàµ¼à´¸","name:mr":"à¤¬à¥à¤°à¥à¤¸à¤¾","name:ne":"à¤¬à¥à¤°à¥à¤¸à¤¾","name:nl":"Bursa","name:no":"Bursa","name:os":"Ğ‘ÑƒÑ€ÑÃ¦","name:pl":"Bursa","name:ps":"Ø¨ÙˆØ±ØµÙ‡","name:pt":"Bursa","name:ro":"Bursa","name:ru":"Ğ‘ÑƒÑ€ÑĞ°","name:sr":"Ğ‘ÑƒÑ€ÑĞ°","name:sv":"Bursa","name:ta":"à®ªà¯à®°à¯à®šà®¾","name:tg":"Ğ‘ÑƒÑ€ÑĞ¾","name:th":"à¸šà¸¹à¸£à¹Œà¸‹à¸²","name:tr":"Bursa","name:ug":"Ø¨Û‡Ø±Ø³Ø§","name:uk":"Ğ‘ÑƒÑ€ÑĞ°","name:ur":"Ø¨ÙˆØ±ØµÛ","name:zh":"å¸ƒå°”è¨","name:ckb":"Ø¨ÙˆØ±Ø³Ø§","name:pnb":"Ø¨Ø±ØµÛ"},"display_name":"Bursa, Osmangazi, Bursa, Marmara BÃ¶lgesi, 16010, TÃ¼rkiye","address":{"city":"Bursa","town":"Osmangazi","province":"Bursa","ISO3166-2-lvl4":"TR-16","region":"Marmara BÃ¶lgesi","postcode":"16010","country":"TÃ¼rkiye","country_code":"tr"},"population":3238618,"osm_type":"node","osm_id":289534897,"type":"city","location":[29.0675039,40.1825734],"bbox":[28.9075039,40.0225734,29.2275039,40.3425734]}
{"name":"Ã‡anakkale","other_names":{"name:ar":"Ø¬Ù†Ù‚ Ù‚Ù„Ø¹Ø©","name:az":"Ã‡anaqqala","name:bg":"Ğ§Ğ°Ğ½Ğ°ĞºĞºĞ°Ğ»Ğµ","name:ce":"Ğ§Ğ°Ğ½Ğ°ĞºĞºĞ°Ğ»Ğµ","name:de":"Ã‡anakkale","name:el":"Î¤ÏƒÎ±Î½Î¬ÎºÎºÎ±Î»Îµ","name:es":"Ã‡anakkale","name:fa":"Ú†Ø§Ù†Ø§Ú© Ù‚Ù„Ø¹Ù‡","name:he":"×¦'× ×§×œ×”","name:hi":"à¤šà¤¾à¤£à¤•à¤²à¥‡","name:hu":"Ã‡anakkale","name:hy":"Õ‰Õ¡Õ¶Õ¡Ö„Ö„Õ¡Õ¬Õ¥","name:ja":"ãƒãƒ£ãƒŠãƒƒã‚«ãƒ¬","name:ka":"áƒ©áƒáƒœáƒáƒ¥áƒ™áƒáƒšáƒ”","name:ko":"ì°¨ë‚˜ì¹¼ë ˆ","name:lt":"ÄŒanakalÄ—","name:lv":"ÄŒanakale","name:mk":"Ğ§Ğ°Ğ½Ğ°ĞºĞºĞ°Ğ»Ğµ","name:ml":"à´šà´¾à´£à´•àµà´•à´²à´¿","name:nl":"Ã‡anakkale","name:os":"Ğ§Ğ°Ğ½Ğ°ĞºĞºĞ°Ğ»Ğµ","name:pa":"à¨šà¨¾à¨¨à¨•à¨²à©‡","name:pt":"Chanacale","name:ro":"Ã‡anakkale","name:ru":"Ğ§Ğ°Ğ½Ğ°ĞºĞºĞ°Ğ»Ğµ","name:sk":"Ã‡anakkale","name:sq":"Ã‡anakalaja","name:sr":"Ğ§Ğ°Ğ½Ğ°ĞºĞ°Ğ»Ğµ","name:tg":"Ğ§Ğ°Ğ½Ğ¾Ò›Ò›Ğ°Ğ»ÑŠĞ°","name:th":"à¸Šà¸²à¸™à¸±à¸à¸„à¸²à¹à¸¥","name:tr":"Ã‡anakkale","name:tt":"Ğ§Ğ°Ğ½Ğ°ĞºĞºĞ°Ğ»Ğµ","name:uk":"Ğ§Ğ°Ğ½Ğ°ĞºĞºĞ°Ğ»Ğµ","name:ur":"Ú†Ù†Ø§Ù‚ Ù‚Ù„Ø¹Û","name:uz":"ChanoqqalÊ¼a","name:zh":"æ°ç´å¡èŠ","old_name":"Kale-i Sultaniye","alt_name:es":"ChanÃ¡cale","alt_name:ml":"à´¡à´¾àµ¼à´¡à´¨àµ†à´²àµà´²à´¿à´¯","old_name:es":"Fortaleza del SultÃ¡n"},"display_name":"Ã‡anakkale, Ã‡anakkale Merkez, Ã‡anakkale, Marmara BÃ¶lgesi, TÃ¼rkiye","address":{"city":"Ã‡anakkale","province":"Ã‡anakkale","ISO3166-2-lvl4":"TR-17","region":"Marmara BÃ¶lgesi","country":"TÃ¼rkiye","country_code":"tr"},"population":143675,"osm_type":"node","osm_id":25869575,"type":"city","location":[26.4028892,40.146271],"bbox":[26.2428892,39.986271,26.5628892,40.306271],"border":{"name":"Ã‡anakkale Merkez","other_names":{"name:ar":"Ø¬Ù†Ù‚ Ù‚Ù„Ø¹Ø©","name:az":"Ã‡anaqqala","name:bg":"Ğ§Ğ°Ğ½Ğ°ĞºĞºĞ°Ğ»Ğµ","name:ce":"Ğ§Ğ°Ğ½Ğ°ĞºĞºĞ°Ğ»Ğµ","name:el":"Î¤ÏƒÎ±Î½Î¬ÎºÎºÎ±Î»Îµ","name:fa":"Ú†Ù†Ø§Ù‚â€ŒÙ‚Ù„Ø¹Ù‡","name:he":"×¦'× ×§×œ×”","name:hy":"Õ‰Õ¡Õ¶Õ¡Ö„Ö„Õ¡Õ¬Õ¥","name:ja":"ãƒãƒ£ãƒŠãƒƒã‚«ãƒ¬","name:ka":"áƒ©áƒáƒœáƒáƒ¥áƒ™áƒáƒšáƒ”","name:ko":"ì°¨ë‚˜ì¹¼ë ˆ","name:lt":"ÄŒanakalÄ—","name:lv":"ÄŒanakale","name:mk":"Ğ§Ğ°Ğ½Ğ°ĞºĞºĞ°Ğ»Ğµ","name:os":"Ğ§Ğ°Ğ½Ğ°ĞºĞºĞ°Ğ»Ğµ","name:pa":"à¨šà¨¾à¨¨à¨•à¨²à©‡","name:ru":"Ğ§Ğ°Ğ½Ğ°ĞºĞºĞ°Ğ»Ğµ","name:sq":"Ã‡anakalaja","name:sr":"Ğ§Ğ°Ğ½Ğ°ĞºĞ°Ğ»Ğµ","name:tg":"Ğ§Ğ°Ğ½Ğ¾Ò›Ò›Ğ°Ğ»ÑŠĞ°","name:th":"à¸Šà¸²à¸™à¸±à¸à¸„à¸²à¹à¸¥","name:tr":"Ã‡anakkale","name:tt":"Ğ§Ğ°Ğ½Ğ°ĞºĞºĞ°Ğ»Ğµ","name:uk":"Ğ§Ğ°Ğ½Ğ°ĞºĞºĞ°Ğ»Ğµ","name:ur":"Ú†Ù†Ø§Ù‚ Ù‚Ù„Ø¹Û","name:uz":"ChanoqqalÊ¼a","name:zh":"æ°ç´å¡èŠ","name:zza":"Ã‡anaxqele","name:de":"Ã‡anakkale","name:es":"Ã‡anakkale","name:hi":"à¤šà¤¾à¤£à¤•à¤²à¥‡","name:hu":"Ã‡anakkale","name:ml":"à´šà´¾à´£à´•àµà´•à´²à´¿","name:nl":"Ã‡anakkale","name:pt":"Chanacale","name:ro":"Ã‡anakkale","name:sk":"Ã‡anakkale","old_name":"Kale-i Sultaniye","alt_name:es":"ChanÃ¡cale","alt_name:ml":"à´¡à´¾àµ¼à´¡à´¨àµ†à´²àµà´²à´¿à´¯","old_name:es":"Fortaleza del SultÃ¡n","alt":"Ã‡anakkale","alt:fa":"Ú†Ø§Ù†Ø§Ú© Ù‚Ù„Ø¹Ù‡"},"display_name":"Ã‡anakkale Merkez, Ã‡anakkale, Marmara BÃ¶lgesi, TÃ¼rkiye","address":{"city":"Ã‡anakkale Merkez","province":"Ã‡anakkale","ISO3166-2-lvl4":"TR-17","region":"Marmara BÃ¶lgesi","country":"TÃ¼rkiye","country_code":"tr"},"population":143675,"osm_type":"relation","osm_id":1816280,"type":"administrative","location":[26.4028892,40.146271],"bbox":[26.166488,39.9118083,26.8398115,40.2369752]}}
{"name":"Ã‡ankÄ±rÄ±","other_names":{"name:ar":"Ø¬Ø§Ù†Ù‚Ø±ÙŠ","name:az":"Ã‡anqÄ±rÄ±","name:bg":"Ğ§Ğ°Ğ½ĞºÑŠÑ€ÑŠ","name:ca":"Ã‡ankÄ±rÄ±","name:ce":"Ğ§Ğ°Ğ½ĞºĞ¸Ñ€Ğ¸","name:cs":"Ã‡ankÄ±rÄ±","name:de":"Ã‡ankÄ±rÄ±","name:el":"Î“Î¬Î³Î³ÏÎ±","name:en":"Ã‡ankÄ±rÄ±","name:eo":"Ã‡ankÄ±rÄ±","name:es":"Ã‡ankÄ±rÄ±","name:fa":"Ú†Ø§Ù†Ù‚Ø±ÛŒ","name:fr":"Ã‡ankÄ±rÄ±","name:hi":"à¤šà¤¾à¤¨à¤•à¤¿à¤°à¥€","name:hy":"Õ‰Õ¡Õ¶Õ¯Õ«Ö€Õ«","name:it":"Ã‡ankÄ±rÄ±","name:ja":"ãƒãƒ£ãƒ³ã‚¯ãƒ«","name:ka":"áƒ©áƒáƒœáƒ¥áƒ˜áƒ áƒ˜","name:ko":"ì°½í‚¤ë¦¬","name:la":"Gangra","name:ml":"à´šà´¾à´™àµà´•à´¿à´±à´¿","name:ms":"Ã‡ankÄ±rÄ±","name:na":"Ã‡ankÄ±rÄ±","name:nl":"Ã‡ankÄ±rÄ±","name:no":"Ã‡ankÄ±rÄ±","name:pl":"Ã‡ankÄ±rÄ±","name:pt":"Ã‡ankÄ±rÄ±","name:ro":"Ã‡ankÄ±rÄ±","name:ru":"Ğ§Ğ°Ğ½ĞºÑ‹Ñ€Ñ‹","name:rw":"Ã‡ankÄ±rÄ±","name:sh":"Ã‡ankÄ±rÄ±","name:sr":"Ğ§Ğ°Ğ½ĞºĞ¸Ñ€Ğ¸","name:sw":"Ã‡ankÄ±rÄ±","name:tg":"Ğ§Ğ¾Ğ½Ò›Ğ¸Ñ€Ğ¸","name:tr":"Ã‡ankÄ±rÄ±","name:tt":"Ğ§Ğ°Ğ½ĞºÑ‹Ñ€Ñ‹","name:uk":"Ğ§Ğ°Ğ½ĞºĞ¸Ñ€Ğ¸","name:ur":"Ú†Ø§Ù†Ù‚Ø±ÛŒ","name:vi":"Ã‡ankÄ±rÄ±","name:vo":"Ã‡ankÄ±rÄ±","name:zh":"æ˜Œå…‹å‹’","name:arz":"Ø¬Ø§Ù†Ù‚Ø±Ù‰","name:azb":"Ú†Ø§Ù†Ù‚Ø±ÛŒ","name:ceb":"Khanjarah","name:crh":"Ã‡ankÄ±rÄ±","name:frr":"Ã‡ankÄ±rÄ±","name:gag":"Ã‡ankÄ±rÄ±","name:min":"Ã‡ankÄ±rÄ±","name:mrj":"Ğ§Ğ°Ğ½ĞºÑ‹Ñ€Ñ‹","name:pnb":"Ú†Ù†Ú©ÛŒØ±ÛŒ","name:udm":"Ğ§Ğ°Ğ½ĞºÑ‹Ñ€Ñ‹","name:war":"Ã‡ankÄ±rÄ±","name:zza":"Ã‡anqÄ±riye","old_name":"Germanicopolis;Gangra;Î“Î¬Î³Î³ÏÎ±;Î“ÎµÏÎ¼Î±Î½Î¹ÎºÏŒÏ€Î¿Î»Î¹Ï‚;Changra;Kandari;Kanghari","official_name":"Ã‡ankÄ±rÄ±"},"display_name":"Ã‡ankÄ±rÄ±, Ã‡ankÄ±rÄ± Merkez, Ã‡ankÄ±rÄ±, Ä°Ã§ Anadolu BÃ¶lgesi, TÃ¼rkiye","address":{"city":"Ã‡ankÄ±rÄ±","province":"Ã‡ankÄ±rÄ±","ISO3166-2-lvl4":"TR-18","region":"Ä°Ã§ Anadolu BÃ¶lgesi","country":"TÃ¼rkiye","country_code":"tr"},"population":186074,"osm_type":"node","osm_id":5798692759,"type":"city","location":[33.6212704,40.5971947],"bbox":[33.4612704,40.4371947,33.7812704,40.7571947],"border":{"name":"Ã‡ankÄ±rÄ± Merkez","other_names":{"name:ar":"Ù…Ø±ÙƒØ² Ø¬Ø§Ù†Ù‚Ø±ÙŠ","name:de":"Ã‡ankÄ±rÄ±","name:en":"Ã‡ankÄ±rÄ±","name:tr":"Ã‡ankÄ±rÄ± Merkez","alt_name":"Ã‡ankÄ±rÄ±","name:az":"Ã‡anqÄ±rÄ±","name:bg":"Ğ§Ğ°Ğ½ĞºÑŠÑ€ÑŠ","name:ca":"Ã‡ankÄ±rÄ±","name:ce":"Ğ§Ğ°Ğ½ĞºĞ¸Ñ€Ğ¸","name:cs":"Ã‡ankÄ±rÄ±","name:el":"Î“Î¬Î³Î³ÏÎ±","name:eo":"Ã‡ankÄ±rÄ±","name:es":"Ã‡ankÄ±rÄ±","name:fa":"Ú†Ø§Ù†Ù‚Ø±ÛŒ","name:fr":"Ã‡ankÄ±rÄ±","name:hi":"à¤šà¤¾à¤¨à¤•à¤¿à¤°à¥€","name:hy":"Õ‰Õ¡Õ¶Õ¯Õ«Ö€Õ«","name:it":"Ã‡ankÄ±rÄ±","name:ja":"ãƒãƒ£ãƒ³ã‚¯ãƒ«","name:ka":"áƒ©áƒáƒœáƒ¥áƒ˜áƒ áƒ˜","name:ko":"ì°½í‚¤ë¦¬","name:la":"Gangra","name:ml":"à´šà´¾à´™àµà´•à´¿à´±à´¿","name:ms":"Ã‡ankÄ±rÄ±","name:na":"Ã‡ankÄ±rÄ±","name:nl":"Ã‡ankÄ±rÄ±","name:no":"Ã‡ankÄ±rÄ±","name:pl":"Ã‡ankÄ±rÄ±","name:pt":"Ã‡ankÄ±rÄ±","name:ro":"Ã‡ankÄ±rÄ±","name:ru":"Ğ§Ğ°Ğ½ĞºÑ‹Ñ€Ñ‹","name:rw":"Ã‡ankÄ±rÄ±","name:sh":"Ã‡ankÄ±rÄ±","name:sr":"Ğ§Ğ°Ğ½ĞºĞ¸Ñ€Ğ¸","name:sw":"Ã‡ankÄ±rÄ±","name:tg":"Ğ§Ğ¾Ğ½Ò›Ğ¸Ñ€Ğ¸","name:tt":"Ğ§Ğ°Ğ½ĞºÑ‹Ñ€Ñ‹","name:uk":"Ğ§Ğ°Ğ½ĞºĞ¸Ñ€Ğ¸","name:ur":"Ú†Ø§Ù†Ù‚Ø±ÛŒ","name:vi":"Ã‡ankÄ±rÄ±","name:vo":"Ã‡ankÄ±rÄ±","name:zh":"æ˜Œå…‹å‹’","name:arz":"Ø¬Ø§Ù†Ù‚Ø±Ù‰","name:azb":"Ú†Ø§Ù†Ù‚Ø±ÛŒ","name:ceb":"Khanjarah","name:crh":"Ã‡ankÄ±rÄ±","name:frr":"Ã‡ankÄ±rÄ±","name:gag":"Ã‡ankÄ±rÄ±","name:min":"Ã‡ankÄ±rÄ±","name:mrj":"Ğ§Ğ°Ğ½ĞºÑ‹Ñ€Ñ‹","name:pnb":"Ú†Ù†Ú©ÛŒØ±ÛŒ","name:udm":"Ğ§Ğ°Ğ½ĞºÑ‹Ñ€Ñ‹","name:war":"Ã‡ankÄ±rÄ±","name:zza":"Ã‡anqÄ±riye","old_name":"Germanicopolis;Gangra;Î“Î¬Î³Î³ÏÎ±;Î“ÎµÏÎ¼Î±Î½Î¹ÎºÏŒÏ€Î¿Î»Î¹Ï‚;Changra;Kandari;Kanghari","official_name":"Ã‡ankÄ±rÄ±","alt":"Ã‡ankÄ±rÄ±","alt:ar":"Ø¬Ø§Ù†Ù‚Ø±ÙŠ","alt:tr":"Ã‡ankÄ±rÄ±"},"display_name":"Ã‡ankÄ±rÄ± Merkez, Ã‡ankÄ±rÄ±, Ä°Ã§ Anadolu BÃ¶lgesi, TÃ¼rkiye","address":{"city":"Ã‡ankÄ±rÄ± Merkez","province":"Ã‡ankÄ±rÄ±","ISO3166-2-lvl4":"TR-18","region":"Ä°Ã§ Anadolu BÃ¶lgesi","country":"TÃ¼rkiye","country_code":"tr"},"population":186074,"osm_type":"relation","osm_id":1647154,"type":"administrative","location":[33.6212704,40.5971947],"bbox":[33.4856954,40.3192397,34.1260758,40.809262]}}
{"name":"Ã‡orum","other_names":{"name:ar":"Ø¬ÙˆØ±ÙˆÙ…","name:el":"Î¤ÏƒÎ¿ÏÎ¿ÏÎ¼","name:en":"Ã‡orum","name:hi":"à¤›à¥‹à¤°à¥à¤®","name:hu":"Corum","name:hy":"Õ‰Õ¸Ö€Õ¸Ö‚Õ´","name:ka":"áƒ©áƒáƒ áƒ£áƒ›áƒ˜","name:ml":"à´›àµ‹à´±àµà´‚","name:ru":"Ğ§Ğ¾Ñ€ÑƒĞ¼","name:sr":"Ğ§Ğ¾Ñ€ÑƒĞ¼","name:tr":"Ã‡orum","name:uk":"Ğ§Ğ¾Ñ€ÑƒĞ¼","name:grc":"Î•á½Ï‡Î¬Î½ÎµÎ¹Î±"},"display_name":"Ã‡orum, Ã‡orum Merkez, Ã‡orum, Karadeniz BÃ¶lgesi, TÃ¼rkiye","address":{"city":"Ã‡orum","province":"Ã‡orum","ISO3166-2-lvl4":"TR-19","region":"Karadeniz BÃ¶lgesi","country":"TÃ¼rkiye","country_code":"tr"},"population":527863,"osm_type":"node","osm_id":26483306,"type":"city","location":[34.9537362,40.5498762],"bbox":[34.7937362,40.3898762,35.1137362,40.7098762],"border":{"name":"Ã‡orum Merkez","other_names":{"name:de":"Ã‡orum","name:en":"Ã‡orum","name:tr":"Ã‡orum Merkez","name:ar":"Ø¬ÙˆØ±ÙˆÙ…","name:el":"Î¤ÏƒÎ¿ÏÎ¿ÏÎ¼","name:hi":"à¤›à¥‹à¤°à¥à¤®","name:hu":"Corum","name:hy":"Õ‰Õ¸Ö€Õ¸Ö‚Õ´","name:ka":"áƒ©áƒáƒ áƒ£áƒ›áƒ˜","name:ml":"à´›àµ‹à´±àµà´‚","name:ru":"Ğ§Ğ¾Ñ€ÑƒĞ¼","name:sr":"Ğ§Ğ¾Ñ€ÑƒĞ¼","name:uk":"Ğ§Ğ¾Ñ€ÑƒĞ¼","name:grc":"Î•á½Ï‡Î¬Î½ÎµÎ¹Î±","alt":"Ã‡orum","alt:tr":"Ã‡orum"},"display_name":"Ã‡orum Merkez, Ã‡orum, Karadeniz BÃ¶lgesi, TÃ¼rkiye","address":{"city":"Ã‡orum Merkez","province":"Ã‡orum","ISO3166-2-lvl4":"TR-19","region":"Karadeniz BÃ¶lgesi","country":"TÃ¼rkiye","country_code":"tr"},"population":527863,"osm_type":"relation","osm_id":1331279,"type":"administrative","location":[34.9537362,40.5498762],"bbox":[34.4769786,40.259365,35.2936726,40.7520542]}}
{"name":"Denizli","other_names":{"name:ar":"Ø¯Ù†ÙŠØ²Ù„ÙŠ","name:az":"DÉ™nizli","name:be":"Ğ”ÑĞ½Ñ–Ğ·Ğ»Ñ–","name:bg":"Ğ”ĞµĞ½Ğ¸Ğ·Ğ»Ğ¸","name:ce":"Ğ”ĞµĞ½Ğ¸Ğ·Ğ»Ğ¸","name:cv":"Ğ”ĞµĞ½Ğ¸Ğ·Ğ»Ğ¸","name:el":"ÎÏ„ÎµÎ½Î¹Î¶Î»Î¯","name:en":"Denizli","name:fa":"Ø¯Ù†ÛŒØ²Ù„ÛŒ","name:hi":"à¤¡à¥‡à¤¨à¤¿à¤œà¤¼à¤²à¥€","name:hu":"Denizli","name:ja":"ãƒ‡ãƒ‹ã‚ºãƒª","name:ku":"DenizlÃ®","name:ml":"à´¦àµ†à´¨àµ€à´¸àµà´²à´¿","name:pt":"Denizli","name:ru":"Ğ”ĞµĞ½Ğ¸Ğ·Ğ»Ğ¸","name:sr":"Ğ”ĞµĞ½Ğ¸Ğ·Ğ»Ğ¸","name:tr":"Denizli","name:uk":"Ğ”ĞµĞ½Ñ–Ğ·Ğ»Ñ–","name:ur":"Ø¯Ù†ÛŒØ²Ù„ÛŒ","name:ckb":"Ø¯Û•Ù†ÛŒØ²Ù„ÛŒ","alt_name:ar":"Ø¯ÙŠÙ†Ø²Ù„ÙŠ"},"display_name":"Denizli, Pamukkale, Denizli, Ege BÃ¶lgesi, 20175, TÃ¼rkiye","address":{"city":"Denizli","town":"Pamukkale","province":"Denizli","ISO3166-2-lvl4":"TR-20","region":"Ege BÃ¶lgesi","postcode":"20175","country":"TÃ¼rkiye","country_code":"tr"},"population":1051056,"osm_type":"node","osm_id":6196594141,"type":"city","location":[29.0966476,37.7827875],"bbox":[28.9366476,37.6227875,29.2566476,37.9427875]}
{"name":"DiyarbakÄ±r","other_names":{"name:ar":"Ø¯ÙŠØ§Ø± Ø¨ÙƒØ±","name:be":"Ğ”Ñ‹ÑÑ€Ğ±Ğ°ĞºÑ‹Ñ€","name:bg":"Ğ”Ğ¸Ğ°Ñ€Ğ±ĞµĞºĞ¸Ñ€","name:de":"Diyarbakir","name:el":"ÎÏ„Î¹Î³Î¹Î¬ÏÎ¼Ï€Î±ÎºÎ¹Ï","name:en":"DiyarbakÄ±r","name:es":"Diyarbakir","name:fa":"Ø¯ÛŒØ§Ø±Ø¨Ú©Ø±","name:hi":"à¤¡à¤¿à¤¯à¤¾à¤°à¤¬à¤•à¤¿à¤°","name:hy":"Ô´Õ«Õ¡Ö€Õ¢Õ¥Ö„Õ«Ö€","name:ka":"áƒ“áƒ˜áƒáƒ áƒ‘áƒáƒ¥áƒ˜áƒ áƒ˜","name:ku":"Amed","name:ml":"à´¦à´¿à´¯à´¾àµ¼à´¬à´•àµà´•à´¿àµ¼","name:ps":"Ø¯ÛŒØ§Ø±Ø¨Ú©Ø±","name:ru":"Ğ”Ğ¸ÑÑ€Ğ±Ğ°ĞºÑ‹Ñ€","name:sr":"Ğ”Ğ¸Ñ˜Ğ°Ñ€Ğ±Ğ°ĞºĞ¸Ñ€","name:tr":"DiyarbakÄ±r","name:uk":"Ğ”Ñ–ÑÑ€Ğ±Ğ°ĞºĞ¸Ñ€","name:ur":"Ø¯ÛŒØ§Ø± Ø¨Ú©Ø±","name:arc":"ÜÜ¡ÜÜ•","name:azb":"Ø¯ÛŒØ§Ø±Ø¨Ú©Ø±","name:ckb":"Ø¦Ø§Ù…Û•Ø¯","name:grc":"á¼ŒÎ¼Î¹Î´Î±","name:syc":"ÜÜ¡ÜÜ•","name:zza":"Diyarbekir","name:be-tarask":"Ğ”Ñ‹ÑÑ€Ğ±Ğ°ĞºÑ‹Ñ€"},"display_name":"DiyarbakÄ±r, Sur, DiyarbakÄ±r, GÃ¼neydoÄŸu Anadolu BÃ¶lgesi, 21300, TÃ¼rkiye","address":{"city":"DiyarbakÄ±r","town":"Sur","province":"DiyarbakÄ±r","ISO3166-2-lvl4":"TR-21","region":"GÃ¼neydoÄŸu Anadolu BÃ¶lgesi","postcode":"21300","country":"TÃ¼rkiye","country_code":"tr"},"population":1804880,"osm_type":"node","osm_id":26487666,"type":"city","location":[40.2363542,37.9162222],"bbox":[40.0763542,37.7562222,40.3963542,38.0762222]}
{"name":"DÃ¼zce","other_names":{"name:ar":"Ø¯ÙˆØ²Ø¬Ø©","name:az":"DÃ¼zcÉ™","name:be":"Ğ”Ğ·ÑĞ·Ğ´Ğ¶Ñ","name:ce":"Ğ”ÑƒÑŒĞ·Ğ´Ğ¶Ğµ","name:de":"DÃ¼zce","name:el":"ÎÏ„Î¿ÏÎ¶Ï„Î¶Îµ","name:en":"DÃ¼zce","name:es":"DÃ¼zce","name:fa":"Ø¯ÙˆØ²Ø¬Ù‡","name:fr":"DÃ¼zce","name:hu":"DÃ¼zce","name:hy":"Ô´ÕµÕ¸Ö‚Õ¦Õ»Õ¥","name:it":"DÃ¼zce","name:ja":"ãƒ‡ãƒ¥ã‚ºã‚¸ã‚§","name:ka":"áƒ“áƒ£áƒ–áƒ¯áƒ”","name:ko":"ë’¤ì¦ˆì œ","name:ky":"Ğ”Ò¯Ğ·Ğ¶Ğµ","name:lv":"DizdÅ¾e","name:ml":"à´¦àµ‚à´¸àµà´œ","name:nl":"DÃ¼zce","name:no":"DÃ¼zce","name:os":"Ğ”ÑĞ·Ğ´Ğ¶Ğµ","name:pl":"DÃ¼zce","name:pt":"DÃ¼zce","name:ru":"Ğ”ÑĞ·Ğ´Ğ¶Ğµ","name:sq":"Dyzxhe","name:sr":"Ğ”ÑƒĞ·ÑŸĞµ","name:tg":"Ğ”ÑƒĞ·Ò·Ğµ","name:tr":"DÃ¼zce","name:tt":"Ğ”Ò¯Ğ·Ò—Ğµ","name:uk":"Ğ”ÑĞ·Ğ´Ğ¶Ğµ","name:ur":"Ø¯ÙˆØ²Ø¬Û","name:zh":"è¿ªèŒ²å‚‘","name:zza":"Duzca"},"display_name":"DÃ¼zce, DÃ¼zce Merkez, DÃ¼zce, Karadeniz BÃ¶lgesi, TÃ¼rkiye","address":{"city":"DÃ¼zce","province":"DÃ¼zce","ISO3166-2-lvl4":"TR-81","region":"Karadeniz BÃ¶lgesi","country":"TÃ¼rkiye","country_code":"tr"},"population":370371,"osm_type":"node","osm_id":25869768,"type":"city","location":[31.1595361,40.8391531],"bbox":[30.9995361,40.6791531,31.3195361,40.9991531],"border":{"name":"DÃ¼zce Merkez","other_names":{"name:ar":"Ø¯ÙˆØ²Ø¬Ø©","name:az":"DÃ¼zcÉ™","name:be":"Ğ”Ğ·ÑĞ·Ğ´Ğ¶Ñ","name:ce":"Ğ”ÑƒÑŒĞ·Ğ´Ğ¶Ğµ","name:de":"DÃ¼zce","name:el":"ÎÏ„Î¿ÏÎ¶Ï„Î¶Îµ","name:en":"DÃ¼zce","name:fa":"Ø¯ÙˆØ²Ø¬Ù‡","name:hy":"Ô´ÕµÕ¸Ö‚Õ¦Õ»Õ¥","name:ja":"ãƒ‡ãƒ¥ã‚ºã‚¸ã‚§","name:ka":"áƒ“áƒ£áƒ–áƒ¯áƒ”","name:ko":"ë’¤ì¦ˆì œ","name:ky":"Ğ”Ò¯Ğ·Ğ¶Ğµ","name:lv":"DizdÅ¾e","name:os":"Ğ”ÑĞ·Ğ´Ğ¶Ğµ","name:ru":"Ğ”ÑĞ·Ğ´Ğ¶Ğµ","name:sq":"Dyzxhe","name:sr":"Ğ”ÑƒĞ·ÑŸĞµ","name:tg":"Ğ”ÑƒĞ·Ò·Ğµ","name:tr":"DÃ¼zce Merkez","name:tt":"Ğ”Ò¯Ğ·Ò—Ğµ","name:uk":"Ğ”ÑĞ·Ğ´Ğ¶Ğµ","name:ur":"Ø¯ÙˆØ²Ø¬Û","name:zh":"è¿ªèŒ²å‚‘","alt_name":"DÃ¼zce","name:zza":"Duzca","name:es":"DÃ¼zce","name:fr":"DÃ¼zce","name:hu":"DÃ¼zce","name:it":"DÃ¼zce","name:ml":"à´¦àµ‚à´¸àµà´œ","name:nl":"DÃ¼zce","name:no":"DÃ¼zce","name:pl":"DÃ¼zce","name:pt":"DÃ¼zce","alt":"DÃ¼zce","alt:tr":"DÃ¼zce"},"display_name":"DÃ¼zce Merkez, DÃ¼zce, Karadeniz BÃ¶lgesi, TÃ¼rkiye","address":{"city":"DÃ¼zce Merkez","province":"DÃ¼zce","ISO3166-2-lvl4":"TR-81","region":"Karadeniz BÃ¶lgesi","country":"TÃ¼rkiye","country_code":"tr"},"population":370371,"osm_type":"relation","osm_id":1393953,"type":"administrative","location":[31.1595361,40.8391531],"bbox":[31.0059717,40.6229263,31.4070392,40.9964724]}}
{"name":"Edirne","other_names":{"name:ar":"Ø£Ø¯Ø±Ù†Ø©","name:bg":"ĞĞ´Ñ€Ğ¸Ğ½","name:bs":"Edirne","name:ce":"Ğ­Ğ´Ğ¸Ñ€Ğ½Ğµ","name:cs":"Drinopol","name:el":"Î‘Î´ÏÎ¹Î±Î½Î¿ÏÏ€Î¿Î»Î·","name:es":"Edirne","name:fa":"Ø§Ø¯Ø±Ù†Ù‡","name:fr":"Edirne","name:he":"××“×™×¨× ×”","name:hi":"à¤à¤¡à¤¿à¤°à¤¨à¥‡","name:hr":"Edirne","name:hu":"Edirne","name:hy":"Ô±Õ¤Ö€Õ«Õ¡Õ¶Õ¡ÕºÕ¸Õ¬Õ«Õ½","name:it":"Edirne","name:ja":"ã‚¨ãƒ‡ã‚£ãƒ«ãƒ","name:ka":"áƒ”áƒ“áƒ˜áƒ áƒœáƒ”","name:ko":"ì—ë””ë¥´ë„¤","name:ku":"Edirne","name:lt":"EdirnÄ—","name:mk":"ĞĞ´Ñ€Ğ¸Ğ½","name:ml":"à´à´¦à´¿àµ¼à´¨àµ†","name:my":"á€¡á€®á€’á€«á€¸á€”á€®á€™á€¼á€­á€¯á€·","name:oc":"Edirne","name:ru":"Ğ­Ğ´Ğ¸Ñ€Ğ½Ğµ","name:sk":"Drinopol","name:sr":"ĞˆĞµĞ´Ñ€ĞµĞ½Ğµ","name:tt":"Ó˜Ğ´Ğ¸Ñ€Ğ½Ó™","name:uk":"Ğ•Ğ´Ñ–Ñ€Ğ½Ğµ","name:ur":"Ø§Ø¯Ø±Ù†Û","name:zh":"åŸƒè¿ªçˆ¾å…§","name:ckb":"Ø¦Û•Ø¯Ø±Ù†Û•","alt_name:ml":"à´…à´¡àµà´°à´¿à´¯à´¾à´¨àµ‹à´ªàµà´ªà´¿àµ¾","old_name:en":"Adrianople","old_name:es":"AdrianÃ³polis","old_name:hr":"Drinopolje","old_name:it":"Adrianopoli","name:sr-Latn":"Jedrene"},"display_name":"Edirne, Edirne Merkez, Edirne, Marmara BÃ¶lgesi, TÃ¼rkiye","address":{"city":"Edirne","province":"Edirne","ISO3166-2-lvl4":"TR-22","region":"Marmara BÃ¶lgesi","country":"TÃ¼rkiye","country_code":"tr"},"population":180002,"osm_type":"node","osm_id":25869574,"type":"city","location":[26.5587225,41.6759327],"bbox":[26.3987225,41.5159327,26.7187225,41.8359327],"border":{"name":"Edirne Merkez","other_names":{"name:am":"áŠ¤á‹²áˆ¨áŠ•","name:ar":"Ø£Ø¯Ø±Ù†Ø©","name:az":"ÆdirnÉ™","name:ba":"Ó˜Ğ´Ğ¸Ñ€Ğ½Ó™","name:be":"Ğ­Ğ´Ñ‹Ñ€Ğ½Ñ","name:bg":"ĞĞ´Ñ€Ğ¸Ğ½","name:ce":"Ğ­Ğ´Ğ¸Ñ€Ğ½Ğµ","name:el":"Î‘Î´ÏÎ¹Î±Î½Î¿ÏÏ€Î¿Î»Î·","name:fa":"Ø§Ø¯Ø±Ù†Ù‡","name:he":"××“×™×¨× ×”","name:hi":"à¤à¤¡à¤¿à¤°à¤¨à¥‡","name:hy":"Ô±Õ¤Ö€Õ«Õ¡Õ¶Õ¡ÕºÕ¸Õ¬Õ«Õ½","name:ja":"ã‚¨ãƒ‡ã‚£ãƒ«ãƒ","name:ka":"áƒ”áƒ“áƒ˜áƒ áƒœáƒ”","name:kk":"Ğ•Ğ´Ğ¸Ñ€Ğ½Ğµ","name:km":"á¢áŸáŒá¸ášá¸ááŸ","name:ko":"ì—ë””ë¥´ë„¤","name:ks":"Ø§ÙÚˆÙØ±Ù†ÙÛ","name:la":"Hadrianopolis","name:mk":"ĞĞ´Ñ€Ğ¸Ğ½","name:mr":"à¤à¤¦à¤¿à¤°à¥à¤¨à¥‡","name:my":"á€¡á€®á€’á€«á€¸á€”á€®á€™á€¼á€­á€¯á€·","name:ne":"à»€àº­àº”àºµà»àº™à»€àº­àº”àºµà»àº™","name:pa":"à¨à¨¦à¨¿à¨°à¨¨à©‡","name:ru":"Ğ­Ğ´Ğ¸Ñ€Ğ½Ğµ","name:sa":"à¤à¤¦à¤¿à¤°à¥à¤¨à¥‡","name:sd":"Ø§Ø¯Ø±Ù†Ù‡","name:sl":"Odrin","name:sq":"Edreneja","name:sr":"ĞˆĞµĞ´Ñ€ĞµĞ½Ğµ","name:tg":"Ğ­Ğ´Ğ¸Ñ€Ğ½Ğ°","name:th":"à¹€à¸­à¸”à¸µà¸£à¹Œà¹à¸™","name:tr":"Edirne Merkez","name:tt":"Ó˜Ğ´Ğ¸Ñ€Ğ½Ó™","name:uk":"Ğ•Ğ´Ñ–Ñ€Ğ½Ğµ","name:ur":"Ø§Ø¯Ø±Ù†Û","name:zh":"åŸƒè¿ªçˆ¾å…§","alt_name":"Edirne","name:bs":"Edirne","name:cs":"Drinopol","name:es":"Edirne","name:fr":"Edirne","name:hr":"Edirne","name:hu":"Edirne","name:it":"Edirne","name:ku":"Edirne","name:lt":"EdirnÄ—","name:ml":"à´à´¦à´¿àµ¼à´¨àµ†","name:oc":"Edirne","name:sk":"Drinopol","name:ckb":"Ø¦Û•Ø¯Ø±Ù†Û•","alt_name:ml":"à´…à´¡àµà´°à´¿à´¯à´¾à´¨àµ‹à´ªàµà´ªà´¿àµ¾","old_name:en":"Adrianople","old_name:es":"AdrianÃ³polis","old_name:hr":"Drinopolje","old_name:it":"Adrianopoli","name:sr-Latn":"Jedrene","alt":"Edirne"},"display_name":"Edirne Merkez, Edirne, Marmara BÃ¶lgesi, TÃ¼rkiye","address":{"city":"Edirne Merkez","province":"Edirne","ISO3166-2-lvl4":"TR-22","region":"Marmara BÃ¶lgesi","country":"TÃ¼rkiye","country_code":"tr"},"population":180002,"osm_type":"relation","osm_id":1834221,"type":"administrative","location":[26.5587225,41.6759327],"bbox":[26.328995,41.4348424,26.8299758,41.8729163]}}
{"name":"ElÃ¢zÄ±ÄŸ","other_names":{"name:ar":"Ù…Ø¹Ù…ÙˆØ±Ø© Ø§Ù„Ø¹Ø²ÙŠØ²","name:bg":"Ğ•Ğ»ÑĞ·ÑŠĞ³","name:el":"ÎˆÎ»Î±Î¶Î¹Î³","name:en":"ElazÄ±ÄŸ","name:fa":"Ø§Ù„Ø§Ø²ÛŒØº","name:he":"××œ×–×™","name:hi":"à¤à¤²à¤¾à¤œà¤¼à¤¿à¤—","name:hy":"Ô½Õ¡Ö€Õ¢Õ¥Ö€Õ¤","name:ja":"ã‚¨ãƒ©ã‚ºãƒ¼çœŒ","name:ka":"áƒ”áƒšáƒáƒ–áƒ˜áƒ¦áƒ˜","name:ko":"ì—˜ë¼ì¦ˆìœ¼ì£¼","name:ku":"XarpÃªt","name:ml":"à´à´²à´¾à´¸à´¿à´—àµ","name:ru":"Ğ­Ğ»ÑĞ·Ñ‹Ğ³","name:sr":"Ğ•Ğ»Ğ°Ğ·Ğ¸Ğ³","name:tr":"ElazÄ±ÄŸ","name:uk":"Ğ•Ğ»ÑĞ·Ğ¸","name:zh":"åŸƒæ‹‰æ³½çœ","name:ckb":"Ø®Ø§Ø±Ù¾ÛØª","name:zza":"XarpÃªt","alt_name:el":"Î•Î»Î±Î¶Î¯Î³","alt_name:ku":"XarpÃªt;Mezra"},"display_name":"ElÃ¢zÄ±ÄŸ, ElÃ¢zÄ±ÄŸ Merkez, ElÃ¢zÄ±ÄŸ, DoÄŸu Anadolu BÃ¶lgesi, TÃ¼rkiye","address":{"city":"ElÃ¢zÄ±ÄŸ","province":"ElÃ¢zÄ±ÄŸ","ISO3166-2-lvl4":"TR-23","region":"DoÄŸu Anadolu BÃ¶lgesi","country":"TÃ¼rkiye","country_code":"tr"},"population":578789,"osm_type":"node","osm_id":26486523,"type":"city","location":[39.2227135,38.6747164],"bbox":[39.0627135,38.5147164,39.3827135,38.8347164],"border":{"name":"ElÃ¢zÄ±ÄŸ Merkez","other_names":{"name:de":"ElÃ¢zÄ±ÄŸ","name:en":"ElÃ¢zÄ±ÄŸ","name:hy":"Õ„Õ¥Õ¦Õ«Ö€Õ¥","name:ku":"XarpÃªt","name:tr":"ElÃ¢zÄ±ÄŸ Merkez","name:uk":"Ğ•Ğ»ÑĞ·Ğ¸Ğ³","alt_name":"ElazÄ±ÄŸ","name:zza":"XarpÃªt","alt_name:ku":"ElezÃ®z (navend)","name:ar":"Ù…Ø¹Ù…ÙˆØ±Ø© Ø§Ù„Ø¹Ø²ÙŠØ²","name:bg":"Ğ•Ğ»ÑĞ·ÑŠĞ³","name:el":"ÎˆÎ»Î±Î¶Î¹Î³","name:fa":"Ø§Ù„Ø§Ø²ÛŒØº","name:he":"××œ×–×™","name:hi":"à¤à¤²à¤¾à¤œà¤¼à¤¿à¤—","name:ja":"ã‚¨ãƒ©ã‚ºãƒ¼çœŒ","name:ka":"áƒ”áƒšáƒáƒ–áƒ˜áƒ¦áƒ˜","name:ko":"ì—˜ë¼ì¦ˆìœ¼ì£¼","name:ml":"à´à´²à´¾à´¸à´¿à´—àµ","name:ru":"Ğ­Ğ»ÑĞ·Ñ‹Ğ³","name:sr":"Ğ•Ğ»Ğ°Ğ·Ğ¸Ğ³","name:zh":"åŸƒæ‹‰æ³½çœ","name:ckb":"Ø®Ø§Ø±Ù¾ÛØª","alt_name:el":"Î•Î»Î±Î¶Î¯Î³","_place_alt_name:ku":"XarpÃªt;Mezra","alt":"ElÃ¢zÄ±ÄŸ","alt:en":"ElazÄ±ÄŸ","alt:hy":"Ô½Õ¡Ö€Õ¢Õ¥Ö€Õ¤","alt:tr":"ElazÄ±ÄŸ","alt:uk":"Ğ•Ğ»ÑĞ·Ğ¸"},"display_name":"ElÃ¢zÄ±ÄŸ Merkez, ElÃ¢zÄ±ÄŸ, DoÄŸu Anadolu BÃ¶lgesi, TÃ¼rkiye","address":{"city":"ElÃ¢zÄ±ÄŸ Merkez","province":"ElÃ¢zÄ±ÄŸ","ISO3166-2-lvl4":"TR-23","region":"DoÄŸu Anadolu BÃ¶lgesi","country":"TÃ¼rkiye","country_code":"tr"},"population":578789,"osm_type":"relation","osm_id":1830507,"type":"administrative","location":[39.2227135,38.6747164],"bbox":[38.8795263,38.434897,39.7454783,38.8951028]}}
{"name":"Erzincan","other_names":{"name:ar":"Ø£Ø±Ø²ÙŠÙ†Ø¬Ø§Ù†","name:az":"Ærzincan","name:ba":"Ó˜Ñ€Ğ·Ğ¸Ğ½Ğ¶Ğ°Ğ½","name:be":"Ğ­Ñ€Ğ·Ñ–Ğ½Ğ´Ğ¶Ğ°Ğ½","name:bg":"Ğ•Ñ€Ğ·Ğ¸Ğ½Ğ´Ğ¶Ğ°Ğ½","name:br":"Erzincan","name:bs":"Erzincan","name:cs":"Erzincan","name:cv":"Ğ­Ñ€Ğ·Ğ¸Ğ½Ğ´Ğ¶Ğ°Ğ½","name:cy":"Erzincan","name:de":"Erzincan","name:el":"Î•ÏÎ¶Î¹Î½Ï„Î¶Î¬Î½","name:en":"Erzincan","name:fa":"Ø§Ø±Ø²Ù†Ø¬Ø§Ù†","name:fr":"Erzincan","name:hi":"à¤à¤°à¥à¤œà¤¼à¤¿à¤‚à¤•à¤¾à¤¨","name:hr":"Erzincan","name:hu":"Erzincan","name:hy":"ÔµÖ€Õ¦Õ¶Õ¯Õ¡","name:ik":"Erzincan","name:ku":"Erzingan","name:la":"Erzincan","name:mk":"Ğ•Ñ€Ğ·Ğ¸Ğ½ÑŸĞ°Ğ½","name:ml":"à´àµ¼à´¸à´¿à´àµà´œà´¾àµ»","name:nl":"Erzincan","name:no":"Erzincan","name:os":"Ğ­Ñ€Ğ·Ğ¸Ğ½Ğ´Ğ¶Ğ°Ğ½","name:pl":"Erzincan","name:pt":"ErzincÃ£","name:ru":"Ğ­Ñ€Ğ·Ğ¸Ğ½Ğ´Ğ¶Ğ°Ğ½","name:sh":"Erzincan","name:sr":"Ğ•Ñ€Ğ·Ğ¸Ğ½ÑŸĞ°Ğ½","name:sv":"Erzincan","name:tk":"Erzinjan","name:tr":"Erzincan","name:uk":"Ğ•Ñ€Ğ·Ñ–Ğ½Ğ´Ğ¶Ğ°Ğ½","name:uz":"Erzincan","name:vi":"Erzincan","name:ceb":"Erzincan","name:ckb":"Ø¦Û•Ø±Ø²Ù†Ú¯Ø§Ù†","name:crh":"Erzincan","name:diq":"ErzÄ±ngan","name:frr":"Erzincan","name:mrj":"Ğ­Ñ€Ğ·Ğ¸Ğ½Ğ´Ğ¶Ğ°Ğ½","name:war":"Erzincan","alt_name:ku":"Ezirgan"},"display_name":"Erzincan, Erzincan Merkez, Erzincan, DoÄŸu Anadolu BÃ¶lgesi, TÃ¼rkiye","address":{"city":"Erzincan","province":"Erzincan","ISO3166-2-lvl4":"TR-24","region":"DoÄŸu Anadolu BÃ¶lgesi","country":"TÃ¼rkiye","country_code":"tr"},"population":226032,"osm_type":"node","osm_id":26486753,"type":"city","location":[39.49103,39.7467552],"bbox":[39.33103,39.5867552,39.65103,39.9067552],"border":{"name":"Erzincan Merkez","other_names":{"name:ar":"Ø£Ø±Ø²Ù†Ø¬Ø§Ù†","name:az":"Ærzincan","name:bg":"Ğ•Ñ€Ğ·Ğ¸Ğ½Ğ´Ğ¶Ğ°Ğ½","name:ce":"Ğ­Ñ€Ğ·Ğ¸Ğ½Ğ´Ğ¶Ğ°Ğ½","name:de":"Erzincan","name:el":"Î•ÏÎ¶Î¹Î½Ï„Î¶Î¬Î½","name:en":"Erzincan","name:fa":"Ø§Ø±Ø²Ù†Ø¬Ø§Ù†","name:he":"××¨×–×™× ×’'××Ÿ","name:hy":"ÔµÖ€Õ¦Õ¶Õ¯Õ¡","name:ja":"ã‚¨ãƒ«ã‚ºã‚£ãƒ³ã‚¸ãƒ£ãƒ³","name:ka":"áƒ”áƒ áƒ–áƒ˜áƒœáƒ¯áƒáƒœáƒ˜","name:ko":"ì—ë¥´ì§„ì”","name:ku":"Ezirgan","name:lt":"ErzindÅ¾anas","name:os":"Ğ­Ñ€Ğ·Ğ¸Ğ½Ğ´Ğ¶Ğ°Ğ½","name:pa":"à¨à¨°à¨œà¨¿à©°à¨•à¨¾à¨¨","name:pt":"ErzincÃ£","name:ru":"Ğ­Ñ€Ğ·Ğ¸Ğ½Ğ´Ğ¶Ğ°Ğ½","name:so":"Arzanjaan","name:sq":"Erzinxhani","name:sr":"Ğ•Ñ€Ğ·Ğ¸Ğ½ÑŸĞ°Ğ½","name:tg":"Ğ•Ñ€Ğ·Ğ¸Ğ½Ò·Ğ°Ğ½","name:th":"à¹à¸­à¸£à¹Œà¸‹à¸´à¸™à¸ˆà¸±à¸™","name:tr":"Erzincan Merkez","name:tt":"Ğ­Ñ€Ğ·Ğ¸Ğ½Ò—Ğ°Ğ½","name:uk":"Ğ•Ñ€Ğ·Ñ–Ğ½Ğ´Ğ¶Ğ°Ğ½","name:ur":"Ø§Ø±Ø²Ù†Ø¬Ø§Ù†","name:zh":"åŸƒå°”æ´¥è©¹","alt_name":"Erzincan","name:zza":"ErzÄ±ngan","name:ba":"Ó˜Ñ€Ğ·Ğ¸Ğ½Ğ¶Ğ°Ğ½","name:be":"Ğ­Ñ€Ğ·Ñ–Ğ½Ğ´Ğ¶Ğ°Ğ½","name:br":"Erzincan","name:bs":"Erzincan","name:cs":"Erzincan","name:cv":"Ğ­Ñ€Ğ·Ğ¸Ğ½Ğ´Ğ¶Ğ°Ğ½","name:cy":"Erzincan","name:fr":"Erzincan","name:hi":"à¤à¤°à¥à¤œà¤¼à¤¿à¤‚à¤•à¤¾à¤¨","name:hr":"Erzincan","name:hu":"Erzincan","name:ik":"Erzincan","name:la":"Erzincan","name:mk":"Ğ•Ñ€Ğ·Ğ¸Ğ½ÑŸĞ°Ğ½","name:ml":"à´àµ¼à´¸à´¿à´àµà´œà´¾àµ»","name:nl":"Erzincan","name:no":"Erzincan","name:pl":"Erzincan","name:sh":"Erzincan","name:sv":"Erzincan","name:tk":"Erzinjan","name:uz":"Erzincan","name:vi":"Erzincan","name:ceb":"Erzincan","name:ckb":"Ø¦Û•Ø±Ø²Ù†Ú¯Ø§Ù†","name:crh":"Erzincan","name:diq":"ErzÄ±ngan","name:frr":"Erzincan","name:mrj":"Ğ­Ñ€Ğ·Ğ¸Ğ½Ğ´Ğ¶Ğ°Ğ½","name:war":"Erzincan","alt_name:ku":"Ezirgan","alt":"Erzincan","alt:ar":"Ø£Ø±Ø²ÙŠÙ†Ø¬Ø§Ù†","alt:ku":"Erzingan","alt:tr":"Erzincan"},"display_name":"Erzincan Merkez, Erzincan, DoÄŸu Anadolu BÃ¶lgesi, TÃ¼rkiye","address":{"city":"Erzincan Merkez","province":"Erzincan","ISO3166-2-lvl4":"TR-24","region":"DoÄŸu Anadolu BÃ¶lgesi","country":"TÃ¼rkiye","country_code":"tr"},"population":226032,"osm_type":"relation","osm_id":1754243,"type":"administrative","location":[39.49103,39.7467552],"bbox":[39.130223,39.4412085,39.8080337,39.9523813]}}
{"name":"Erzurum","other_names":{"name:ar":"Ø£Ø±Ø¶Ø±ÙˆÙ…","name:az":"Ærzurum","name:be":"Ğ­Ñ€Ğ·ÑƒÑ€ÑƒĞ¼","name:bg":"Ğ•Ñ€Ğ·ÑƒÑ€ÑƒĞ¼","name:br":"Erzurum","name:ce":"Ğ­Ñ€Ğ·ÑƒÑ€ÑƒĞ¼","name:cs":"Erzurum","name:cy":"Erzurum","name:da":"Erzurum","name:de":"Erzurum","name:el":"Î˜ÎµÎ¿Î´Î¿ÏƒÎ¹Î¿ÏÏ€Î¿Î»Î·","name:en":"Erzurum","name:eo":"Erzurum","name:es":"Erzurum","name:et":"Erzurum","name:eu":"Erzurum","name:fa":"Ø§Ø±Ø²Ø±ÙˆÙ…","name:fi":"Erzurum","name:fr":"Erzurum","name:gd":"Erzurum","name:he":"××¨×–×•×¨×•×","name:hi":"à¤à¤°à¥à¤œà¤¼à¥à¤°à¥à¤®","name:hu":"Erzurum","name:hy":"Ô¿Õ¡Ö€Õ«Õ¶","name:id":"Erzurum","name:it":"Erzurum","name:ja":"ã‚¨ãƒ«ã‚ºãƒ«ãƒ ","name:ka":"áƒ”áƒ áƒ–áƒ£áƒ áƒ£áƒ›áƒ˜","name:kk":"Ğ•Ñ€Ğ·ÑƒÑ€ÑƒĞ¼","name:ko":"ì—ë¥´ì£¼ë£¸","name:ku":"Erzirom","name:lt":"Erzurumas","name:lv":"Erzuruma","name:ml":"à´àµ¼à´¸àµà´±àµ‚à´‚","name:ms":"Erzurum","name:na":"Erzurum","name:nl":"Erzurum","name:no":"Erzurum","name:os":"Ğ­Ñ€Ğ·ÑƒÑ€ÑƒĞ¼","name:pa":"à¨…à¨°à¨œà¨¼à©à¨°à¨®","name:pl":"Erzurum","name:ps":"Ø§Ø±Ø² Ø±ÙˆÙ…","name:pt":"Erzurum","name:ro":"Erzurum","name:ru":"Ğ­Ñ€Ğ·ÑƒÑ€ÑƒĞ¼","name:rw":"Erzurum","name:sh":"Erzurum","name:sk":"Erzurum","name:sl":"Erzurum","name:sq":"Erzurumi","name:sr":"Ğ•Ñ€Ğ·ÑƒÑ€ÑƒĞ¼","name:sv":"Erzurum","name:sw":"Erzurum","name:tg":"Ğ­Ñ€Ğ·ÑƒÑ€ÑƒĞ¼","name:th":"à¹à¸­à¸£à¹Œà¸‹à¸¹à¸£à¸¸à¸¡","name:tr":"Erzurum","name:tt":"Ó˜Ñ€Ğ·ĞµÑ€Ò¯Ğ¼","name:tw":"Erzurum","name:uk":"Ğ•Ñ€Ğ·ÑƒÑ€ÑƒĞ¼","name:ur":"Ø§Ø±Ø¶ Ø±ÙˆÙ…","name:uz":"Arzirum","name:vi":"Erzurum","name:zh":"åŸƒå°”ç¥–é²å§†","name:azb":"Ø§Ø±Ø²Ø±ÙˆÙ…","name:ceb":"Erzurum","name:ckb":"Ø¦Û•Ø±Ø²ÛŒÚ•Û†Ù…","name:diq":"Erzurum","name:gag":"Erzurum","name:grc":"Î˜ÎµÎ¿Î´Î¿ÏƒÎ¹Î¿ÏÏ€Î¿Î»Î¹Ï‚","name:hyw":"Ô¿Õ¡Ö€Õ«Õ¶","name:lbe":"Ğ­Ñ€Ğ·ÑƒÑ€ÑƒĞ¼","name:min":"Erzurum","name:mrj":"Ğ­Ñ€Ğ·ÑƒÑ€ÑƒĞ¼","name:pnb":"Ø§Ø±Ø¶ Ø±ÙˆÙ…","name:sco":"Erzurum","name:szi":"Erzurum","name:udm":"Ğ­Ñ€Ğ·ÑƒÑ€ÑƒĞ¼","name:war":"Erzurum","name:wuu":"åŸƒå°”ç¥–é²å§†","name:be-tarask":"Ğ­Ñ€Ğ·ÑƒÑ€ÑƒĞ¼"},"display_name":"Erzurum, Yakutiye, Erzurum, DoÄŸu Anadolu BÃ¶lgesi, 25050, TÃ¼rkiye","address":{"city":"Erzurum","town":"Yakutiye","province":"Erzurum","ISO3166-2-lvl4":"TR-25","region":"DoÄŸu Anadolu BÃ¶lgesi","postcode":"25050","country":"TÃ¼rkiye","country_code":"tr"},"population":762021,"osm_type":"node","osm_id":26486754,"type":"city","location":[41.2727715,39.90632],"bbox":[41.1127715,39.74632,41.4327715,40.06632]}
{"name":"EskiÅŸehir","other_names":{"name:ar":"Ø¥Ø³ÙƒÙŠ Ø´Ù‡Ø±","name:az":"ÆskiÅŸÉ™hÉ™r","name:be":"Ğ­ÑĞºÑ–ÑˆÑÑ…Ñ–Ñ€","name:bg":"Ğ•ÑĞºĞ¸ÑˆĞµÑ…Ğ¸Ñ€","name:br":"EskiÅŸehir","name:ca":"EskiÅŸehir","name:ce":"Ğ­ÑĞºĞ¸ÑˆĞµÑ…Ó€Ğ¸Ñ€","name:cs":"EskiÅ¡ehir","name:da":"EskiÅŸehir","name:de":"EskiÅŸehir","name:el":"Î•ÏƒÎºÎ¹ÏƒÎµÏ‡Î¯Ï","name:en":"Eskisehir","name:eo":"EskiÅŸehir","name:es":"EskiÅŸehir","name:et":"EskiÅŸehir","name:eu":"EskiÅŸehir","name:fa":"Ø§Ø³Ú©ÛŒâ€ŒØ´Ù‡Ø±","name:fi":"EskiÅŸehir","name:fr":"EskiÅŸehir","name:he":"××¡×§×™×©×”×™×¨","name:hr":"EskiÅŸehir","name:hu":"EskiÅŸehir","name:it":"EskiÅŸehir","name:ja":"ã‚¨ã‚¹ã‚­ã‚·ã‚§ãƒ’ãƒ«","name:ka":"áƒ”áƒ¡áƒ¥áƒ˜áƒ¨áƒ”áƒ°áƒ˜áƒ áƒ˜","name:kk":"Ğ•ÑĞºĞ¸ÑˆĞµÑ…Ğ¸Ñ€","name:ko":"ì—ìŠ¤í‚¤ì…°íˆë¥´","name:ku":"EskÃ®ÅŸehÃ®r","name:la":"Dorylaeum","name:lt":"EskiÅ¡echiras","name:lv":"EskiÅ¡ehira","name:mk":"Ğ•ÑĞºĞ¸ÑˆĞµÑ…Ğ¸Ñ€","name:ml":"à´à´¸àµà´•à´¿à´·àµ†à´¹à´¿àµ¼","name:mn":"Ğ­ÑĞºĞ¸ÑˆÑÑ…Ğ¸Ñ€","name:ms":"EskiÅŸehir","name:na":"EskiÅŸehir","name:nl":"EskiÅŸehir","name:no":"EskiÅŸehir","name:os":"Ğ­ÑĞºĞ¸ÑˆĞµÑ…Ğ¸Ñ€","name:pa":"à¨‡à¨¸à¨•à©€ à¨¸à¨¼à¨¹à¨¿à¨°","name:pl":"EskiÅŸehir","name:ps":"Ø§Ø³Ú©ÙŠ ÚšØ§Ø±","name:pt":"Esquiceir","name:rn":"EskiÅŸehir","name:ro":"EskiÅŸehir","name:ru":"Ğ­ÑĞºĞ¸ÑˆĞµÑ…Ğ¸Ñ€","name:rw":"EskiÅŸehir","name:sk":"EskiÅŸehir","name:so":"EskiÅŸehir","name:sq":"Eskishehri","name:sr":"Ğ•ÑĞºĞ¸ÑˆĞµÑ…Ğ¸Ñ€","name:sv":"EskiÅŸehir","name:sw":"EskiÅŸehir","name:tg":"Ğ­ÑĞºĞ¸ÑˆĞ°Ò³Ñ€","name:tr":"EskiÅŸehir","name:tt":"Ä°skeÅŸÃ¤hÃ¤r","name:tw":"EskiÅŸehir","name:uk":"Ğ•ÑĞºÑ–ÑˆĞµÑ…Ñ–Ñ€","name:ur":"Ø§Ø³Ú©ÛŒ Ø´ÛØ±","name:uz":"Eskishehir","name:vi":"EskiÅŸehir","name:zh":"åŸƒæ–¯åŸºè°¢å¸Œå°”","name:azb":"Ø§Ø³Ú©ÛŒâ€ŒØ´Ù‡Ø±","name:ckb":"Ø¦Û•Ø³Ú©ÛŒØ´Û•Ú¾Ø±","name:crh":"EskiÅŸehir","name:grc":"Î”Î¿ÏÏÎ»Î±Î¹Î¿Î½","name:min":"EskiÅŸehir","name:sco":"EskiÅŸehir","name:szl":"EskiÅŸehir","name:udm":"Ğ­ÑĞºĞ¸ÑˆĞµÑ…Ğ¸Ñ€","name:vep":"EskiÅ¡ehir","name:war":"EskiÅŸehir","alt_name:ml":"à´‡à´¸àµà´•à´¿à´·à´¹àµ¼"},"display_name":"EskiÅŸehir, OdunpazarÄ±, EskiÅŸehir, Ä°Ã§ Anadolu BÃ¶lgesi, 26120, TÃ¼rkiye","address":{"city":"EskiÅŸehir","town":"OdunpazarÄ±","province":"EskiÅŸehir","ISO3166-2-lvl4":"TR-26","region":"Ä°Ã§ Anadolu BÃ¶lgesi","postcode":"26120","country":"TÃ¼rkiye","country_code":"tr"},"population":888828,"osm_type":"node","osm_id":25869769,"type":"city","location":[30.519116,39.7743941],"bbox":[30.359116,39.6143941,30.679116,39.9343941]}
{"name":"Gaziantep","other_names":{"name:ar":"Ø¹Ù†ØªØ§Ø¨","name:az":"Qaziantep","name:ba":"Ò’Ğ°Ğ·Ğ¸Ğ°Ğ½Ñ‚ĞµĞ¿","name:be":"Ğ“Ğ°Ğ·Ñ–ÑĞ½Ñ‚ÑĞ¿","name:bg":"Ğ“Ğ°Ğ·Ğ¸Ğ°Ğ½Ñ‚ĞµĞ¿","name:bn":"à¦—à¦¾à¦œà¦¿à§Ÿà¦¾à¦¨à§à¦¤à§‡à¦ª","name:ca":"Gaziantep","name:ce":"Ğ“Ğ°Ğ·Ğ¸Ğ°Ğ½Ñ‚ĞµĞ¿","name:cv":"Ğ“Ğ°Ğ·Ğ¸Ğ°Ğ½Ñ‚ĞµĞ¿","name:de":"Gaziantep","name:el":"Î“ÎºÎ±Î¶Î¹Î±Î½Ï„Î­Ï€","name:en":"Gaziantep","name:es":"Gaziantep","name:fa":"ØºØ§Ø²ÛŒ Ø¹ÛŒÙ†ØªØ§Ø¨","name:fr":"Gaziantep","name:he":"×’×–×™×× ×˜×¤","name:hi":"à¤—à¤¾à¤à¤¿à¤¯à¤¾à¤¨à¥à¤¤à¥‡à¤ª","name:hu":"Gaziantep","name:hy":"Ô±ÕµÕ¶Õ©Õ¡Õº","name:ja":"ã‚¬ã‚¸ã‚¢ãƒ³ãƒ†ãƒ—","name:ka":"áƒ’áƒáƒ–áƒ˜áƒáƒœáƒ—áƒ”áƒ¤áƒ˜","name:kk":"Ğ“Ğ°Ğ·Ğ¸Ğ°Ğ½Ñ‚ĞµĞ¿","name:kn":"à²—à²¾à²œà²¼à²¿ à²†à²‚à²Ÿà³†à²ªà³","name:ko":"ê°€ì§€ì•ˆí…Œí”„","name:ku":"DÃ®lok","name:ky":"Ğ“Ğ°Ğ·Ğ¸Ğ°Ğ½Ñ‚ĞµĞ¿","name:lt":"Gaziantepas","name:lv":"Gaziantepa","name:mk":"Ğ“Ğ°Ğ·Ğ¸Ğ°Ğ½Ñ‚ĞµĞ¿","name:ml":"à´—à´¾à´¸à´¿à´¯à´¨àµà´¤àµ†à´ªàµà´ªàµ","name:mr":"à¤—à¤¾à¤à¤¿à¤¯à¤¾à¤¨à¥à¤¤à¥‡à¤ª","name:nl":"Gaziantep","name:os":"Ğ“Ğ°Ğ·Ğ¸Ğ°Ğ½Ñ‚ĞµĞ¿","name:pa":"à¨—à¨œà¨¿à¨†à¨‚à¨¤à©‡à¨ª","name:ps":"ØºØ§Ø²ÛŒ Ø¢Ù†ØªÙ¾","name:pt":"Gaziantep","name:ru":"Ğ“Ğ°Ğ·Ğ¸Ğ°Ğ½Ñ‚ĞµĞ¿","name:sq":"Gaziantepi","name:sr":"Ğ“Ğ°Ğ·Ğ¸Ñ˜Ğ°Ğ½Ñ‚ĞµĞ¿","name:tg":"Ò’Ğ¾Ğ·Ğ¸Ğ°Ğ¹Ğ½Ñ‚Ğ¾Ğ±","name:th":"à¸à¸²à¸‹à¸µà¸­à¸±à¸™à¹€à¸—à¹‡à¸","name:tr":"Gaziantep","name:tt":"Ğ“Ğ°Ğ·Ğ¸Ğ°Ğ½Ñ‚ĞµĞ¿","name:uk":"ÒĞ°Ğ·Ñ–Ğ°Ğ½Ñ‚ĞµĞ¿","name:ur":"ØºØ§Ø²ÛŒ Ø§Ù†ØªÛŒÙ¾","name:zh":"åŠ æµå®‰æ³°æ™®","alt_name":"Antep","loc_name":"Antep","name:ckb":"Ø¯ÛŒÙ„Û†Ú©","name:diq":"Qazianteb","alt_name:ml":"à´…à´¨àµà´¤à´¾à´¬àµ;à´à´¨àµà´¤à´¾à´¬àµ","name:zh-Hans":"åŠ æµå®‰æ³°æ™®","name:zh-Hant":"åŠ æ¿Ÿå®‰æ³°æ™®"},"display_name":"Gaziantep, Åahinbey, Gaziantep, GÃ¼neydoÄŸu Anadolu BÃ¶lgesi, 27220, TÃ¼rkiye","address":{"city":"Gaziantep","town":"Åahinbey","province":"Gaziantep","ISO3166-2-lvl4":"TR-27","region":"GÃ¼neydoÄŸu Anadolu BÃ¶lgesi","postcode":"27220","country":"TÃ¼rkiye","country_code":"tr"},"population":2164134,"osm_type":"node","osm_id":26487670,"type":"city","location":[37.3792617,37.0628317],"bbox":[37.2192617,36.9028317,37.5392617,37.2228317]}
{"name":"Giresun","other_names":{"name:ar":"ØºÙŠØ±Ø³ÙˆÙ†","name:az":"Giresun","name:bg":"Ğ“Ğ¸Ñ€ĞµÑÑƒĞ½","name:ca":"Giresun","name:ce":"Ğ“Ğ¸Ñ€ĞµÑÑƒĞ½","name:cs":"Giresun","name:de":"Giresun","name:el":"ÎšÎµÏÎ±ÏƒÎ¿ÏÎ½Ï„Î±","name:en":"Giresun","name:eo":"Giresun","name:es":"Giresun","name:fa":"Ú¯Ø±Ù‡â€ŒØ³ÙˆÙ†","name:fi":"Giresun","name:fr":"Giresun","name:hi":"à¤˜à¤¿à¤°à¤¸à¥à¤¨","name:hu":"Giresun","name:hy":"Ô³Õ«Ö€Õ¥Õ½Õ¸Ö‚Õ¶Õ« Õ´Õ¡Ö€Õ¦","name:it":"Giresun","name:ja":"ã‚®ãƒ¬ã‚¹ãƒ³","name:ka":"áƒ’áƒ˜áƒ áƒ”áƒ¡áƒ£áƒœáƒ˜áƒ¡ áƒáƒ áƒáƒ•áƒ˜áƒœáƒªáƒ˜áƒ","name:ko":"ê¸°ë ˆìˆœ","name:la":"Cerasus","name:lt":"Giresunas","name:ml":"à´—à´¿à´±àµ†à´¸àµ‚àµº","name:ms":"Giresun","name:nl":"Giresun","name:nn":"Giresun","name:no":"Giresun","name:os":"Ğ“Ğ¸Ñ€ĞµÑÑƒĞ½","name:pl":"Giresun","name:pt":"Giresun","name:ro":"Giresun","name:ru":"Ğ“Ğ¸Ñ€ĞµÑÑƒĞ½","name:rw":"Giresun","name:sh":"Giresun","name:sr":"Ğ“Ğ¸Ñ€ĞµÑÑƒĞ½","name:sv":"Giresun","name:sw":"Giresun","name:tg":"Ğ“Ğ¸Ñ€ĞµÑÑƒĞ½","name:tr":"Giresun","name:tt":"Ğ“Ğ¸Ñ€ĞµÑÑƒĞ½","name:uk":"ÒÑ–Ñ€ĞµÑÑƒĞ½","name:ur":"Ú¯Ø±ÛŒØ³ÙˆÙ†","name:vi":"Giresun","name:vo":"Giresun","name:zh":"å‰é›·æ¾","name:arz":"Ø¬ÙŠØ±Ø³ÙˆÙ†","name:ast":"Giresun","name:azb":"Ú¯ÛŒØ±Ù‡â€ŒØ³ÙˆÙ†","name:ceb":"Giresun","name:diq":"Giresun","name:gag":"Giresun","name:hyw":"Ô¿Õ«Ö€Õ¥Õ½Õ¸Ö‚Õ¶","name:min":"Giresun","name:mrj":"Ğ“Ğ¸Ñ€ĞµÑÑƒĞ½","name:nan":"Giresun","name:pnb":"Ú¯Ø±ÛŒØ³Ù†","name:pnt":"ÎšÎµÏÎ±ÏƒÎ¿ÏÎ½Ï„Î±","name:udm":"Ğ“Ğ¸Ñ€ĞµÑÑƒĞ½","name:war":"Giresun","name:simple":"Giresun"},"display_name":"Giresun, Giresun Merkez, Giresun, Karadeniz BÃ¶lgesi, TÃ¼rkiye","address":{"city":"Giresun","province":"Giresun","ISO3166-2-lvl4":"TR-28","region":"Karadeniz BÃ¶lgesi","country":"TÃ¼rkiye","country_code":"tr"},"population":125682,"osm_type":"node","osm_id":26483307,"type":"city","location":[38.3847864,40.9174453],"bbox":[38.2247864,40.7574453,38.5447864,41.0774453],"border":{"name":"Giresun Merkez","other_names":{"name:ar":"ØºÙŠØ±Ø³ÙˆÙ†","name:bg":"Ğ“Ğ¸Ñ€ĞµÑÑƒĞ½","name:ce":"Ğ“Ğ¸Ñ€ĞµÑÑƒĞ½","name:de":"Giresun","name:el":"ÎšÎµÏÎ±ÏƒÎ¿ÏÎ½Ï„Î±","name:en":"Giresun","name:fa":"Ú¯Ø±Ù‡â€ŒØ³ÙˆÙ†","name:hy":"Ô³Õ«Ö€Õ¥Õ½Õ¸Ö‚Õ¶","name:ja":"ã‚®ãƒ¬ã‚¹ãƒ³","name:ka":"áƒ’áƒ˜áƒ áƒ”áƒ¡áƒ£áƒœáƒ˜","name:ko":"ê¸°ë ˆìˆœ","name:la":"Cerasus","name:ru":"Ğ“Ğ¸Ñ€ĞµÑÑƒĞ½","name:sr":"Ğ“Ğ¸Ñ€ĞµÑÑƒĞ½","name:tg":"Ğ“Ğ¸Ñ€ĞµÑÑƒĞ½","name:tr":"Giresun Merkez","name:tt":"Ğ“Ğ¸Ñ€ĞµÑÑƒĞ½","name:uk":"ÒÑ–Ñ€ĞµÑÑƒĞ½","name:ur":"Ú¯Ø±ÛŒØ³ÙˆÙ†","name:zh":"å‰é›·æ¾","old_name":"Kerasunt","name:az":"Giresun","name:ca":"Giresun","name:cs":"Giresun","name:eo":"Giresun","name:es":"Giresun","name:fi":"Giresun","name:fr":"Giresun","name:hi":"à¤˜à¤¿à¤°à¤¸à¥à¤¨","name:hu":"Giresun","name:it":"Giresun","name:lt":"Giresunas","name:ml":"à´—à´¿à´±àµ†à´¸àµ‚àµº","name:ms":"Giresun","name:nl":"Giresun","name:nn":"Giresun","name:no":"Giresun","name:os":"Ğ“Ğ¸Ñ€ĞµÑÑƒĞ½","name:pl":"Giresun","name:pt":"Giresun","name:ro":"Giresun","name:rw":"Giresun","name:sh":"Giresun","name:sv":"Giresun","name:sw":"Giresun","name:vi":"Giresun","name:vo":"Giresun","name:arz":"Ø¬ÙŠØ±Ø³ÙˆÙ†","name:ast":"Giresun","name:azb":"Ú¯ÛŒØ±Ù‡â€ŒØ³ÙˆÙ†","name:ceb":"Giresun","name:diq":"Giresun","name:gag":"Giresun","name:hyw":"Ô¿Õ«Ö€Õ¥Õ½Õ¸Ö‚Õ¶","name:min":"Giresun","name:mrj":"Ğ“Ğ¸Ñ€ĞµÑÑƒĞ½","name:nan":"Giresun","name:pnb":"Ú¯Ø±ÛŒØ³Ù†","name:pnt":"ÎšÎµÏÎ±ÏƒÎ¿ÏÎ½Ï„Î±","name:udm":"Ğ“Ğ¸Ñ€ĞµÑÑƒĞ½","name:war":"Giresun","name:simple":"Giresun","alt":"Giresun","alt:hy":"Ô³Õ«Ö€Õ¥Õ½Õ¸Ö‚Õ¶Õ« Õ´Õ¡Ö€Õ¦","alt:ka":"áƒ’áƒ˜áƒ áƒ”áƒ¡áƒ£áƒœáƒ˜áƒ¡ áƒáƒ áƒáƒ•áƒ˜áƒœáƒªáƒ˜áƒ","alt:tr":"Giresun"},"display_name":"Giresun Merkez, Giresun, Karadeniz BÃ¶lgesi, 28100, TÃ¼rkiye","address":{"city":"Giresun Merkez","province":"Giresun","ISO3166-2-lvl4":"TR-28","region":"Karadeniz BÃ¶lgesi","postcode":"28100","country":"TÃ¼rkiye","country_code":"tr"},"population":125682,"osm_type":"relation","osm_id":1835986,"type":"administrative","location":[38.3847864,40.9174453],"bbox":[38.238633,40.6669378,38.5249457,40.9315838]}}
{"name":"GÃ¼mÃ¼ÅŸhane","other_names":{"name:ar":"ÙƒÙˆÙ…ÙˆØ´ Ø®Ø§Ù†Ø©","name:az":"GÃ¼mÃ¼ÅŸxanÉ™","name:bg":"Ğ“ÑĞ¼ÑÑˆÑ…Ğ°Ğ½Ğµ","name:ca":"GÃ¼mÃ¼ÅŸhane","name:ce":"Ğ“ÑƒÑŒĞ¼ÑƒÑŒÑˆÑ…Ó€Ğ°Ğ½Ğµ","name:cs":"GÃ¼mÃ¼ÅŸhane","name:de":"GÃ¼mÃ¼ÅŸhane","name:el":"Î‘ÏÎ³Ï…ÏÎ¿ÏÏ€Î¿Î»Î·","name:en":"GÃ¼mÃ¼ÅŸhane","name:eo":"GÃ¼mÃ¼ÅŸhane","name:es":"GÃ¼mÃ¼ÅŸhane","name:fa":"Ú¯ÙˆÙ…ÙˆØ´â€ŒØ®Ø§Ù†Ù‡","name:fr":"GÃ¼mÃ¼ÅŸhane","name:hu":"GÃ¼mÃ¼ÅŸhane","name:hy":"Ô³ÕµÕ¸Ö‚Õ´Õ¸Ö‚Õ·Õ­Õ¡Õ¶Õ¥","name:it":"GÃ¼mÃ¼ÅŸhane","name:ja":"ã‚®ãƒ¥ãƒŸãƒ¥ã‚·ãƒ¥ãƒãƒ¼ãƒ","name:ka":"áƒ’áƒ£áƒ›áƒ£áƒ¨áƒ°áƒáƒœáƒ”","name:ko":"ê·€ë®ˆìƒ¤ë„¤","name:ku":"Canca","name:lt":"GiumiuÅ¡chanÄ—","name:ml":"à´—àµà´®àµà´·à´¾à´¨àµ†","name:ms":"GÃ¼mÃ¼ÅŸhane","name:na":"GÃ¼mÃ¼ÅŸhan","name:nl":"GÃ¼mÃ¼ÅŸhane","name:no":"GÃ¼mÃ¼ÅŸhane","name:pl":"GÃ¼mÃ¼ÅŸhane","name:pt":"GÃ¼mÃ¼ÅŸhane","name:ro":"GÃ¼mÃ¼ÅŸhane","name:ru":"Ğ“ÑĞ¼ÑÑˆÑ…Ğ°Ğ½Ğµ","name:rw":"GÃ¼mÃ¼ÅŸhane","name:sh":"GÃ¼mÃ¼ÅŸhane","name:sr":"Ğ“ÑƒĞ¼ÑƒÑˆÑ…Ğ°Ğ½Ğµ","name:sw":"GÃ¼mÃ¼ÅŸhane","name:tg":"Ğ“ÑƒĞ¼ÑƒÑˆÑ…Ğ¾Ğ½Ğ°","name:tr":"GÃ¼mÃ¼ÅŸhane","name:tt":"Ğ“Ò¯Ğ¼Ò¯ÑˆÑ…Ğ°Ğ½Ğµ","name:uk":"ÒÑĞ¼ÑÑˆĞ³Ğ°Ğ½Ğµ","name:ur":"Ú¯ÙˆÙ…ÙˆØ´Ø®Ø§Ù†Û’","name:vi":"GÃ¼mÃ¼ÅŸhane","name:vo":"GÃ¼mÃ¼ÅŸhane","name:zh":"å±…ç±³ä»€å“ˆå…§","name:azb":"Ú¯ÙˆÙ…ÙˆØ´Ø®Ø§Ù†Ø§","name:ceb":"Gumushkhane","name:diq":"GumuÅŸxane","name:gag":"GÃ¼mÃ¼ÅŸhane","name:min":"GÃ¼mÃ¼ÅŸhane","name:mrj":"Ğ“Ó±Ğ¼Ó±ÑˆÑ…Ğ°Ğ½Ğµ","name:pnb":"Ú¯ÙˆÙ…ÙˆØ´Ø®Ø§Ù†Û’","name:sco":"GÃ¼mÃ¼ÅŸhane","name:udm":"Ğ“ÑĞ¼ÑÑˆÑ…Ğ°Ğ½Ğµ","name:war":"GÃ¼mÃ¼ÅŸhane","old_name":"ArgyroupÃ³lis"},"display_name":"GÃ¼mÃ¼ÅŸhane, GÃ¼mÃ¼ÅŸhane Merkez, GÃ¼mÃ¼ÅŸhane, Karadeniz BÃ¶lgesi, TÃ¼rkiye","address":{"city":"GÃ¼mÃ¼ÅŸhane","province":"GÃ¼mÃ¼ÅŸhane","ISO3166-2-lvl4":"TR-29","region":"Karadeniz BÃ¶lgesi","country":"TÃ¼rkiye","country_code":"tr"},"population":172034,"osm_type":"node","osm_id":26483350,"type":"city","location":[39.4757339,40.4617844],"bbox":[39.3157339,40.3017844,39.6357339,40.6217844],"border":{"name":"GÃ¼mÃ¼ÅŸhane Merkez","other_names":{"name:ar":"ÙƒÙˆÙ…ÙˆØ´ Ø®Ø§Ù†Ø©","name:ce":"Ğ“ÑƒÑŒĞ¼ÑƒÑŒÑˆÑ…Ó€Ğ°Ğ½Ğµ","name:de":"GÃ¼mÃ¼ÅŸhane","name:el":"Î“ÎºÎ¹Î¿Ï…Î¼Î¿ÏÏƒÏ‡Î±Î½Îµ","name:en":"GÃ¼mÃ¼ÅŸhane","name:fa":"Ú¯ÙˆÙ…ÙˆØ´â€ŒØ®Ø§Ù†Ù‡","name:hy":"Ô³ÕµÕ¸Ö‚Õ´ÕµÕ¸Ö‚Õ·Õ°Õ¡Õ¶Õ¥","name:ja":"ã‚®ãƒ¥ãƒŸãƒ¥ã‚·ãƒ¥ãƒãƒ¼ãƒ","name:ka":"áƒ’áƒ£áƒ›áƒ£áƒ¨áƒ°áƒáƒœáƒ”","name:ko":"ê·€ë®ˆìƒ¤ë„¤","name:ru":"Ğ“ÑĞ¼ÑÑˆÑ…Ğ°Ğ½Ğµ","name:tg":"Ğ“ÑƒĞ¼ÑƒÑˆÑ…Ğ¾Ğ½Ğ°","name:tr":"GÃ¼mÃ¼ÅŸhane Merkez","name:tt":"Ğ“Ò¯Ğ¼Ò¯ÑˆÑ…Ğ°Ğ½Ğµ","name:uk":"Ğ“ÑĞ¼ÑÑˆÑ…Ğ°Ğ½Ğµ","name:ur":"Ú¯ÙˆÙ…ÙˆØ´Ø®Ø§Ù†Û’","name:zh":"å±…ç±³ä»€å“ˆå…§","alt_name":"GÃ¼mÃ¼ÅŸhane","name:az":"GÃ¼mÃ¼ÅŸxanÉ™","name:bg":"Ğ“ÑĞ¼ÑÑˆÑ…Ğ°Ğ½Ğµ","name:ca":"GÃ¼mÃ¼ÅŸhane","name:cs":"GÃ¼mÃ¼ÅŸhane","name:eo":"GÃ¼mÃ¼ÅŸhane","name:es":"GÃ¼mÃ¼ÅŸhane","name:fr":"GÃ¼mÃ¼ÅŸhane","name:hu":"GÃ¼mÃ¼ÅŸhane","name:it":"GÃ¼mÃ¼ÅŸhane","name:ku":"Canca","name:lt":"GiumiuÅ¡chanÄ—","name:ml":"à´—àµà´®àµà´·à´¾à´¨àµ†","name:ms":"GÃ¼mÃ¼ÅŸhane","name:na":"GÃ¼mÃ¼ÅŸhan","name:nl":"GÃ¼mÃ¼ÅŸhane","name:no":"GÃ¼mÃ¼ÅŸhane","name:pl":"GÃ¼mÃ¼ÅŸhane","name:pt":"GÃ¼mÃ¼ÅŸhane","name:ro":"GÃ¼mÃ¼ÅŸhane","name:rw":"GÃ¼mÃ¼ÅŸhane","name:sh":"GÃ¼mÃ¼ÅŸhane","name:sr":"Ğ“ÑƒĞ¼ÑƒÑˆÑ…Ğ°Ğ½Ğµ","name:sw":"GÃ¼mÃ¼ÅŸhane","name:vi":"GÃ¼mÃ¼ÅŸhane","name:vo":"GÃ¼mÃ¼ÅŸhane","name:azb":"Ú¯ÙˆÙ…ÙˆØ´Ø®Ø§Ù†Ø§","name:ceb":"Gumushkhane","name:diq":"GumuÅŸxane","name:gag":"GÃ¼mÃ¼ÅŸhane","name:min":"GÃ¼mÃ¼ÅŸhane","name:mrj":"Ğ“Ó±Ğ¼Ó±ÑˆÑ…Ğ°Ğ½Ğµ","name:pnb":"Ú¯ÙˆÙ…ÙˆØ´Ø®Ø§Ù†Û’","name:sco":"GÃ¼mÃ¼ÅŸhane","name:udm":"Ğ“ÑĞ¼ÑÑˆÑ…Ğ°Ğ½Ğµ","name:war":"GÃ¼mÃ¼ÅŸhane","old_name":"ArgyroupÃ³lis","alt":"GÃ¼mÃ¼ÅŸhane","alt:el":"Î‘ÏÎ³Ï…ÏÎ¿ÏÏ€Î¿Î»Î·","alt:hy":"Ô³ÕµÕ¸Ö‚Õ´Õ¸Ö‚Õ·Õ­Õ¡Õ¶Õ¥","alt:tr":"GÃ¼mÃ¼ÅŸhane","alt:uk":"ÒÑĞ¼ÑÑˆĞ³Ğ°Ğ½Ğµ"},"display_name":"GÃ¼mÃ¼ÅŸhane Merkez, GÃ¼mÃ¼ÅŸhane, Karadeniz BÃ¶lgesi, TÃ¼rkiye","address":{"city":"GÃ¼mÃ¼ÅŸhane Merkez","province":"GÃ¼mÃ¼ÅŸhane","ISO3166-2-lvl4":"TR-29","region":"Karadeniz BÃ¶lgesi","country":"TÃ¼rkiye","country_code":"tr"},"population":172034,"osm_type":"relation","osm_id":1835700,"type":"administrative","location":[39.4757339,40.4617844],"bbox":[39.2641772,40.2430731,40.1033255,40.7409482]}}
{"name":"HakkÃ¢ri","other_names":{"name:ar":"Ù‡ÙƒØ§Ø±ÙŠ","name:de":"HakkÃ¢ri","name:en":"HakkÃ¢ri","name:fa":"Ø­Ú©Ø§Ø±ÛŒ","name:fr":"HakkÃ¢ri","name:hu":"Hakkari","name:hy":"Õ€Õ¡Ö„ÕµÕ¡Ö€Õ«","name:ka":"áƒ°áƒáƒ¥áƒ˜áƒáƒ áƒ˜","name:ku":"ColemÃªrg","name:ml":"à´¹à´•àµà´•à´¾à´±à´¿","name:pa":"à¨¹à©±à¨•à¨¾à¨°à©€","name:ru":"Ğ¥Ğ°ĞºĞºÑÑ€Ğ¸","name:sr":"Ğ¥Ğ°ĞºĞ°Ñ€Ğ¸","name:uk":"Ğ¥Ğ°ĞºĞºÑÑ€Ñ–","name:ur":"Ø­Ú©Ø§Ø±ÛŒ","name:arc":"Ü—ÜŸÜÜªÜ","name:azb":"Ø­Ú©Ø§Ø±ÛŒ","name:ckb":"Ø¬Û†Ù„Û•Ù…ÛØ±Ú¯","name:ota":"Ø­Ú©Ø§Ø±ÛŒ","name:pnb":"Ø­Ú©Ø§Ø±ÛŒ","name:syc":"Ü—ÜŸÜÜªÜ","old_name":"Ã‡Ã¶lemerik"},"display_name":"HakkÃ¢ri, Hakkari Merkez, HakkÃ¢ri, DoÄŸu Anadolu BÃ¶lgesi, TÃ¼rkiye","address":{"city":"HakkÃ¢ri","province":"HakkÃ¢ri","ISO3166-2-lvl4":"TR-30","region":"DoÄŸu Anadolu BÃ¶lgesi","country":"TÃ¼rkiye","country_code":"tr"},"population":267813,"osm_type":"node","osm_id":26480484,"type":"city","location":[43.7377862,37.5766959],"bbox":[43.5777862,37.4166959,43.8977862,37.7366959],"border":{"name":"Hakkari Merkez","other_names":{"name:ar":"Ù‡ÙƒØ§Ø±ÙŠ","name:bg":"Ğ¥Ğ°ĞºĞºÑÑ€Ğ¸","name:ce":"Ğ¥Ó€Ğ°ĞºĞºĞ°ÑŒÑ€Ğ¸","name:el":"Î§Î±ÎºÎºÎ¹Î¬ÏÎ¹","name:fa":"Ø­Ú©Ø§Ø±ÛŒ","name:hy":"Õ€Õ¡Ö„ÕµÕ¡Ö€Õ«","name:ja":"ãƒãƒƒã‚­ãƒ£ãƒª","name:ka":"áƒ°áƒáƒ¥áƒ˜áƒáƒ áƒ˜","name:ko":"í•˜ì¹´ë¦¬","name:ku":"ColemÃªrg","name:pa":"à¨¹à©±à¨•à¨¾à¨°à©€","name:ru":"Ğ¥Ğ°ĞºĞºÑÑ€Ğ¸","name:tg":"Ò²Ğ°ĞºĞºĞ¾Ñ€Ğ¸","name:th":"à¸®à¸±à¸à¸Šà¸²à¸£à¸µ","name:tr":"Hakkari Merkez","name:uk":"Ğ¥Ğ°ĞºĞºÑÑ€Ñ–","name:ur":"Ø­Ú©Ø§Ø±ÛŒ","name:zh":"å“ˆå¡é‡Œ","alt_name":"Hakkari","name:ckb":"Ø¬Û†Ù„Û•Ù…ÛØ±Ú¯","name:ota":"Ø¬ÙˆÙ„Ù‡ Ù…Ø±Ùƒ","name:zza":"Colemerge","old_name":"Ã‡Ã¶lemerik","name:de":"HakkÃ¢ri","name:en":"HakkÃ¢ri","name:fr":"HakkÃ¢ri","name:hu":"Hakkari","name:ml":"à´¹à´•àµà´•à´¾à´±à´¿","name:sr":"Ğ¥Ğ°ĞºĞ°Ñ€Ğ¸","name:arc":"Ü—ÜŸÜÜªÜ","name:azb":"Ø­Ú©Ø§Ø±ÛŒ","name:pnb":"Ø­Ú©Ø§Ø±ÛŒ","name:syc":"Ü—ÜŸÜÜªÜ","alt":"HakkÃ¢ri","alt:ota":"Ø­Ú©Ø§Ø±ÛŒ"},"display_name":"Hakkari Merkez, HakkÃ¢ri, DoÄŸu Anadolu BÃ¶lgesi, 30000, TÃ¼rkiye","address":{"city":"Hakkari Merkez","province":"HakkÃ¢ri","ISO3166-2-lvl4":"TR-30","region":"DoÄŸu Anadolu BÃ¶lgesi","postcode":"30000","country":"TÃ¼rkiye","country_code":"tr"},"population":267813,"osm_type":"relation","osm_id":1381572,"type":"administrative","location":[43.7377862,37.5766959],"bbox":[43.3071205,37.3491437,44.090369,37.8105835]}}
{"name":"Hatay","other_names":{"name:ar":"Ø­Ø·Ø§ÙŠ","name:en":"Hatay","name:fa":"Ø®ØªØ§ÛŒ","name:ml":"à´¹à´¤àµà´¤à´¾à´¯àµ","name:tr":"Hatay"},"display_name":"Hatay, Antakya, Hatay, Akdeniz BÃ¶lgesi, 31040, TÃ¼rkiye","address":{"city":"Hatay","town":"Antakya","province":"Hatay","ISO3166-2-lvl4":"TR-31","region":"Akdeniz BÃ¶lgesi","postcode":"31040","country":"TÃ¼rkiye","country_code":"tr"},"population":1544640,"osm_type":"node","osm_id":12110587584,"type":"city","location":[36.1602908,36.2025471],"bbox":[36.0002908,36.0425471,36.3202908,36.3625471]}
{"name":"IÄŸdÄ±r","other_names":{"name:ar":"Ø¥ØºØ¯ÙŠØ±","name:az":"Ä°ÄŸdÄ±r","name:bg":"ĞªĞ³Ğ´ÑŠÑ€","name:ce":"Ğ˜Ğ³Ó€Ğ´Ğ¸Ñ€","name:el":"Î™Î³ÎºÎ½Ï„Î¯Ï","name:fa":"Ø§ÛŒØºØ¯ÛŒØ±","name:hi":"à¤‡à¤—à¥à¤¦à¤¿à¤°","name:hu":"IÄŸdÄ±r","name:hy":"Ô»Õ£Õ¤Õ«Ö€","name:ja":"ã‚¦ãƒ¼ãƒ‰ã‚¥ãƒ«","name:ka":"áƒ˜áƒ¦áƒ“áƒ˜áƒ áƒ˜","name:kk":"Ğ«Ğ³Ğ´Ñ‹Ñ€","name:ko":"ì´ë””ë¥´","name:ku":"Ãdir","name:lt":"Igdyras","name:lv":"Äªgdira","name:ml":"à´‡à´—àµà´¦à´¿àµ¼","name:ru":"Ğ«Ğ³Ğ´Ñ‹Ñ€","name:sr":"Ğ˜Ğ³Ğ´Ğ¸Ñ€","name:tg":"Ğ˜Ò“Ğ´Ğ¸Ñ€","name:th":"à¸­à¸·à¸­à¸”à¸·à¸­à¸£à¹Œ","name:tr":"IÄŸdÄ±r","name:tt":"Ğ«Ğ³Ğ´Ñ‹Ñ€","name:uk":"Ğ˜Ğ³Ğ´Ğ¸Ñ€","name:ur":"Ø§ØºØ¯ÛŒØ±","name:zh":"å„å¾·å°”","name:ckb":"Ø¦ÛŒØ¯Ø±","name:zza":"IÄŸdÄ±r","alt_name:ml":"à´¸àµ‹à´³à´•àµ‡àµ¼à´Ÿàµà´Ÿàµ"},"display_name":"IÄŸdÄ±r, IÄŸdÄ±r Merkez, IÄŸdÄ±r, DoÄŸu Anadolu BÃ¶lgesi, TÃ¼rkiye","address":{"city":"IÄŸdÄ±r","province":"IÄŸdÄ±r","ISO3166-2-lvl4":"TR-76","region":"DoÄŸu Anadolu BÃ¶lgesi","country":"TÃ¼rkiye","country_code":"tr"},"population":192785,"osm_type":"node","osm_id":26480597,"type":"city","location":[44.0467957,39.9218784],"bbox":[43.8867957,39.7618784,44.2067957,40.0818784],"border":{"name":"IÄŸdÄ±r Merkez","other_names":{"name:ar":"Ø¥ØºØ¯ÙŠØ±","name:az":"Ä°ÄŸdÄ±r","name:bg":"ĞªĞ³Ğ´ÑŠÑ€","name:ce":"Ğ˜Ğ³Ó€Ğ´Ğ¸Ñ€","name:de":"IÄŸdÄ±r","name:el":"Î™Î³ÎºÎ½Ï„Î¯Ï","name:en":"IÄŸdÄ±r","name:fa":"Ø§ÛŒØºØ¯ÛŒØ±","name:hy":"Ô»Õ£Õ¤Õ«Ö€","name:ja":"ã‚¦ãƒ¼ãƒ‰ã‚¥ãƒ«","name:ka":"áƒ˜áƒ¦áƒ“áƒ˜áƒ áƒ˜","name:kk":"Ğ«Ğ³Ğ´Ñ‹Ñ€","name:ko":"ì´ë””ë¥´","name:ku":"Ãdir","name:lt":"Igdyras","name:lv":"Äªgdira","name:ru":"Ğ«Ğ³Ğ´Ñ‹Ñ€","name:sr":"Ğ˜Ğ³Ğ´Ğ¸Ñ€","name:tg":"Ğ˜Ò“Ğ´Ğ¸Ñ€","name:th":"à¸­à¸·à¸­à¸”à¸·à¸­à¸£à¹Œ","name:tr":"IÄŸdÄ±r","name:tt":"Ğ«Ğ³Ğ´Ñ‹Ñ€","name:uk":"Ğ˜Ğ³Ğ´Ğ¸Ñ€","name:ur":"Ø§ØºØ¯ÛŒØ±","name:zh":"å„å¾·å°”","name:zza":"IÄŸdÄ±r","name:hi":"à¤‡à¤—à¥à¤¦à¤¿à¤°","name:hu":"IÄŸdÄ±r","name:ml":"à´‡à´—àµà´¦à´¿àµ¼","name:ckb":"Ø¦ÛŒØ¯Ø±","alt_name:ml":"à´¸àµ‹à´³à´•àµ‡àµ¼à´Ÿàµà´Ÿàµ","alt":"IÄŸdÄ±r"},"display_name":"IÄŸdÄ±r Merkez, IÄŸdÄ±r, DoÄŸu Anadolu BÃ¶lgesi, 76000, TÃ¼rkiye","address":{"city":"IÄŸdÄ±r Merkez","province":"IÄŸdÄ±r","ISO3166-2-lvl4":"TR-76","region":"DoÄŸu Anadolu BÃ¶lgesi","postcode":"76000","country":"TÃ¼rkiye","country_code":"tr"},"population":192785,"osm_type":"relation","osm_id":1251330,"type":"administrative","location":[44.0467957,39.9218784],"bbox":[43.7188786,39.6672114,44.3424998,40.0621448]}}
{"name":"Isparta","other_names":{"name:ar":"Ø¥Ø³Ø¨Ø±Ø·Ø©","name:az":"Ä°sparta","name:be":"Ğ«ÑĞ¿Ğ°Ñ€Ñ‚Ğ°","name:bg":"ĞªÑĞ¿Ğ°Ñ€Ñ‚Ğ°","name:ce":"Ğ˜ÑĞ¿Ğ°Ñ€Ñ‚Ğ°","name:el":"Î™ÏƒÏ€Î¬ÏÏ„Î±","name:en":"Isparta","name:fa":"Ø§Ø³Ù¾Ø§Ø±ØªØ§","name:he":"××¡×¤×¨×˜×”","name:hi":"à¤‡à¤¸à¥à¤ªà¤¾à¤°à¥à¤Ÿà¤¾","name:hu":"Isparta","name:hy":"Ô¸Õ½ÖƒÕ¡Ö€Õ©Õ¡","name:ja":"ã‚¦ã‚¹ãƒ‘ãƒ«ã‚¿","name:ka":"áƒ˜áƒ¡áƒáƒáƒ áƒ¢áƒ","name:kk":"Ğ«ÑĞ¿Ğ°Ñ€Ñ‚Ğ°","name:ko":"ì´ìŠ¤íŒŒë¥´íƒ€","name:ml":"à´‡à´¸àµà´ªà´¾àµ¼à´¤àµà´¤","name:nl":"Isparta","name:os":"Ğ«ÑĞ¿Ğ°Ñ€Ñ‚Ğ°","name:pt":"Esparta","name:ru":"Ğ«ÑĞ¿Ğ°Ñ€Ñ‚Ğ°","name:sr":"Ğ˜ÑĞ¿Ğ°Ñ€Ñ‚Ğ°","name:tg":"Ğ˜ÑĞ¿Ğ°Ñ€Ñ‚Ğ°","name:tk":"Ysparta","name:tt":"Ğ˜ÑĞ¿Ğ°Ñ€Ñ‚Ğ°","name:uk":"Ğ˜ÑĞ¿Ğ°Ñ€Ñ‚Ğ°","name:ur":"Ø§Ø³Ù¾Ø§Ø±Ø·Û","name:zh":"å„æ–¯å¸•çˆ¾å¡”","old_name":"Hamidabad;Isbarta;Sabarta;Baris;Î’Î¬ÏÎ¹Ï‚;Î£Ï€Î¬ÏÏ„Î· Ï„Î·Ï‚ Î Î¹ÏƒÎ¹Î´Î¯Î±Ï‚;Î’Î¬ÏÎ·","alt_name:ur":"Ø§Ø³Ù¾Ø§Ø±ØªØ§","old_name:el":"Î£Ï€Î¬ÏÏ„Î·"},"display_name":"Isparta, Isparta Merkez, Isparta, Akdeniz BÃ¶lgesi, TÃ¼rkiye","address":{"city":"Isparta","province":"Isparta","ISO3166-2-lvl4":"TR-32","region":"Akdeniz BÃ¶lgesi","country":"TÃ¼rkiye","country_code":"tr"},"population":427324,"osm_type":"node","osm_id":212488422,"type":"city","location":[30.5550569,37.7636722],"bbox":[30.3950569,37.6036722,30.7150569,37.9236722],"border":{"name":"Isparta Merkez","other_names":{"name:ar":"Ø¥Ø³Ø¨Ø±Ø·Ø©","name:be":"Ğ«ÑĞ¿Ğ°Ñ€Ñ‚Ğ°","name:bg":"ĞªÑĞ¿Ğ°Ñ€Ñ‚Ğ°","name:ce":"Ğ˜ÑĞ¿Ğ°Ñ€Ñ‚Ğ°","name:de":"Isparta","name:el":"Î™ÏƒÏ€Î¬ÏÏ„Î±","name:en":"Isparta","name:fa":"Ø§Ø³Ù¾Ø§Ø±ØªØ§","name:he":"××¡×¤×¨×˜×”","name:hi":"à¤‡à¤¸à¥à¤ªà¤¾à¤°à¥à¤Ÿà¤¾","name:hy":"Ô¸Õ½ÖƒÕ¡Ö€Õ©Õ¡","name:ja":"ã‚¦ã‚¹ãƒ‘ãƒ«ã‚¿","name:ka":"áƒ˜áƒ¡áƒáƒáƒ áƒ¢áƒ","name:kk":"Ğ«ÑĞ¿Ğ°Ñ€Ñ‚Ğ°","name:ko":"ì´ìŠ¤íŒŒë¥´íƒ€","name:ml":"à´‡à´¸àµà´ªà´¾àµ¼à´Ÿàµà´Ÿ","name:ru":"Ğ«ÑĞ¿Ğ°Ñ€Ñ‚Ğ°","name:sr":"Ğ˜ÑĞ¿Ğ°Ñ€Ñ‚Ğ°","name:tk":"Ysparta","name:tr":"Isparta Merkez","name:uk":"Ğ˜ÑĞ¿Ğ°Ñ€Ñ‚Ğ°","name:zh":"å„æ–¯å¸•çˆ¾å¡”","alt_name":"Isparta","old_name":"Hamidabad;Isbarta;Sabarta;Baris;Î’Î¬ÏÎ¹Ï‚;Î£Ï€Î¬ÏÏ„Î· Ï„Î·Ï‚ Î Î¹ÏƒÎ¹Î´Î¯Î±Ï‚;Î’Î¬ÏÎ·","old_name:el":"Î£Ï€Î¬ÏÏ„Î·","name:az":"Ä°sparta","name:hu":"Isparta","name:nl":"Isparta","name:os":"Ğ«ÑĞ¿Ğ°Ñ€Ñ‚Ğ°","name:pt":"Esparta","name:tg":"Ğ˜ÑĞ¿Ğ°Ñ€Ñ‚Ğ°","name:tt":"Ğ˜ÑĞ¿Ğ°Ñ€Ñ‚Ğ°","name:ur":"Ø§Ø³Ù¾Ø§Ø±Ø·Û","alt_name:ur":"Ø§Ø³Ù¾Ø§Ø±ØªØ§","alt":"Isparta","alt:ml":"à´‡à´¸àµà´ªà´¾àµ¼à´¤àµà´¤"},"display_name":"Isparta Merkez, Isparta, Akdeniz BÃ¶lgesi, TÃ¼rkiye","address":{"city":"Isparta Merkez","province":"Isparta","ISO3166-2-lvl4":"TR-32","region":"Akdeniz BÃ¶lgesi","country":"TÃ¼rkiye","country_code":"tr"},"population":427324,"osm_type":"relation","osm_id":1827190,"type":"administrative","location":[30.5550569,37.7636722],"bbox":[30.4086431,37.5626999,30.8230035,37.9007578]}}
{"name":"Ä°stanbul Finans Merkezi","other_names":{"name:en":"Finance Center","name:tr":"Ä°stanbul Finans Merkezi","alt_name":"Finanskent"},"display_name":"Ä°stanbul Finans Merkezi, Ä°stanbul, Marmara BÃ¶lgesi, TÃ¼rkiye","address":{"city":"Ä°stanbul Finans Merkezi","province":"Ä°stanbul","ISO3166-2-lvl4":"TR-34","region":"Marmara BÃ¶lgesi","country":"TÃ¼rkiye","country_code":"tr"},"osm_type":"way","osm_id":156767182,"type":"administrative","location":[29.10972760617038,41.00162315],"bbox":[29.1042788,40.9976743,29.1175498,41.0053504],"inferred_type":"city"}
{"name":"Ä°stanbul","other_names":{"name:ab":"ĞÑÒ­Ğ°Ğ¼Ğ¿Ñ‹Ğ»","name:af":"Istanboel","name:ak":"Istanbul","name:am":"áŠ¢áˆµá‰³áŠ•á‰¡áˆ","name:an":"Istambul","name:ar":"Ø¥Ø³Ø·Ù†Ø¨ÙˆÙ„","name:as":"à¦‡à¦·à§à¦Ÿà¦¾à¦¨à¦¬à§à¦²","name:av":"Ğ˜ÑÑ‚Ğ°Ğ½Ğ±ÑƒĞ»","name:ba":"Ğ˜ÑÑ‚Ğ°Ğ½Ğ±ÑƒĞ»","name:be":"Ğ¡Ñ‚Ğ°Ğ¼Ğ±ÑƒĞ»","name:bg":"Ğ˜ÑÑ‚Ğ°Ğ½Ğ±ÑƒĞ»","name:bh":"à¤‡à¤¸à¥à¤¤à¤¾à¤‚à¤¬à¥à¤²","name:bm":"Istanbul","name:bn":"à¦‡à¦¸à§à¦¤à¦¾à¦®à§à¦¬à§à¦²","name:br":"Istanbul","name:bs":"Istanbul","name:ca":"Istanbul","name:ce":"Ğ˜ÑÑ‚Ğ¼Ğ°Ğ»Ğ°","name:cs":"Istanbul","name:cu":"Ğ¦Ñ£ÑĞ°Ñ€Ò„ÑŒ Ğ“Ñ€Ğ°Ğ´ÑŠ","name:cv":"Ğ¡Ñ‚Ğ°Ğ¼Ğ±ÑƒĞ»","name:cy":"Istanbul","name:da":"Istanbul","name:de":"Istanbul","name:el":"ÎšÏ‰Î½ÏƒÏ„Î±Î½Ï„Î¹Î½Î¿ÏÏ€Î¿Î»Î·","name:en":"Istanbul","name:eo":"Istanbulo","name:es":"Estambul","name:eu":"Istanbul","name:fa":"Ø§Ø³ØªØ§Ù†Ø¨ÙˆÙ„","name:fi":"Istanbul","name:fj":"Istanbul","name:fo":"Istanbul","name:fr":"Istanbul","name:fy":"IstanbÃ»l","name:ga":"IostanbÃºl","name:gd":"Istanbul","name:gl":"Istambul","name:gn":"Estambul","name:ha":"Istanbul","name:he":"××™×¡×˜× ×‘×•×œ","name:hi":"à¤‡à¤¸à¥à¤¤à¤¾à¤‚à¤¬à¥à¤²","name:hr":"Istanbul","name:ht":"Istanboul","name:hu":"Isztambul","name:hy":"ÕÕ¿Õ¡Õ´Õ¢Õ¸Ö‚Õ¬","name:ia":"Istanbul","name:id":"Istanbul","name:ie":"Istanbul","name:io":"Istanbul","name:is":"MikligarÃ°ur","name:it":"Istanbul","name:ja":"ã‚¤ã‚¹ã‚¿ãƒ³ãƒ–ãƒ¼ãƒ«","name:jv":"Istanbul","name:ka":"áƒ¡áƒ¢áƒáƒ›áƒ‘áƒ£áƒšáƒ˜","name:kk":"Ğ«ÑÑ‚Ğ°Ğ½Ğ±Ò±Ğ»","name:kn":"à²‡à²¸à³à²¤à²¾à²‚à²¬à³à²²à³","name:ko":"ì´ìŠ¤íƒ„ë¶ˆ","name:ks":"Ø§ÙØ³ØªØ§Ù†Ø¨ÙÙ„","name:ku":"Stembol","name:kw":"Istanbul","name:ky":"Ğ¡Ñ‚Ğ°Ğ¼Ğ±ÑƒĞ»","name:la":"Constantinopolis","name:lb":"Istanbul","name:li":"Istanboel","name:ln":"Istanbul","name:lo":"àº­àº´àºªàº°àº•àº±àº™àºšàº¹àº™","name:lt":"Stambulas","name:lv":"Stambula","name:mg":"Istanbul","name:mi":"ItÄnipuru","name:mk":"Ğ˜ÑÑ‚Ğ°Ğ½Ğ±ÑƒĞ»","name:ml":"à´‡à´¸àµà´¤à´¾à´‚à´¬àµàµ¾","name:mn":"Ğ¡Ñ‚Ğ°Ğ¼Ğ±ÑƒĞ»","name:mr":"à¤‡à¤¸à¥à¤¤à¤‚à¤¬à¥‚à¤²","name:ms":"Istanbul","name:mt":"Istanbul","name:my":"á€¡á€…á€ºá€…á€á€”á€ºá€˜á€°á€œá€ºá€™á€¼á€­á€¯á€·","name:na":"Istanbul","name:nb":"Istanbul","name:ne":"à¤‡à¤¸à¥à¤¤à¤¾à¤¨à¤¬à¥à¤²","name:nl":"Istanboel","name:nn":"Istanbul","name:nv":"AÅ‚chÊ¼Ä¯Ê¼ NÃ¡Ã¡Ê¼Ã¡hÃ¡","name:ny":"Istanbul","name:oc":"Istambol","name:os":"Ğ¡Ñ‚Ğ°Ğ¼Ğ±ÑƒĞ»","name:pa":"à¨‡à¨¸à¨¤à¨¾à¨¨à¨¬à©à¨²","name:pl":"StambuÅ‚","name:ps":"Ø§Ø³ØªÙ†Ø¨ÙˆÙ„","name:pt":"Istambul","name:qu":"Istanbul","name:rm":"Istanbul","name:ro":"Istanbul","name:ru":"Ğ¡Ñ‚Ğ°Ğ¼Ğ±ÑƒĞ»","name:rw":"Istanbul","name:sc":"Istanbul","name:sd":"Ø§Ø³ØªÙ†Ø¨ÙˆÙ„","name:se":"Istanbul","name:si":"à¶‰à·ƒà·Šà¶­à·à¶±à·Šà¶¶à·”à¶½à·Š","name:sk":"Istanbul","name:sl":"Carigrad","name:so":"Istanbuul","name:sq":"Stambolli","name:sr":"Ğ˜ÑÑ‚Ğ°Ğ½Ğ±ÑƒĞ»","name:sv":"Istanbul","name:sw":"Istanbul","name:ta":"à®‡à®šà¯à®¤à®¾à®©à¯à®ªà¯à®²à¯","name:te":"à°‡à°¸à±à°¤à°¾à°‚à°¬à±à°²à±","name:tg":"Ğ˜ÑÑ‚Ğ°Ğ½Ğ±ÑƒĞ»","name:th":"à¸­à¸´à¸ªà¸•à¸±à¸™à¸šà¸¹à¸¥","name:tk":"Stambul","name:tl":"Istanbul","name:tr":"Ä°stanbul","name:tt":"Ğ˜ÑÑ‚Ğ°Ğ½Ğ±ÑƒĞ»","name:tw":"Istanbul","name:ug":"Istanbul","name:uk":"Ğ¡Ñ‚Ğ°Ğ¼Ğ±ÑƒĞ»","name:ur":"Ø§Ø³ØªÙ†Ø¨ÙˆÙ„","name:uz":"Istanbul","name:vi":"Istanbul","name:yi":"×¡×˜×××‘×•×œ","name:yo":"Istanbul","name:zh":"ä¼Šæ–¯å¦å¸ƒå°” / ä¼Šæ–¯å¦å ¡","name:zu":"Istanbul","name:ckb":"Ø¦Û•Ø³ØªÛ•Ù…Ø¨ÙˆÚµ","name:cnr":"Istanbul","name:csb":"SztambÃ¹l","name:dsb":"Istanbul","name:hsb":"Istanbul","name:ota":"Ù‚Ø³Ø·Ù†Ø·ÙŠÙ†ÙŠÙ‡","old_name":"Konstantiniyye","alt_name:ar":"Ø¨ÙŠØ²Ù†Ø·Ø©","alt_name:mk":"Ğ¦Ğ°Ñ€Ğ¸Ğ³Ñ€Ğ°Ğ´","alt_name:ml":"à´•àµ‹àµºà´¸àµà´±àµà´±à´¾àµ»àµà´±à´¿à´¨àµ‹à´ªàµà´ªà´¿àµ¾","old_name:ar":"Ø§Ù„Ù‚Ø³Ø·Ù†Ø·ÙŠÙ†ÙŠØ©","old_name:bg":"Ğ¦Ğ°Ñ€Ğ¸Ğ³Ñ€Ğ°Ğ´","old_name:ca":"Constantinoble","old_name:cs":"Konstantinopol","old_name:de":"Konstantinopel","old_name:el":"ÎšÏ‰Î½ÏƒÏ„Î±Î½Ï„Î¹Î½Î¿ÏÏ€Î¿Î»Î·","old_name:en":"Constantinople","old_name:eo":"Stambulo;Konstantinopolo;Bizanco","old_name:hr":"Konstantinopol;Carigrad","old_name:la":"Byzantium","old_name:pl":"Bizancjum;Konstantynopol","old_name:sk":"KonÅ¡tantÃ­nopol;Carihrad","old_name:zh":"å›å£«å¦ä¸å ¡","name:zh-Hans":"ä¼Šæ–¯å¦å¸ƒå°”","name:zh-Hant":"ä¼Šæ–¯å¦å ¡"},"display_name":"Ä°stanbul, Fatih, Ä°stanbul, Marmara BÃ¶lgesi, 34122, TÃ¼rkiye","address":{"city":"Ä°stanbul","town":"Fatih","province":"Ä°stanbul","ISO3166-2-lvl4":"TR-34","region":"Marmara BÃ¶lgesi","postcode":"34122","country":"TÃ¼rkiye","country_code":"tr"},"population":15701602,"osm_type":"node","osm_id":1882099475,"type":"city","location":[28.9758715,41.006381],"bbox":[28.8158715,40.846381,29.1358715,41.166381]}
{"name":"Ä°zmir","other_names":{"name:af":"Izmir","name:am":"áŠ¢á‹áˆšáˆ­","name:ar":"Ø¥Ø²Ù…ÙŠØ±","name:av":"Ğ˜Ğ·Ğ¼Ğ¸Ñ€","name:az":"Ä°zmir","name:ba":"Ğ˜Ğ·Ğ¼Ğ¸Ñ€","name:be":"Ğ†Ğ·Ğ¼Ñ–Ñ€","name:bg":"Ğ˜Ğ·Ğ¼Ğ¸Ñ€","name:bm":"Ä°zmir","name:bn":"à¦‡à¦œà¦®à¦¿à¦°","name:br":"Ä°zmir","name:bs":"Izmir","name:ca":"Esmirna","name:ce":"Ğ˜Ğ·Ğ¼Ğ¸Ñ€","name:cs":"Smyrna","name:cv":"Ğ˜Ğ·Ğ¼Ğ¸Ñ€","name:cy":"Ä°zmir","name:da":"Izmir","name:de":"Izmir","name:el":"Î£Î¼ÏÏÎ½Î·","name:en":"Ä°zmir","name:eo":"Izmiro","name:es":"Esmirna","name:et":"Ä°zmir","name:eu":"Esmirna","name:fa":"Ø§Ø²Ù…ÛŒØ±","name:fi":"Smyrna","name:fo":"Izmir","name:fr":"Izmir","name:fy":"Izmir","name:gd":"Ä°zmir","name:gl":"Esmirna","name:ha":"Izmir","name:he":"××™×–××™×¨","name:hi":"à¤‡à¤œà¤¼à¤®à¤¿à¤°","name:hr":"Ä°zmir","name:hu":"Ä°zmir","name:hy":"Ô»Õ¦Õ´Õ«Ö€","name:ia":"Izmir","name:id":"Ä°zmir","name:ie":"Izmir","name:io":"Ä°zmir","name:it":"Smirne","name:ja":"ã‚¤ã‚ºãƒŸãƒ«","name:ka":"áƒ˜áƒ–áƒ›áƒ˜áƒ áƒ˜","name:ki":"Ä°zmir","name:kk":"Ğ˜Ğ·Ğ¼Ğ¸Ñ€","name:kn":"à²ˆà²à³à²¨à³€à²°à³","name:ko":"ì´ì¦ˆë¯¸ë¥´","name:ku":"IzmÃ®r","name:ky":"Ğ˜Ğ·Ğ¼Ğ¸Ñ€","name:la":"Smyrna","name:lb":"Izmir","name:li":"Ä°zmir","name:lt":"Izmiras","name:lv":"Izmira","name:mk":"Ğ˜Ğ·Ğ¼Ğ¸Ñ€","name:ml":"à´‡à´¸àµà´®àµ€àµ¼","name:ms":"Ä°zmir","name:na":"Ä°zmir","name:nl":"Ä°zmir","name:no":"Izmir","name:oc":"Esmirna","name:os":"Ğ˜Ğ·Ğ¼Ğ¸Ñ€","name:pa":"à¨‡à¨œà¨¼à¨®à¨¿à¨°","name:pl":"Izmir","name:ps":"Ø§Ø²Ù…ÙŠØ±","name:pt":"Esmirna","name:qu":"Ä°zmir","name:ro":"Ä°zmir","name:ru":"Ğ˜Ğ·Ğ¼Ğ¸Ñ€","name:rw":"Ä°zmir","name:sk":"Izmir","name:sl":"Ä°zmir","name:so":"Ä°zmir","name:sq":"Izmiri","name:sr":"Ğ˜Ğ·Ğ¼Ğ¸Ñ€","name:sv":"Izmir","name:sw":"Ä°zmir","name:ta":"à®‡à®šà¯à®®à¯€à®°à¯","name:tg":"Ğ˜Ğ·Ğ¼Ğ¸Ñ€","name:th":"à¸­à¸´à¸‹à¸¡à¸µà¸£à¹Œ","name:tl":"Ä°zmir","name:tr":"Ä°zmir","name:tt":"Ğ˜Ğ·Ğ¼Ğ¸Ñ€","name:tw":"Izmir","name:ug":"Izmir","name:uk":"Ğ†Ğ·Ğ¼Ñ–Ñ€","name:ur":"Ø§Ø²Ù…ÛŒØ±","name:uz":"Izmir","name:vi":"Ä°zmir","name:yi":"××™×–××™×¨","name:zh":"ä¼Šå…¹å¯†å°”","name:ast":"Esmirna","name:ceb":"Ä°zmir","name:ckb":"Ø¦ÛŒØ²Ù…ÛŒØ±","name:kaa":"Ä°zmir","name:lad":"Izmir","name:lfn":"Izmir","name:min":"Ä°zmir","name:mrj":"à¤‡à¤à¥à¤®à¤¿à¤°","name:myv":"Ğ˜Ğ·Ğ¼Ğ¸Ñ€","name:ota":"Ø§Ø²Ù…ÛŒØ±","name:sco":"Ä°zmir","name:szl":"Ä°zmir","name:tum":"Ä°zmir","name:udm":"Ğ˜Ğ·Ğ¼Ğ¸Ñ€","name:vec":"Smirne","name:vep":"Izmir","name:war":"Izmir","name:xmf":"áƒ˜áƒ–áƒ›áƒ˜áƒ áƒ˜","old_name":"Smyrna","alt_name:ml":"à´¸àµà´®à´¿àµ¼à´£","old_name:sk":"Smyrna","name:lad-Hebr":"××™×–××™×¨"},"display_name":"Ä°zmir, Konak, Ä°zmir, Ege BÃ¶lgesi, 35250, TÃ¼rkiye","address":{"city":"Ä°zmir","town":"Konak","province":"Ä°zmir","ISO3166-2-lvl4":"TR-35","region":"Ege BÃ¶lgesi","postcode":"35250","country":"TÃ¼rkiye","country_code":"tr"},"population":4493242,"osm_type":"node","osm_id":428039507,"type":"city","location":[27.128469,38.4192537],"bbox":[26.968469,38.2592537,27.288469,38.5792537]}
{"name":"KahramanmaraÅŸ","other_names":{"name:ar":"Ù…Ø±Ø¹Ø´","name:el":"ÎšÎ±Ï‡ÏÎ±Î¼Î¬Î½Î¼Î±ÏÎ±Ï‚","name:fa":"Ù‚Ù‡Ø±Ù…Ø§Ù† Ù…Ø§Ø±Ø§Ø´","name:hi":"à¤•à¤¹à¤°à¤¾à¤®à¤¨à¤®à¤¾à¤°à¤¸","name:hu":"KahramanmaraÅŸ","name:hy":"Õ„Õ¡Ö€Õ¡Õ·","name:ku":"Gurgum","name:ml":"à´•à´¹àµà´°à´¾à´®àµ»à´®à´±à´¾à´·àµ","name:pt":"KahramanmaraÅŸ","name:ru":"ĞšĞ°Ñ…Ñ€Ğ°Ğ¼Ğ°Ğ½Ğ¼Ğ°Ñ€Ğ°Ñˆ","name:sr":"ĞšĞ°Ñ…Ñ€Ğ°Ğ¼Ğ°Ğ½Ğ¼Ğ°Ñ€Ğ°Ñˆ","name:tr":"KahramanmaraÅŸ","name:uk":"ĞšĞ°Ñ…Ñ€Ğ°Ğ¼Ğ°Ğ½Ğ¼Ğ°Ñ€Ğ°Ñˆ","alt_name":"MaraÅŸ","alt_name:ml":"à´®à´±à´¾à´·àµ"},"display_name":"KahramanmaraÅŸ, DulkadiroÄŸlu, KahramanmaraÅŸ, Akdeniz BÃ¶lgesi, 36002, TÃ¼rkiye","address":{"city":"KahramanmaraÅŸ","town":"DulkadiroÄŸlu","province":"KahramanmaraÅŸ","ISO3166-2-lvl4":"TR-46","region":"Akdeniz BÃ¶lgesi","postcode":"36002","country":"TÃ¼rkiye","country_code":"tr"},"population":1112634,"osm_type":"node","osm_id":26480875,"type":"city","location":[36.927509,37.5812744],"bbox":[36.767509,37.4212744,37.087509,37.7412744]}
{"name":"KarabÃ¼k","other_names":{"name:ar":"ÙƒØ§Ø±Ø§Ø¨ÙˆÙƒ","name:az":"KarabÃ¼k","name:be":"ĞšĞ°Ñ€Ğ°Ğ±ÑĞº","name:bg":"ĞšĞ°Ñ€Ğ°Ğ±ÑĞº","name:br":"KarabÃ¼k","name:bs":"KarabÃ¼k","name:cs":"KarabÃ¼k","name:cv":"ĞšĞ°Ñ€Ğ°Ğ±ÑĞº","name:cy":"KarabÃ¼k","name:de":"KarabÃ¼k","name:el":"ÎšÎ±ÏÎ±Î¼Ï€Î¿ÏÎº","name:en":"KarabÃ¼k","name:fr":"KarabÃ¼k","name:hi":"à¤•à¤¾à¤°à¤¾à¤¬à¥à¤•","name:hu":"KarabÃ¼k","name:ku":"KarabÃ¼k","name:la":"KarabÃ¼k","name:mk":"ĞšĞ°Ñ€Ğ°Ğ±ÑƒĞº","name:ml":"à´•à´±à´¬àµ‚à´•àµà´•àµ","name:nl":"KarabÃ¼k","name:no":"KarabÃ¼k","name:os":"ĞšĞ°Ñ€Ğ°Ğ±ÑĞº","name:pl":"KarabÃ¼k","name:pt":"KarabÃ¼k","name:ru":"ĞšĞ°Ñ€Ğ°Ğ±ÑĞº","name:sh":"KarabÃ¼k","name:sr":"ĞšĞ°Ñ€Ğ°Ğ±Ğ¸Ğº","name:sv":"KarabÃ¼k","name:tk":"KarabÃ¼k","name:tr":"KarabÃ¼k","name:uk":"ĞšĞ°Ñ€Ğ°Ğ±ÑĞº","name:uz":"KarabÃ¼k","name:vi":"KarabÃ¼k","name:ceb":"KarabÃ¼k","name:crh":"KarabÃ¼k","name:frr":"KarabÃ¼k","name:mrj":"ĞšĞ°Ñ€Ğ°Ğ±Ó±Ğº","name:war":"KarabÃ¼k"},"display_name":"KarabÃ¼k, KarabÃ¼k Merkez, KarabÃ¼k, Karadeniz BÃ¶lgesi, TÃ¼rkiye","address":{"city":"KarabÃ¼k","province":"KarabÃ¼k","ISO3166-2-lvl4":"TR-78","region":"Karadeniz BÃ¶lgesi","country":"TÃ¼rkiye","country_code":"tr"},"population":123309,"osm_type":"node","osm_id":26485694,"type":"city","location":[32.6231154,41.1955402],"bbox":[32.4631154,41.0355402,32.7831154,41.3555402],"border":{"name":"KarabÃ¼k Merkez","other_names":{"name:de":"KarabÃ¼k","name:en":"KarabÃ¼k","name:tr":"KarabÃ¼k Merkez","name:ar":"ÙƒØ§Ø±Ø§Ø¨ÙˆÙƒ","name:az":"KarabÃ¼k","name:be":"ĞšĞ°Ñ€Ğ°Ğ±ÑĞº","name:bg":"ĞšĞ°Ñ€Ğ°Ğ±ÑĞº","name:br":"KarabÃ¼k","name:bs":"KarabÃ¼k","name:cs":"KarabÃ¼k","name:cv":"ĞšĞ°Ñ€Ğ°Ğ±ÑĞº","name:cy":"KarabÃ¼k","name:el":"ÎšÎ±ÏÎ±Î¼Ï€Î¿ÏÎº","name:fr":"KarabÃ¼k","name:hi":"à¤•à¤¾à¤°à¤¾à¤¬à¥à¤•","name:hu":"KarabÃ¼k","name:ku":"KarabÃ¼k","name:la":"KarabÃ¼k","name:mk":"ĞšĞ°Ñ€Ğ°Ğ±ÑƒĞº","name:ml":"à´•à´±à´¬àµ‚à´•àµà´•àµ","name:nl":"KarabÃ¼k","name:no":"KarabÃ¼k","name:os":"ĞšĞ°Ñ€Ğ°Ğ±ÑĞº","name:pl":"KarabÃ¼k","name:pt":"KarabÃ¼k","name:ru":"ĞšĞ°Ñ€Ğ°Ğ±ÑĞº","name:sh":"KarabÃ¼k","name:sr":"ĞšĞ°Ñ€Ğ°Ğ±Ğ¸Ğº","name:sv":"KarabÃ¼k","name:tk":"KarabÃ¼k","name:uk":"ĞšĞ°Ñ€Ğ°Ğ±ÑĞº","name:uz":"KarabÃ¼k","name:vi":"KarabÃ¼k","name:ceb":"KarabÃ¼k","name:crh":"KarabÃ¼k","name:frr":"KarabÃ¼k","name:mrj":"ĞšĞ°Ñ€Ğ°Ğ±Ó±Ğº","name:war":"KarabÃ¼k","alt":"KarabÃ¼k","alt:tr":"KarabÃ¼k"},"display_name":"KarabÃ¼k Merkez, KarabÃ¼k, Karadeniz BÃ¶lgesi, TÃ¼rkiye","address":{"city":"KarabÃ¼k Merkez","province":"KarabÃ¼k","ISO3166-2-lvl4":"TR-78","region":"Karadeniz BÃ¶lgesi","country":"TÃ¼rkiye","country_code":"tr"},"population":123309,"osm_type":"relation","osm_id":1245154,"type":"administrative","location":[32.6231154,41.1955402],"bbox":[32.4377524,40.9966223,32.8163477,41.3601099]}}
{"name":"Karaman","other_names":{"name:ar":"ÙƒØ§Ø±Ø§Ù…Ø§Ù†","name:bn":"à¦•à¦¾à¦°à¦¾à¦®à¦¾à¦¨","name:de":"Karaman","name:el":"ÎšÎ±ÏÎ±Î¼Î¬Î½","name:en":"Karaman","name:es":"Karaman","name:hu":"Karaman","name:ko":"ì¹´ë¼ë§Œ","name:ml":"à´•à´±à´¾à´®à´¾àµ»","name:nl":"Karaman","name:no":"Karaman","name:pt":"CaramÃ¢nia","name:ru":"ĞšĞ°Ñ€Ğ°Ğ¼Ğ°Ğ½","name:sr":"ĞšĞ°Ñ€Ğ°Ğ¼Ğ°Ğ½","name:sv":"Karaman","name:tr":"Karaman","name:uk":"ĞšĞ°Ñ€Ğ°Ğ¼Ğ°Ğ½","old_name":"Laranda;Larende;Larawanda","old_name:el":"Î›Î±ÏÎ­Î½Ï„Îµ"},"display_name":"Karaman, Karaman Merkez, Karaman, Ä°Ã§ Anadolu BÃ¶lgesi, TÃ¼rkiye","address":{"city":"Karaman","province":"Karaman","ISO3166-2-lvl4":"TR-70","region":"Ä°Ã§ Anadolu BÃ¶lgesi","country":"TÃ¼rkiye","country_code":"tr"},"population":245610,"osm_type":"node","osm_id":26482281,"type":"city","location":[33.2194554,37.1808502],"bbox":[33.0594554,37.0208502,33.3794554,37.3408502],"border":{"name":"Karaman Merkez","other_names":{"name:ar":"Ù‚Ø±Ù…Ø§Ù†","name:bg":"ĞšĞ°Ñ€Ğ°Ğ¼Ğ°Ğ½","name:ce":"ĞšĞ°Ñ€Ğ°Ğ¼Ğ°Ğ½","name:de":"Karaman","name:el":"ÎšÎ±ÏÎ±Î¼Î¬Î½","name:en":"Karaman","name:fa":"Ù‚Ø±Ø§Ù…Ø§Ù†","name:he":"×§××¨××××Ÿ","name:hy":"Õ”Õ¡Ö€Õ¡Õ´Õ¡Õ¶","name:ja":"ã‚«ãƒ©ãƒãƒ³","name:ka":"áƒ¥áƒáƒ áƒáƒ›áƒáƒœáƒ˜","name:kk":"ÒšĞ°Ñ€Ğ°Ğ¼Ğ°Ğ½","name:ko":"ì¹´ë¼ë§Œ","name:la":"Laranda","name:pa":"à¨•à¨¾à¨°à¨®à¨¾à¨¨","name:pt":"CaramÃ¢nia","name:ru":"ĞšĞ°Ñ€Ğ°Ğ¼Ğ°Ğ½","name:tg":"ÒšĞ°Ñ€Ğ¾Ğ¼Ğ¾Ğ½","name:tr":"Karaman Merkez","name:tt":"ĞšĞ°Ñ€Ğ°Ğ¼Ğ°Ğ½","name:uk":"ĞšĞ°Ñ€Ğ°Ğ¼Ğ°Ğ½","name:ur":"Ù‚Ø±Ù…Ø§Ù†","name:zh":"å¡æ‹‰æ›¼","name:zza":"Qereman","name:bn":"à¦•à¦¾à¦°à¦¾à¦®à¦¾à¦¨","name:es":"Karaman","name:hu":"Karaman","name:ml":"à´•à´±à´¾à´®à´¾àµ»","name:nl":"Karaman","name:no":"Karaman","name:sr":"ĞšĞ°Ñ€Ğ°Ğ¼Ğ°Ğ½","name:sv":"Karaman","old_name":"Laranda;Larende;Larawanda","old_name:el":"Î›Î±ÏÎ­Î½Ï„Îµ","alt":"Karaman","alt:ar":"ÙƒØ§Ø±Ø§Ù…Ø§Ù†","alt:tr":"Karaman"},"display_name":"Karaman Merkez, Karaman, Ä°Ã§ Anadolu BÃ¶lgesi, TÃ¼rkiye","address":{"city":"Karaman Merkez","province":"Karaman","ISO3166-2-lvl4":"TR-70","region":"Ä°Ã§ Anadolu BÃ¶lgesi","country":"TÃ¼rkiye","country_code":"tr"},"population":245610,"osm_type":"relation","osm_id":1477819,"type":"administrative","location":[33.2194554,37.1808502],"bbox":[32.7691076,36.8109393,33.7334347,37.5657304]}}
{"name":"Kars","other_names":{"name:ar":"Ù‚Ø§Ø±Øµ","name:bg":"ĞšĞ°Ñ€Ñ","name:ce":"ĞšĞ°Ñ€Ñ","name:el":"ÎšÎ±ÏÏ‚","name:fa":"Ù‚Ø§Ø±Øµ","name:he":"×§××¨×¡","name:hy":"Ô¿Õ¡Ö€Õ½","name:ja":"ã‚«ãƒ«ã‚¹","name:ka":"áƒ§áƒáƒ áƒ¡áƒ˜","name:ko":"ì¹´ë¥´ìŠ¤","name:ku":"Qers","name:ml":"à´–à´¾àµ¼à´¸àµ","name:pt":"Cars","name:ru":"ĞšĞ°Ñ€Ñ","name:sr":"ĞšĞ°Ñ€Ñ","name:tt":"ĞšĞ°Ñ€Ñ","name:uk":"ĞšĞ°Ñ€Ñ","name:ur":"Ù‚Ø§Ø±Øµ","name:zh":"å¡çˆ¾æ–¯","name:ckb":"Ù‚Û•Ø±Ø³","name:zza":"Qers"},"display_name":"Kars, Kars Merkez, Kars, DoÄŸu Anadolu BÃ¶lgesi, TÃ¼rkiye","address":{"city":"Kars","province":"Kars","ISO3166-2-lvl4":"TR-36","region":"DoÄŸu Anadolu BÃ¶lgesi","country":"TÃ¼rkiye","country_code":"tr"},"population":289786,"osm_type":"node","osm_id":26486777,"type":"city","location":[43.0947521,40.6070761],"bbox":[42.9347521,40.4470761,43.2547521,40.7670761],"border":{"name":"Kars Merkez","other_names":{"name:ab":"ÒĞ°Ñ€Ñ","name:ar":"Ù‚Ø§Ø±Øµ","name:az":"Qars","name:be":"ĞšĞ°Ñ€Ñ","name:bg":"ĞšĞ°Ñ€Ñ","name:ce":"ĞšĞ°Ñ€Ñ","name:de":"Kars","name:el":"ÎšÎ±ÏÏ‚","name:en":"Kars","name:fa":"Ù‚Ø§Ø±Øµ","name:he":"×§××¨×¡","name:hy":"Ô¿Õ¡Ö€Õ½","name:ja":"ã‚«ãƒ«ã‚¹","name:ka":"áƒ§áƒáƒ áƒ¡áƒ˜","name:ko":"ì¹´ë¥´ìŠ¤","name:ku":"Qers","name:pa":"à¨•à¨¾à¨°à¨¸","name:pt":"Cars","name:ru":"ĞšĞ°Ñ€Ñ","name:sr":"ĞšĞ°Ñ€Ñ","name:tg":"ÒšĞ¾Ñ€Ñ","name:th":"à¸„à¸²à¸£à¹Œà¸ª","name:tr":"Kars Merkez","name:tt":"ĞšĞ°Ñ€Ñ","name:uk":"ĞšĞ°Ñ€Ñ","name:ur":"Ù‚Ø§Ø±Øµ","name:zh":"å¡çˆ¾æ–¯","name:pnt":"ÎšÎ±ÏÏ‚","name:zza":"Qers","name:ml":"à´–à´¾àµ¼à´¸àµ","name:ckb":"Ù‚Û•Ø±Ø³","alt":"Kars"},"display_name":"Kars Merkez, Kars, DoÄŸu Anadolu BÃ¶lgesi, TÃ¼rkiye","address":{"city":"Kars Merkez","province":"Kars","ISO3166-2-lvl4":"TR-36","region":"DoÄŸu Anadolu BÃ¶lgesi","country":"TÃ¼rkiye","country_code":"tr"},"population":289786,"osm_type":"relation","osm_id":1838392,"type":"administrative","location":[43.0947521,40.6070761],"bbox":[42.8001659,40.3115848,43.7065459,40.8180681]}}
{"name":"Kastamonu","other_names":{"name:ab":"ĞšĞ°ÑÒ­Ğ°Ğ¼Ğ¾Ğ½Ñƒ","name:ar":"Ù‚Ø³Ø·Ù…ÙˆÙ†ÙŠ","name:bg":"ĞšĞ°ÑÑ‚Ğ°Ğ¼Ğ¾Ğ½Ñƒ","name:ce":"ĞšĞ°ÑÑ‚Ğ°Ğ¼Ğ¾Ğ½Ñƒ","name:cv":"ĞšĞ°ÑÑ‚Ğ°Ğ¼Ğ¾Ğ½Ñƒ","name:el":"ÎšÎ±ÏƒÏ„Î±Î¼Î¿Î½Î®","name:en":"Kastamonu","name:fa":"Ù‚Ø³Ø·Ù…ÙˆÙ†ÛŒ","name:hi":"à¤•à¤¸à¥à¤¤à¤®à¥‹à¤¨à¥","name:hy":"Õ”Õ¡Õ½Õ©Õ¡Õ´Õ¸Õ¶Õ¸Ö‚","name:ja":"ã‚«ã‚¹ã‚¿ãƒ¢ãƒŒ","name:ka":"áƒ™áƒáƒ¡áƒ—áƒáƒ›áƒáƒœáƒ£","name:ko":"ì¹´ìŠ¤íƒ€ëª¨ëˆ„","name:ml":"à´•à´¸àµà´¤à´®àµ‹à´¨àµ","name:os":"ĞšĞ°ÑÑ‚Ğ°Ğ¼Ğ¾Ğ½Ñƒ","name:pt":"Castamonu","name:ru":"ĞšĞ°ÑÑ‚Ğ°Ğ¼Ğ¾Ğ½Ñƒ","name:sr":"ĞšĞ°ÑÑ‚Ğ°Ğ¼Ğ¾Ğ½Ñƒ","name:tg":"ĞšĞ°ÑÑ‚Ğ°Ğ¼Ğ¾Ğ½Ñƒ","name:tr":"Kastamonu","name:tt":"ĞšĞ°ÑÑ‚Ğ°Ğ¼Ğ¾Ğ½Ñƒ","name:uk":"ĞšĞ°ÑÑ‚Ğ°Ğ¼Ğ¾Ğ½Ñƒ","name:ur":"Ú©Ø§Ø³ØªØ§Ù…ÙˆÙ†Ùˆ","name:zh":"å¡æ–¯å¡”è«åŠª","name:diq":"Qestamonu","name:zza":"Qestamonu","old_name":"Tumana"},"display_name":"Kastamonu, Kastamonu Merkez, Kastamonu, Karadeniz BÃ¶lgesi, TÃ¼rkiye","address":{"city":"Kastamonu","province":"Kastamonu","ISO3166-2-lvl4":"TR-37","region":"Karadeniz BÃ¶lgesi","country":"TÃ¼rkiye","country_code":"tr"},"population":125622,"osm_type":"node","osm_id":26485876,"type":"city","location":[33.7770087,41.3765359],"bbox":[33.6170087,41.2165359,33.9370087,41.5365359],"border":{"name":"Kastamonu Merkez","other_names":{"name:ab":"ĞšĞ°ÑÒ­Ğ°Ğ¼Ğ¾Ğ½Ñƒ","name:ar":"Ù‚Ø³Ø·Ù…ÙˆÙ†ÙŠ","name:bg":"ĞšĞ°ÑÑ‚Ğ°Ğ¼Ğ¾Ğ½Ñƒ","name:ce":"ĞšĞ°ÑÑ‚Ğ°Ğ¼Ğ¾Ğ½Ñƒ","name:cv":"ĞšĞ°ÑÑ‚Ğ°Ğ¼Ğ¾Ğ½Ñƒ","name:de":"Kastamonu","name:el":"ÎšÎ±ÏƒÏ„Î±Î¼Î¿Î½Î®","name:en":"Kastamonu","name:fa":"Ù‚Ø³Ø·Ù…ÙˆÙ†ÛŒ","name:hy":"Õ”Õ¡Õ½Õ©Õ¡Õ´Õ¸Õ¶Õ¸Ö‚","name:ja":"ã‚«ã‚¹ã‚¿ãƒ¢ãƒŒ","name:ka":"áƒ™áƒáƒ¡áƒ—áƒáƒ›áƒáƒœáƒ£","name:ko":"ì¹´ìŠ¤íƒ€ëª¨ëˆ„","name:os":"ĞšĞ°ÑÑ‚Ğ°Ğ¼Ğ¾Ğ½Ñƒ","name:pt":"Castamonu","name:ru":"ĞšĞ°ÑÑ‚Ğ°Ğ¼Ğ¾Ğ½Ñƒ","name:sr":"ĞšĞ°ÑÑ‚Ğ°Ğ¼Ğ¾Ğ½Ñƒ","name:tg":"ĞšĞ°ÑÑ‚Ğ°Ğ¼Ğ¾Ğ½Ñƒ","name:tr":"Kastamonu Merkez","name:tt":"ĞšĞ°ÑÑ‚Ğ°Ğ¼Ğ¾Ğ½Ñƒ","name:uk":"ĞšĞ°ÑÑ‚Ğ°Ğ¼Ğ¾Ğ½Ñƒ","name:ur":"Ú©Ø§Ø³ØªØ§Ù…ÙˆÙ†Ùˆ","name:zh":"å¡æ–¯å¡”è«åŠªçœ","alt_name":"Kastamonu","name:zza":"Qestamonu","old_name":"Tumana","name:hi":"à¤•à¤¸à¥à¤¤à¤®à¥‹à¤¨à¥","name:ml":"à´•à´¸àµà´¤à´®àµ‹à´¨àµ","name:diq":"Qestamonu","alt":"Kastamonu","alt:tr":"Kastamonu","alt:zh":"å¡æ–¯å¡”è«åŠª"},"display_name":"Kastamonu Merkez, Kastamonu, Karadeniz BÃ¶lgesi, TÃ¼rkiye","address":{"city":"Kastamonu Merkez","province":"Kastamonu","ISO3166-2-lvl4":"TR-37","region":"Karadeniz BÃ¶lgesi","country":"TÃ¼rkiye","country_code":"tr"},"population":152541,"osm_type":"relation","osm_id":1801994,"type":"administrative","location":[33.7770087,41.3765359],"bbox":[33.4954174,41.0474703,34.1651913,41.5796497]}}
{"name":"Kayseri","other_names":{"name:af":"Kayseri","name:ar":"Ù‚ÙŠØµØ±ÙŠØ©","name:az":"Kayseri","name:be":"ĞšĞ°Ğ¹ÑĞµÑ€Ñ‹","name:bg":"ĞšĞ°Ğ¹ÑĞµÑ€Ğ¸","name:bn":"à¦•à¦¾à§Ÿà¦¸à§‡à¦°à¦¿","name:br":"Kayseri","name:bs":"Kayseri","name:ca":"Kayseri","name:ce":"ĞšĞ°Ğ¹ÑĞµÑ€Ğ¸","name:cs":"Kayseri","name:da":"Kayseri","name:de":"Kayseri","name:el":"ÎšÎ±Î¹ÏƒÎ¬ÏÎµÎ¹Î±","name:en":"Kayseri","name:eo":"Kayseri","name:es":"Kayseri","name:et":"Kayseri","name:eu":"Kayseri","name:fa":"Ù‚ÛŒØµØ±ÛŒÙ‡","name:fr":"Kayseri","name:gl":"Kayseri","name:ha":"Kayseri","name:he":"×§×™×™×¡×¨×™","name:hi":"à¤•à¤¾à¤¯à¤¸à¥‡à¤°à¥€","name:hr":"Kayseri","name:hu":"Kayseri","name:hy":"Ô¿ÔµÕÔ±ÕÔ»Ô±","name:id":"Kayseri","name:ie":"Kayseri","name:it":"Kayseri","name:ja":"ã‚«ã‚¤ã‚»ãƒª","name:ka":"áƒ™áƒáƒ˜áƒ¡áƒ”áƒ áƒ˜","name:kk":"ÒšĞ°Ğ¹ÑĞµÑ€Ñ–","name:ko":"ì¹´ì´ì„¸ë¦¬","name:ku":"QeyserÃ®","name:ky":"ĞšĞ°Ğ¹ÑĞµÑ€Ğ¸","name:la":"Caesarea","name:lt":"Kaiseris","name:lv":"Kajseri","name:mk":"ĞšĞ°Ñ˜ÑĞµÑ€Ğ¸","name:ml":"à´•àµˆà´¸àµ†à´±à´¿","name:ms":"Kayseri","name:na":"Kayseri","name:nl":"Kayseri","name:no":"Kayseri","name:os":"Ğ¥ÑŠĞ°Ğ¹ÑĞµÑ€Ğ¸","name:pl":"Kayseri","name:pt":"Kayseri","name:ro":"Kayseri","name:ru":"ĞšĞ°Ğ¹ÑĞµÑ€Ğ¸","name:rw":"Kayseri","name:sc":"Cesarea","name:sh":"Kayseri","name:sk":"Kayseri","name:sl":"Kayseri","name:so":"Kayseri","name:sq":"Kajseriu","name:sr":"ĞšĞ°Ñ˜ÑĞµÑ€Ğ¸","name:sv":"Kayseri","name:sw":"Kayseri","name:ta":"à®•à¯†à®¯à¯à®šà¯‡à®°à®¿","name:tg":"ĞšĞ°Ğ¹ÑĞ°Ñ€Ğ¸","name:th":"à¸„à¸±à¸¢à¹€à¸‹à¸£à¸µ","name:tr":"Kayseri","name:tt":"ĞšĞ°Ğ¹ÑÓ™Ñ€Ğ¸","name:tw":"Kayseri","name:uk":"ĞšĞ°Ğ¹ÑĞµÑ€Ñ–","name:ur":"Ù‚ÛŒØµØ±ÛŒ","name:uz":"Qayseri","name:vi":"Kaiseri","name:zh":"é–‹å¡åˆ©","name:ast":"Kayseri","name:ceb":"Kayseri","name:ckb":"Ù‚Û•ÛŒØ³Û•Ø±ÛŒ","name:diq":"Qeyseriye","name:frr":"Kayseri","name:fur":"Kayseri","name:gag":"Kayseri","name:lmo":"Cesarea de Capadocia","name:mhr":"ĞšĞ°Ğ¹ÑĞµÑ€Ğ¸","name:min":"Kayseri","name:mrj":"ĞšĞ°Ğ¹ÑĞµÑ€Ğ¸","name:ota":"Ù‚ÛŒØµØ±ÛŒÙ‡","name:pms":"Kayseri","name:pnb":"Ú©ÛŒØ³Ø±ÛŒ Ø´ÛØ±","name:sco":"Kayseri","name:tyv":"ĞšaĞ¹ÑĞµÑ€Ğ¸","name:udm":"ĞšĞ°Ğ¹ÑĞµÑ€Ğ¸","name:vep":"Kaiseri","name:war":"Kaiseri","name:wuu":"å¼€å¡åˆ©","name:xmf":"áƒ™áƒáƒ˜áƒ¡áƒ”áƒ áƒ˜","ISO3166-2":"TR-38","alt_name:ml":"à´•àµˆà´¸à´°àµà´¯"},"display_name":"Kayseri, Melikgazi, Kayseri, Ä°Ã§ Anadolu BÃ¶lgesi, 38050, TÃ¼rkiye","address":{"city":"Kayseri","ISO3166-2-lvl15":"TR-38","town":"Melikgazi","province":"Kayseri","ISO3166-2-lvl4":"TR-38","region":"Ä°Ã§ Anadolu BÃ¶lgesi","postcode":"38050","country":"TÃ¼rkiye","country_code":"tr"},"population":1389680,"osm_type":"node","osm_id":26482287,"type":"city","location":[35.4873214,38.7219011],"bbox":[35.3273214,38.5619011,35.6473214,38.8819011]}
{"name":"Kilis","other_names":{"name:ar":"ÙƒÙ„Ø³","name:bg":"ĞšĞ¸Ğ»Ğ¸Ñ","name:ce":"ĞšĞ¸Ğ»Ğ¸Ñ","name:de":"Kilis","name:el":"ÎšÎ¹Î»Î¯Ï‚","name:en":"Kilis","name:es":"Kilis","name:fa":"Ú©ÛŒÙ„ÛŒØ³","name:fr":"Kilis","name:hy":"Õ”Õ«Õ¬Õ«Õ½","name:it":"Kilis","name:ja":"ã‚­ãƒªã‚¹","name:ka":"áƒ¥áƒ˜áƒšáƒ˜áƒ¡áƒ˜","name:ko":"í‚¬ë¦¬ìŠ¤","name:ku":"KilÃ®s","name:lt":"Kilisas","name:lv":"Kilisa","name:ml":"à´•à´¿à´²à´¿à´¸àµ","name:nl":"Kilis","name:no":"Kilis","name:os":"ĞšĞ¸Ğ»Ğ¸Ñ","name:pa":"à¨•à¨¿à¨²à¨¿à¨¸","name:pl":"Kilis","name:pt":"Kilis","name:ru":"ĞšĞ¸Ğ»Ğ¸Ñ","name:sr":"ĞšĞ¸Ğ»Ğ¸Ñ","name:tg":"ĞšĞ¸Ğ»Ğ¸Ñ","name:tr":"Kilis","name:tt":"ĞšĞ¸Ğ»Ğ¸Ñ","name:ug":"ÙƒÙ‰Ù„Ù‰Ø³","name:uk":"ĞšÑ–Ğ»Ñ–Ñ","name:ur":"Ú©ÛŒÙ„ÛŒØ³","name:zh":"åŸºåˆ©æ–¯","name:azb":"Ú©ÛŒÙ„ÛŒØ³","name:ckb":"Ú©Ù„ÛŒØ³","name:lrc":"Ú©ÛŒÙ„ÛŒØ³","name:pnb":"Ú©ÛŒÙ„Ø³","alt_name:ar":"ÙƒÙ„Ø²;ÙƒÙŠÙ„ÙŠØ³"},"display_name":"Kilis, Kilis Merkez, Kilis, GÃ¼neydoÄŸu Anadolu BÃ¶lgesi, TÃ¼rkiye","address":{"city":"Kilis","province":"Kilis","ISO3166-2-lvl4":"TR-79","region":"GÃ¼neydoÄŸu Anadolu BÃ¶lgesi","country":"TÃ¼rkiye","country_code":"tr"},"population":130825,"osm_type":"node","osm_id":26487717,"type":"city","location":[37.1146069,36.7165552],"bbox":[36.9546069,36.5565552,37.2746069,36.8765552],"border":{"name":"Kilis Merkez","other_names":{"name:ar":"Ù…Ø±ÙƒØ² ÙƒÙ„Ø³","name:de":"Kilis","name:el":"ÎšÎ¹Î»Î¯Ï‚","name:en":"Kilis","name:es":"Kilis","name:fa":"Ú©ÛŒÙ„ÛŒØ³","name:fr":"Kilis","name:hy":"Õ”Õ«Õ¬Õ«Õ½","name:ka":"áƒ¥áƒ˜áƒšáƒ˜áƒ¡áƒ˜","name:ku":"KilÃ®s","name:ru":"ĞšĞ¸Ğ»Ğ¸Ñ","name:tr":"Kilis Merkez","name:uk":"ĞšÑ–Ğ»Ñ–Ñ","name:ur":"Ú©ÛŒÙ„ÛŒØ³","name:zh":"åŸºåˆ©æ–¯","name:bg":"ĞšĞ¸Ğ»Ğ¸Ñ","name:ce":"ĞšĞ¸Ğ»Ğ¸Ñ","name:it":"Kilis","name:ja":"ã‚­ãƒªã‚¹","name:ko":"í‚¬ë¦¬ìŠ¤","name:lt":"Kilisas","name:lv":"Kilisa","name:ml":"à´•à´¿à´²à´¿à´¸àµ","name:nl":"Kilis","name:no":"Kilis","name:os":"ĞšĞ¸Ğ»Ğ¸Ñ","name:pa":"à¨•à¨¿à¨²à¨¿à¨¸","name:pl":"Kilis","name:pt":"Kilis","name:sr":"ĞšĞ¸Ğ»Ğ¸Ñ","name:tg":"ĞšĞ¸Ğ»Ğ¸Ñ","name:tt":"ĞšĞ¸Ğ»Ğ¸Ñ","name:ug":"ÙƒÙ‰Ù„Ù‰Ø³","name:azb":"Ú©ÛŒÙ„ÛŒØ³","name:ckb":"Ú©Ù„ÛŒØ³","name:lrc":"Ú©ÛŒÙ„ÛŒØ³","name:pnb":"Ú©ÛŒÙ„Ø³","alt_name:ar":"ÙƒÙ„Ø²;ÙƒÙŠÙ„ÙŠØ³","alt":"Kilis","alt:ar":"ÙƒÙ„Ø³","alt:tr":"Kilis"},"display_name":"Kilis Merkez, Kilis, GÃ¼neydoÄŸu Anadolu BÃ¶lgesi, TÃ¼rkiye","address":{"city":"Kilis Merkez","province":"Kilis","ISO3166-2-lvl4":"TR-79","region":"GÃ¼neydoÄŸu Anadolu BÃ¶lgesi","country":"TÃ¼rkiye","country_code":"tr"},"population":130825,"osm_type":"relation","osm_id":1240868,"type":"administrative","location":[37.1146069,36.7165552],"bbox":[36.7141413,36.6341999,37.3685,36.8802029]}}
{"name":"KÄ±rÄ±kkale","other_names":{"name:ar":"ÙƒÙŠØ±ÙƒØ§Ù„ÙŠ","name:ce":"ĞšĞ¸Ñ€Ğ¸ĞºĞºĞ°Ğ»Ğµ","name:el":"ÎšÎ¹ÏÎ¯ÎºÎ±Î»Îµ","name:en":"KÄ±rÄ±kkale","name:fa":"Ù‚ÛŒØ±ÛŒÙ‚â€ŒÙ‚Ù„Ø¹Ù‡","name:hi":"à¤•à¤¿à¤°à¤¿à¤•à¥à¤•à¤²à¥€","name:hu":"KÄ±rÄ±kkale","name:hy":"Õ”Õ¨Ö€Õ¨Ö„Ö„Õ¡Õ¬Õ¥Õ« Õ´Õ¡Ö€Õ¦","name:ja":"ã‚¯ãƒ«ãƒƒã‚«ãƒ¬","name:ka":"áƒ¥áƒ˜áƒ áƒ˜áƒ¥áƒ™áƒáƒšáƒ”","name:ko":"í¬ë¥´ì¹¼ë ˆ","name:ku":"Kirikkale","name:ml":"à´•à´¿à´±à´¿à´•àµà´•à´²à´¿","name:ru":"ĞšÑ‹Ñ€Ñ‹ĞºĞºĞ°Ğ»Ğµ","name:sr":"ĞšĞ¸Ñ€Ğ¸ĞºĞ°Ğ»Ğµ","name:tg":"ÒšĞ¸Ñ€Ğ¸Ò›Ò›Ğ°Ğ»ÑŠĞ°","name:tr":"KÄ±rÄ±kkale","name:uk":"ĞšĞ¸Ñ€Ğ¸ĞºĞºĞ°Ğ»Ğµ","name:ur":"Ù‚ÛŒØ±ÛŒÙ‚ Ù‚Ù„Ø¹Û","name:uz":"QirqqalÊ¼a","name:zh":"å…‹å‹’å…‹å¡èŠ","name:zza":"QÄ±rÄ±xqele"},"display_name":"KÄ±rÄ±kkale, KÄ±rÄ±kkale Belediyesi, KÄ±rÄ±kkale Merkez, KÄ±rÄ±kkale, Ä°Ã§ Anadolu BÃ¶lgesi, TÃ¼rkiye","address":{"city":"KÄ±rÄ±kkale","province":"KÄ±rÄ±kkale","ISO3166-2-lvl4":"TR-71","region":"Ä°Ã§ Anadolu BÃ¶lgesi","country":"TÃ¼rkiye","country_code":"tr"},"population":351684,"osm_type":"node","osm_id":26482294,"type":"city","location":[33.5058536,39.8410483],"bbox":[33.3458536,39.6810483,33.6658536,40.0010483],"border":[{"name":"KÄ±rÄ±kkale Merkez","other_names":{"name:ce":"ĞšĞ¸Ñ€Ğ¸ĞºĞºĞ°Ğ»Ğµ","name:de":"KÄ±rÄ±kkale","name:el":"ÎšÎ¹ÏÎ¯ÎºÎ±Î»Îµ","name:en":"KÄ±rÄ±kkale","name:fa":"Ù‚ÛŒØ±ÛŒÙ‚â€ŒÙ‚Ù„Ø¹Ù‡","name:hy":"Õ”Õ¨Ö€Õ¨Ö„Ö„Õ¡Õ¬Õ¥Õ« Õ´Õ¡Ö€Õ¦","name:ja":"ã‚¯ãƒ«ãƒƒã‚«ãƒ¬","name:ka":"áƒ¥áƒ˜áƒ áƒ˜áƒ¥áƒ™áƒáƒšáƒ”","name:ko":"í¬ë¥´ì¹¼ë ˆ","name:ku":"Kirikkale","name:ru":"ĞšÑ‹Ñ€Ñ‹ĞºĞºĞ°Ğ»Ğµ","name:sr":"ĞšĞ¸Ñ€Ğ¸ĞºĞ°Ğ»Ğµ","name:tg":"ÒšĞ¸Ñ€Ğ¸Ò›Ò›Ğ°Ğ»ÑŠĞ°","name:tr":"KÄ±rÄ±kkale Merkez","name:uk":"ĞšĞ¸Ñ€Ğ¸ĞºĞºĞ°Ğ»Ğµ","name:ur":"Ù‚ÛŒØ±ÛŒÙ‚ Ù‚Ù„Ø¹Û","name:uz":"QirqqalÊ¼a","name:zh":"å…‹å‹’å…‹å¡èŠ","name:zza":"QÄ±rÄ±xqele","name:ar":"ÙƒÙŠØ±ÙƒØ§Ù„ÙŠ","name:hi":"à¤•à¤¿à¤°à¤¿à¤•à¥à¤•à¤²à¥€","name:hu":"KÄ±rÄ±kkale","name:ml":"à´•à´¿à´±à´¿à´•àµà´•à´²à´¿","alt":"KÄ±rÄ±kkale","alt:tr":"KÄ±rÄ±kkale"},"display_name":"KÄ±rÄ±kkale Merkez, KÄ±rÄ±kkale, Ä°Ã§ Anadolu BÃ¶lgesi, TÃ¼rkiye","address":{"city":"KÄ±rÄ±kkale Merkez","province":"KÄ±rÄ±kkale","ISO3166-2-lvl4":"TR-71","region":"Ä°Ã§ Anadolu BÃ¶lgesi","country":"TÃ¼rkiye","country_code":"tr"},"population":351684,"osm_type":"relation","osm_id":1251199,"type":"administrative","location":[33.5058536,39.8410483],"bbox":[33.3838677,39.6875935,33.6873136,40.0835305]},{"name":"KÄ±rÄ±kkale Belediyesi","other_names":{"name:tr":"KÄ±rÄ±kkale Belediyesi","name:ar":"ÙƒÙŠØ±ÙƒØ§Ù„ÙŠ","name:ce":"ĞšĞ¸Ñ€Ğ¸ĞºĞºĞ°Ğ»Ğµ","name:el":"ÎšÎ¹ÏÎ¯ÎºÎ±Î»Îµ","name:en":"KÄ±rÄ±kkale","name:fa":"Ù‚ÛŒØ±ÛŒÙ‚â€ŒÙ‚Ù„Ø¹Ù‡","name:hi":"à¤•à¤¿à¤°à¤¿à¤•à¥à¤•à¤²à¥€","name:hu":"KÄ±rÄ±kkale","name:hy":"Õ”Õ¨Ö€Õ¨Ö„Ö„Õ¡Õ¬Õ¥Õ« Õ´Õ¡Ö€Õ¦","name:ja":"ã‚¯ãƒ«ãƒƒã‚«ãƒ¬","name:ka":"áƒ¥áƒ˜áƒ áƒ˜áƒ¥áƒ™áƒáƒšáƒ”","name:ko":"í¬ë¥´ì¹¼ë ˆ","name:ku":"Kirikkale","name:ml":"à´•à´¿à´±à´¿à´•àµà´•à´²à´¿","name:ru":"ĞšÑ‹Ñ€Ñ‹ĞºĞºĞ°Ğ»Ğµ","name:sr":"ĞšĞ¸Ñ€Ğ¸ĞºĞ°Ğ»Ğµ","name:tg":"ÒšĞ¸Ñ€Ğ¸Ò›Ò›Ğ°Ğ»ÑŠĞ°","name:uk":"ĞšĞ¸Ñ€Ğ¸ĞºĞºĞ°Ğ»Ğµ","name:ur":"Ù‚ÛŒØ±ÛŒÙ‚ Ù‚Ù„Ø¹Û","name:uz":"QirqqalÊ¼a","name:zh":"å…‹å‹’å…‹å¡èŠ","name:zza":"QÄ±rÄ±xqele","alt":"KÄ±rÄ±kkale","alt:tr":"KÄ±rÄ±kkale"},"display_name":"KÄ±rÄ±kkale Belediyesi, KÄ±rÄ±kkale Merkez, KÄ±rÄ±kkale, Ä°Ã§ Anadolu BÃ¶lgesi, TÃ¼rkiye","address":{"city":"KÄ±rÄ±kkale Belediyesi","province":"KÄ±rÄ±kkale","ISO3166-2-lvl4":"TR-71","region":"Ä°Ã§ Anadolu BÃ¶lgesi","country":"TÃ¼rkiye","country_code":"tr"},"population":351684,"osm_type":"relation","osm_id":19047204,"type":"administrative","location":[33.5058536,39.8410483],"bbox":[33.4635615,39.7914864,33.63668,39.88784]}]}
{"name":"KÄ±rklareli","other_names":{"name:ar":"Ù‚Ø±Ù‚Ù„Ø± Ø§ÙŠÙ„ÙŠ","name:az":"KÄ±rklareli","name:bg":"Ğ›Ğ¾Ğ·ĞµĞ½Ğ³Ñ€Ğ°Ğ´","name:br":"KÄ±rklareli","name:ca":"KÄ±rklareli","name:ce":"ĞšĞ¸Ñ€ĞºĞ»Ğ°Ñ€ĞµĞ»Ğ¸","name:cs":"KÄ±rklareli","name:de":"KÄ±rklareli","name:el":"Î£Î±ÏÎ¬Î½Ï„Î± Î•ÎºÎºÎ»Î·ÏƒÎ¹Î­Ï‚","name:en":"KÄ±rklareli","name:eo":"KÄ±rklareli","name:es":"KÄ±rklareli","name:fa":"Ù‚Ø±Ù‚Ù„Ø±Ø§ÛŒÙ„ÛŒ","name:fi":"KÄ±rklareli","name:fr":"KÄ±rklareli","name:hu":"KÄ±rklareli","name:id":"KÄ±rklareli","name:it":"KÄ±rklareli","name:ja":"ã‚¯ãƒ«ã‚¯ãƒ©ãƒ¼ãƒ¬ãƒª","name:ka":"áƒ¥áƒ˜áƒ áƒ¥áƒšáƒáƒ áƒ”áƒšáƒ˜","name:ko":"í‚¤ë¥´í´ë¼ë ë¦¬","name:lt":"Kirklarelis","name:mk":"Ğ›Ğ¾Ğ·ĞµĞ½Ğ³Ñ€Ğ°Ğ´","name:ml":"à´•à´¿àµ¼à´•àµà´²à´±àµ‡à´²à´¿","name:mr":"ĞšÑ‹Ñ€ĞºĞ»Ğ°Ñ€ĞµĞ»Ğ¸","name:ms":"KÄ±rklareli","name:na":"KÄ±rklareli","name:nl":"KÄ±rklareli","name:nn":"KÄ±rklareli","name:no":"KÄ±rklareli","name:os":"ĞšÑ‹Ñ€ĞºĞ»Ğ°Ñ€ĞµĞ»Ğ¸","name:pa":"à¨•à¨¿à¨°à¨•à¨²à¨¾à¨²à©‡à¨°à©€","name:pl":"KÄ±rklareli","name:pt":"KÄ±rklareli","name:rn":"KÄ±rklareli","name:ro":"KÄ±rklareli","name:ru":"ĞšÑ‹Ñ€ĞºĞ»Ğ°Ñ€ĞµĞ»Ğ¸","name:rw":"KÄ±rklareli","name:sh":"KÄ±rklareli","name:sk":"KÄ±rklareli","name:sq":"KÃ«rklareli","name:sr":"ĞšĞ¸Ñ€ĞºĞ»Ğ°Ñ€ĞµĞ»Ğ¸","name:sw":"KÄ±rklareli","name:tg":"ÒšĞ¸Ñ€Ò›Ğ»Ğ°Ñ€ÑĞ»Ó£","name:tr":"KÄ±rklareli","name:tt":"ĞšÑ‹Ñ€ĞºĞ»Ğ°Ñ€ĞµĞ»Ğ¸","name:uk":"ĞšĞ¸Ñ€ĞºĞ»Ğ°Ñ€ĞµĞ»Ñ–","name:ur":"Ù‚Ø±Ù‚Ù„Ø±Ø§ÛŒÙ„ÛŒ","name:vi":"KÄ±rklareli","name:zh":"å…‹çˆ¾å…‹æ‹‰é›·åˆ©","name:min":"KÄ±rklareli","name:pan":"Ú©Ø±Ú©Ù„Ø§Ø±ÛŒÙ„ÛŒ","name:sco":"KÄ±rklareli","name:udm":"ĞšÑ‹Ñ€ĞºĞ»Ğ°Ñ€ĞµĞ»Ğ¸","name:war":"KÄ±rklareli","name:zza":"QÄ±rxlareli","old_name":"KÄ±rkkilise"},"display_name":"KÄ±rklareli, KÄ±rklareli Merkez, KÄ±rklareli, Marmara BÃ¶lgesi, TÃ¼rkiye","address":{"city":"KÄ±rklareli","province":"KÄ±rklareli","ISO3166-2-lvl4":"TR-39","region":"Marmara BÃ¶lgesi","country":"TÃ¼rkiye","country_code":"tr"},"population":277984,"osm_type":"node","osm_id":25869577,"type":"city","location":[27.2235523,41.7370223],"bbox":[27.0635523,41.5770223,27.3835523,41.8970223],"border":{"name":"KÄ±rklareli Merkez","other_names":{"name:bg":"Ğ›Ğ¾Ğ·ĞµĞ½Ğ³Ñ€Ğ°Ğ´","name:el":"Î£Î±ÏÎ¬Î½Ï„Î± Î•ÎºÎºÎ»Î·ÏƒÎ¹Î­Ï‚","name:ru":"Ñ†ĞµĞ½Ñ‚Ñ€Ğ°Ğ»ÑŒĞ½Ñ‹Ğ¹ Ñ€Ğ°Ğ¹Ğ¾Ğ½ ĞšÑ‹Ñ€ĞºĞ»Ğ°Ñ€ĞµĞ»Ğ¸","name:tr":"KÄ±rklareli Merkez","old_name":"KÄ±rkkilise","name:ar":"Ù‚Ø±Ù‚Ù„Ø± Ø§ÙŠÙ„ÙŠ","name:az":"KÄ±rklareli","name:br":"KÄ±rklareli","name:ca":"KÄ±rklareli","name:ce":"ĞšĞ¸Ñ€ĞºĞ»Ğ°Ñ€ĞµĞ»Ğ¸","name:cs":"KÄ±rklareli","name:de":"KÄ±rklareli","name:en":"KÄ±rklareli","name:eo":"KÄ±rklareli","name:es":"KÄ±rklareli","name:fa":"Ù‚Ø±Ù‚Ù„Ø±Ø§ÛŒÙ„ÛŒ","name:fi":"KÄ±rklareli","name:fr":"KÄ±rklareli","name:hu":"KÄ±rklareli","name:id":"KÄ±rklareli","name:it":"KÄ±rklareli","name:ja":"ã‚¯ãƒ«ã‚¯ãƒ©ãƒ¼ãƒ¬ãƒª","name:ka":"áƒ¥áƒ˜áƒ áƒ¥áƒšáƒáƒ áƒ”áƒšáƒ˜","name:ko":"í‚¤ë¥´í´ë¼ë ë¦¬","name:lt":"Kirklarelis","name:mk":"Ğ›Ğ¾Ğ·ĞµĞ½Ğ³Ñ€Ğ°Ğ´","name:ml":"à´•à´¿àµ¼à´•àµà´²à´±àµ‡à´²à´¿","name:mr":"ĞšÑ‹Ñ€ĞºĞ»Ğ°Ñ€ĞµĞ»Ğ¸","name:ms":"KÄ±rklareli","name:na":"KÄ±rklareli","name:nl":"KÄ±rklareli","name:nn":"KÄ±rklareli","name:no":"KÄ±rklareli","name:os":"ĞšÑ‹Ñ€ĞºĞ»Ğ°Ñ€ĞµĞ»Ğ¸","name:pa":"à¨•à¨¿à¨°à¨•à¨²à¨¾à¨²à©‡à¨°à©€","name:pl":"KÄ±rklareli","name:pt":"KÄ±rklareli","name:rn":"KÄ±rklareli","name:ro":"KÄ±rklareli","name:rw":"KÄ±rklareli","name:sh":"KÄ±rklareli","name:sk":"KÄ±rklareli","name:sq":"KÃ«rklareli","name:sr":"ĞšĞ¸Ñ€ĞºĞ»Ğ°Ñ€ĞµĞ»Ğ¸","name:sw":"KÄ±rklareli","name:tg":"ÒšĞ¸Ñ€Ò›Ğ»Ğ°Ñ€ÑĞ»Ó£","name:tt":"ĞšÑ‹Ñ€ĞºĞ»Ğ°Ñ€ĞµĞ»Ğ¸","name:uk":"ĞšĞ¸Ñ€ĞºĞ»Ğ°Ñ€ĞµĞ»Ñ–","name:ur":"Ù‚Ø±Ù‚Ù„Ø±Ø§ÛŒÙ„ÛŒ","name:vi":"KÄ±rklareli","name:zh":"å…‹çˆ¾å…‹æ‹‰é›·åˆ©","name:min":"KÄ±rklareli","name:pan":"Ú©Ø±Ú©Ù„Ø§Ø±ÛŒÙ„ÛŒ","name:sco":"KÄ±rklareli","name:udm":"ĞšÑ‹Ñ€ĞºĞ»Ğ°Ñ€ĞµĞ»Ğ¸","name:war":"KÄ±rklareli","name:zza":"QÄ±rxlareli","alt":"KÄ±rklareli","alt:ru":"ĞšÑ‹Ñ€ĞºĞ»Ğ°Ñ€ĞµĞ»Ğ¸","alt:tr":"KÄ±rklareli"},"display_name":"KÄ±rklareli Merkez, KÄ±rklareli, Marmara BÃ¶lgesi, TÃ¼rkiye","address":{"city":"KÄ±rklareli Merkez","province":"KÄ±rklareli","ISO3166-2-lvl4":"TR-39","region":"Marmara BÃ¶lgesi","country":"TÃ¼rkiye","country_code":"tr"},"population":277984,"osm_type":"relation","osm_id":1834227,"type":"administrative","location":[27.2235523,41.7370223],"bbox":[26.8999708,41.5445613,27.5827861,42.071744]}}
{"name":"KÄ±rÅŸehir","other_names":{"name:ar":"Ù‚Ø±Ø´Ù‡Ø±","name:bg":"ĞšÑŠÑ€ÑˆĞµÑ…Ğ¸Ñ€","name:ce":"ĞšĞ¸Ñ€ÑˆĞµÑ…Ó€Ğ¸Ñ€","name:de":"KÄ±rÅŸehir","name:el":"ÎšÎ¯ÏÏƒÎµÏ‡Î¹Ï","name:en":"KÄ±rÅŸehir","name:es":"KÄ±rÅŸehir","name:fa":"Ù‚Ø± Ø´Ù‡Ø±","name:fr":"KÄ±rÅŸehir","name:hi":"à¤•à¤¿à¤°à¤¶à¤¹à¤°","name:hy":"Õ”Õ¨Ö€Õ·Õ¥Õ°Õ«Ö€","name:it":"KÄ±rÅŸehir","name:ja":"ã‚¯ãƒ«ã‚·ã‚§ãƒ’ãƒ«","name:ka":"áƒ¥áƒ˜áƒ áƒ¨áƒ”áƒ°áƒ˜áƒ áƒ˜","name:ko":"í‚¤ë¥´ì…°íˆë¥´","name:ku":"QÃ®rÅŸehir","name:la":"Macissus","name:mk":"ĞšÑ€ÑˆĞµÑ…Ğ¸Ñ€","name:ml":"à´•à´¿àµ¼à´·àµ†à´¹à´¿àµ¼","name:mr":"à¤•à¤¿à¤°à¥à¤¶à¥‡à¤¹à¤¿à¤° à¤ªà¥à¤°à¤¾à¤‚à¤¤","name:no":"KÄ±rÅŸehir","name:pa":"à¨•à¨¿à¨°à¨¸à©‡à¨¹à¨°","name:pl":"KÄ±rÅŸehir","name:pt":"KÄ±rÅŸehir","name:ru":"ĞšÑ‹Ñ€ÑˆĞµÑ…Ğ¸Ñ€","name:sr":"ĞšĞ¸Ñ€ÑˆĞµÑ…Ğ¸Ñ€","name:tg":"ÒšĞ¸Ñ€ÑˆĞ°Ò³Ñ€","name:th":"à¸ˆà¸±à¸‡à¸«à¸§à¸±à¸”à¸„à¸·à¸­à¸£à¹Œà¹€à¸Šà¸®à¸µà¸£à¹Œ","name:tr":"KÄ±rÅŸehir","name:uk":"ĞšĞ¸Ñ€ÑˆĞµÑ…Ñ–Ñ€","name:ur":"Ù‚Ø± Ø´ÛØ±","name:zh":"å…‹çˆ¾è¬å¸Œçˆ¾","name:zza":"QÄ±rÅŸeher","alt_name:ml":"à´œà´¸àµà´±àµà´±à´¿à´¨à´¿à´¯à´¾à´¨àµ‹à´ªàµ‹à´³à´¿à´¸àµ","old_name:el":"ÎœÏ‰ÎºÎ·ÏƒÏƒÏŒÏ‚","old_name:en":"Mocissus"},"display_name":"KÄ±rÅŸehir, KÄ±rÅŸehir Merkez, KÄ±rÅŸehir, Ä°Ã§ Anadolu BÃ¶lgesi, TÃ¼rkiye","address":{"city":"KÄ±rÅŸehir","province":"KÄ±rÅŸehir","ISO3166-2-lvl4":"TR-40","region":"Ä°Ã§ Anadolu BÃ¶lgesi","country":"TÃ¼rkiye","country_code":"tr"},"population":229975,"osm_type":"node","osm_id":26482519,"type":"city","location":[34.1605587,39.1461142],"bbox":[34.0005587,38.9861142,34.3205587,39.3061142],"border":{"name":"KÄ±rÅŸehir Merkez","other_names":{"name:ar":"Ù‚Ø±Ø´Ù‡Ø±","name:bg":"ĞšÑŠÑ€ÑˆĞµÑ…Ğ¸Ñ€","name:ce":"ĞšĞ¸Ñ€ÑˆĞµÑ…Ó€Ğ¸Ñ€","name:el":"ÎšÎ¯ÏÏƒÎµÏ‡Î¹Ï","name:fa":"Ù‚Ø± Ø´Ù‡Ø±","name:hy":"Õ”Õ¨Ö€Õ·Õ¥Õ°Õ«Ö€","name:ja":"ã‚¯ãƒ«ã‚·ã‚§ãƒ’ãƒ«","name:ka":"áƒ¥áƒ˜áƒ áƒ¨áƒ”áƒ°áƒ˜áƒ áƒ˜","name:ko":"í‚¤ë¥´ì…°íˆë¥´","name:ku":"QÃ®rÅŸehir","name:pa":"à¨•à¨¿à¨°à¨¸à©‡à¨¹à¨°","name:ru":"ĞšÑ‹Ñ€ÑˆĞµÑ…Ğ¸Ñ€","name:sr":"ĞšĞ¸Ñ€ÑˆĞµÑ…Ğ¸Ñ€","name:tr":"KÄ±rÅŸehir Merkez","name:uk":"ĞšĞ¸Ñ€ÑˆĞµÑ…Ñ–Ñ€","name:ur":"Ù‚Ø± Ø´ÛØ±","name:zh":"å…‹çˆ¾è¬å¸Œçˆ¾","name:zza":"QÄ±rÅŸeher","name:de":"KÄ±rÅŸehir","name:en":"KÄ±rÅŸehir","name:es":"KÄ±rÅŸehir","name:fr":"KÄ±rÅŸehir","name:hi":"à¤•à¤¿à¤°à¤¶à¤¹à¤°","name:it":"KÄ±rÅŸehir","name:la":"Macissus","name:mk":"ĞšÑ€ÑˆĞµÑ…Ğ¸Ñ€","name:ml":"à´•à´¿àµ¼à´·àµ†à´¹à´¿àµ¼","name:mr":"à¤•à¤¿à¤°à¥à¤¶à¥‡à¤¹à¤¿à¤° à¤ªà¥à¤°à¤¾à¤‚à¤¤","name:no":"KÄ±rÅŸehir","name:pl":"KÄ±rÅŸehir","name:pt":"KÄ±rÅŸehir","name:tg":"ÒšĞ¸Ñ€ÑˆĞ°Ò³Ñ€","name:th":"à¸ˆà¸±à¸‡à¸«à¸§à¸±à¸”à¸„à¸·à¸­à¸£à¹Œà¹€à¸Šà¸®à¸µà¸£à¹Œ","alt_name:ml":"à´œà´¸àµà´±àµà´±à´¿à´¨à´¿à´¯à´¾à´¨àµ‹à´ªàµ‹à´³à´¿à´¸àµ","old_name:el":"ÎœÏ‰ÎºÎ·ÏƒÏƒÏŒÏ‚","old_name:en":"Mocissus","alt":"KÄ±rÅŸehir","alt:tr":"KÄ±rÅŸehir"},"display_name":"KÄ±rÅŸehir Merkez, KÄ±rÅŸehir, Ä°Ã§ Anadolu BÃ¶lgesi, TÃ¼rkiye","address":{"city":"KÄ±rÅŸehir Merkez","province":"KÄ±rÅŸehir","ISO3166-2-lvl4":"TR-40","region":"Ä°Ã§ Anadolu BÃ¶lgesi","country":"TÃ¼rkiye","country_code":"tr"},"population":229975,"osm_type":"relation","osm_id":1830538,"type":"administrative","location":[34.1605587,39.1461142],"bbox":[33.6816376,38.8199336,34.3167,39.5194319]}}
{"name":"Kocaeli","other_names":{"name:en":"Kocaeli","name:ml":"à´•àµ‹à´œàµ‡à´²à´¿","name:sr":"ĞšĞ¾ÑŸĞ°ĞµĞ»Ğ¸","name:tr":"Kocaeli","name:uk":"ĞšĞ¾Ğ´Ğ¶Ğ°ĞµĞ»Ñ–","old_name:el":"ÎÎ¹ÎºÎ¿Î¼Î®Î´ÎµÎ¹Î±"},"display_name":"Kocaeli, Ä°zmit, Kocaeli, Marmara BÃ¶lgesi, 41300, TÃ¼rkiye","address":{"city":"Kocaeli","town":"Ä°zmit","province":"Kocaeli","ISO3166-2-lvl4":"TR-41","region":"Marmara BÃ¶lgesi","postcode":"41300","country":"TÃ¼rkiye","country_code":"tr"},"population":2079072,"osm_type":"node","osm_id":11212606075,"type":"city","location":[29.9407361,40.7653892],"bbox":[29.7807361,40.6053892,30.1007361,40.9253892],"border":{"name":"Ä°zmit","other_names":{"name:ar":"Ø¥Ø²Ù…ÙŠØ¯","name:ba":"Ğ˜Ğ·Ğ¼Ğ¸Ñ‚","name:be":"Ğ†Ğ·Ğ¼Ñ–Ñ‚","name:bg":"Ğ˜Ğ·Ğ¼Ğ¸Ñ‚","name:ce":"Ğ˜Ğ·Ğ¼Ğ¸Ñ‚","name:de":"Ä°zmit","name:el":"Î™Î¶Î¼Î¯Ï„","name:en":"Ä°zmit","name:fa":"Ø§Ø²Ù…ÛŒØª","name:he":"××™×–××™×˜","name:hy":"Ô»Õ¦Õ´Õ«Õ©","name:ja":"ã‚¤ã‚ºãƒŸãƒƒãƒˆ","name:ka":"áƒ˜áƒ–áƒ›áƒ˜áƒ—áƒ˜","name:kk":"Ğ˜Ğ·Ğ¼Ğ¸Ñ‚","name:ko":"ì´ì¦ˆë¯¸íŠ¸","name:lt":"Izmitas","name:lv":"Izmita","name:mk":"Ğ˜Ğ·Ğ¼Ğ¸Ñ‚","name:mr":"à¤‡à¤à¥à¤®à¤¿à¤¤","name:os":"Ğ˜Ğ·Ğ¼Ğ¸Ñ‚","name:ru":"Ğ˜Ğ·Ğ¼Ğ¸Ñ‚","name:sr":"Ğ˜Ğ·Ğ¼Ğ¸Ñ‚","name:ta":"à®‡à®šà¯à®®à®¿à®¤à¯","name:tg":"Ğ˜Ğ·Ğ¼Ğ¸Ñ‚","name:tr":"Ä°zmit","name:tt":"Ğ˜Ğ·Ğ¼Ğ¸Ñ‚","name:uk":"Ğ†Ğ·Ğ¼Ñ–Ñ‚","name:ur":"Ø¦Ù‰Ø²Ù…Ù‰Øª","name:zh":"ä¼Šå…¹å¯†ç‰¹","name:la":"Nicomedia","name:ml":"à´‡à´¸àµà´®àµ€à´¤àµà´¤àµ","name:th":"à¸­à¸´à¸‹à¸¡à¸´à¸•","name:grc":"ÎÎ¹ÎºÎ¿Î¼Î®Î´ÎµÎ¹Î±","alt_name:ml":"à´¨à´¿à´•àµà´•àµ‹à´®àµ€à´¡à´¿à´¯"},"display_name":"Ä°zmit, Kocaeli, Marmara BÃ¶lgesi, TÃ¼rkiye","address":{"town":"Ä°zmit","province":"Kocaeli","ISO3166-2-lvl4":"TR-41","region":"Marmara BÃ¶lgesi","country":"TÃ¼rkiye","country_code":"tr"},"population":376056,"osm_type":"relation","osm_id":1211493,"type":"administrative","location":[29.9505623,40.7721138],"bbox":[29.8542049,40.7202713,30.2674976,40.9719328]}}
{"name":"Konya","other_names":{"name:ar":"Ù‚ÙˆÙ†ÙŠØ§","name:bn":"à¦•à§‹à¦¨à¦¿à§Ÿà¦¾","name:de":"Konya","name:el":"Î™ÎºÏŒÎ½Î¹Î¿","name:en":"Konya","name:es":"Konya","name:fa":"Ù‚ÙˆÙ†ÛŒÙ‡","name:fr":"Konya","name:he":"×§×•× ×™×”","name:hi":"à¤•à¥‹à¤¨à¥à¤¯à¤¾","name:hu":"Konya","name:it":"Konya","name:ja":"ã‚³ãƒ³ãƒ¤","name:ko":"ì½”ë‹ˆì•„","name:ku":"Qonye","name:lt":"Konija","name:ml":"à´•àµ‹à´¨àµà´¯","name:nl":"Konya","name:no":"Konya","name:pl":"Konya","name:ru":"ĞšĞ¾Ğ½ÑŒÑ","name:sr":"ĞšĞ¾Ğ½Ğ¸Ñ˜Ğ°","name:sv":"Konya","name:tr":"Konya","name:uk":"ĞšĞ¾Ğ½ÑŒÑ","name:ur":"Ù‚ÙˆÙ†ÛŒÛ","name:zh":"ç§‘å°¼äº","alt_name":"Konyah;Konia","int_name":"Konya","name:ckb":"Ù‚Û†Ù†ÛŒÛ•","name:zza":"Qonya","old_name":"Iconium;Ä°konium"},"display_name":"Konya, SelÃ§uklu, Konya, Ä°Ã§ Anadolu BÃ¶lgesi, 42200, TÃ¼rkiye","address":{"city":"Konya","town":"SelÃ§uklu","province":"Konya","ISO3166-2-lvl4":"TR-42","region":"Ä°Ã§ Anadolu BÃ¶lgesi","postcode":"42200","country":"TÃ¼rkiye","country_code":"tr"},"population":2161303,"osm_type":"node","osm_id":25869814,"type":"city","location":[32.4924376,37.872734],"bbox":[32.3324376,37.712734,32.6524376,38.032734]}
{"name":"KÃ¼tahya","other_names":{"name:ar":"ÙƒÙˆØªØ§Ù‡ÙŠØ©","name:az":"KÃ¼tahya","name:ba":"ĞšÑÑ‚Ğ°Ñ…ÑŒÑ","name:be":"ĞšÑÑ‚Ğ°Ñ…â€™Ñ","name:bg":"ĞšÑÑ‚Ğ°Ñ…Ğ¸Ñ","name:br":"KÃ¼tahya","name:ca":"KÃ¼tahya","name:ce":"ĞšÑƒÑŒÑ‚Ğ°Ñ…Ó€Ğ¸","name:cs":"KÃ¼tahya","name:cv":"ĞšÓ³Ñ‚Ğ°Ñ…ÑŒÑ","name:da":"KÃ¼tahya","name:de":"KÃ¼tahya","name:el":"ÎšÎ¹Î¿Ï…Ï„Î¬Ï‡ÎµÎ¹Î±","name:eo":"KÃ¼tahya","name:es":"KÃ¼tahya","name:et":"KÃ¼tahya","name:fa":"Ú©ÙˆØªØ§Ù‡ÛŒÙ‡","name:fi":"KÃ¼tahya","name:fr":"KÃ¼tahya","name:gl":"KÃ¼tahya","name:hu":"KÃ¼tahya","name:hy":"Õ”ÕµÕ¸Ö‚Õ©Õ¡Õ°ÕµÕ¡","name:it":"KÃ¼tahya","name:ja":"ã‚­ãƒ¥ã‚¿ãƒ’ãƒ¤","name:ka":"áƒ¥áƒ£áƒ—áƒáƒ°áƒ˜áƒ","name:ko":"í€´íƒ€íˆì•„","name:la":"Cotyaeum","name:lt":"Kiutahija","name:lv":"Kitahja","name:mk":"ĞŒÑƒÑ‚Ğ°Ñ…Ğ¸Ñ˜Ğ°","name:ml":"à´•àµ‚à´¤àµà´¤à´¾à´¹àµà´¯","name:ms":"KÃ¼tahya","name:na":"KÃ¼tahya","name:nl":"KÃ¼tahya","name:no":"KÃ¼tahya","name:os":"ĞšÑÑ‚Ğ°Ñ…ÑŒÑ","name:pl":"KÃ¼tahya","name:pt":"KÃ¼tahya","name:ro":"KÃ¼tahya","name:ru":"ĞšÑÑ‚Ğ°Ñ…ÑŒÑ","name:rw":"KÃ¼tahya","name:sq":"Kytahia","name:sr":"ĞšÑƒÑ‚Ğ°Ñ…Ñ˜Ğ°","name:sv":"KÃ¼tahya","name:sw":"KÃ¼tahya","name:tg":"ĞšÑƒÑ‚Ğ¾Ò³Ğ¸Ñ‘","name:tr":"KÃ¼tahya","name:tt":"ĞšÑÑ‚Ğ°Ñ…ÑŒÑ","name:uk":"ĞšÑÑ‚Ğ°Ğ³'Ñ","name:ur":"Ú©ÙˆØªØ§ÛÛŒÛ","name:vi":"KÃ¼tahya","name:zh":"å±ˆå¡”å¸Œäº","name:ast":"KÃ¼tahya","name:ceb":"KÃ¼tahya","name:ckb":"Ú©ÙˆØªØ§Ú¾ÛŒØ§","name:gag":"KÃ¼tahya","name:grc":"ÎšÎ¿Ï„Ï…Î¬ÎµÎ¹Î¿Î½","name:kaa":"KÃ¼tahya","name:min":"KÃ¼tahya","name:udm":"ĞšÑÑ‚Ğ°Ñ…ÑŒÑ","name:vep":"KÃ¼tahj","old_name:uk":"ĞšÑÑ‚Ğ°Ñ…'Ñ"},"display_name":"KÃ¼tahya, KÃ¼tahya Merkez, KÃ¼tahya, Ege BÃ¶lgesi, TÃ¼rkiye","address":{"city":"KÃ¼tahya","province":"KÃ¼tahya","ISO3166-2-lvl4":"TR-43","region":"Ege BÃ¶lgesi","country":"TÃ¼rkiye","country_code":"tr"},"population":573642,"osm_type":"node","osm_id":25869815,"type":"city","location":[29.9857886,39.4199106],"bbox":[29.8257886,39.2599106,30.1457886,39.5799106],"border":{"name":"KÃ¼tahya Merkez","other_names":{"name:ar":"ÙƒÙˆØªØ§Ù‡ÙŠØ©","name:bg":"ĞšÑÑ‚Ğ°Ñ…Ğ¸Ñ","name:ce":"ĞšÑƒÑŒÑ‚Ğ°Ñ…Ó€Ğ¸","name:el":"ÎšÎ¹Î¿Ï…Ï„Î¬Ï‡ÎµÎ¹Î±","name:fa":"Ú©ÙˆØªØ§Ù‡ÛŒÙ‡","name:hu":"KÃ¼tahya","name:hy":"Õ”ÕµÕ¸Ö‚Õ©Õ¡Õ°ÕµÕ¡","name:ja":"ã‚­ãƒ¥ã‚¿ãƒ’ãƒ¤","name:ka":"áƒ¥áƒ£áƒ—áƒáƒ°áƒ˜áƒ","name:ko":"í€´íƒ€íˆì•„","name:la":"Cotyaeum","name:lt":"Kiutahija","name:lv":"Kitahja","name:mk":"ĞŒÑƒÑ‚Ğ°Ñ…Ğ¸Ñ˜Ğ°","name:ml":"à´•àµà´¯àµà´Ÿàµà´Ÿà´¾à´¹àµà´¯","name:ru":"ĞšÑÑ‚Ğ°Ñ…ÑŒÑ","name:sq":"Kytahia","name:sr":"ĞšÑƒÑ‚Ğ°Ñ…Ñ˜Ğ°","name:tg":"ĞšÑƒÑ‚Ğ¾Ò³Ğ¸Ñ‘","name:tr":"KÃ¼tahya Merkez","name:tt":"ĞšÑÑ‚Ğ°Ñ…ÑŒÑ","name:uk":"ĞšÑÑ‚Ğ°Ğ³'Ñ","name:ur":"Ú©ÙˆØªØ§ÛÛŒØ§","name:zh":"å±ˆå¡”å¸Œäº","name:grc":"ÎšÎ¿Ï„Ï…Î¬ÎµÎ¹Î¿Î½","old_name:uk":"ĞšÑÑ‚Ğ°Ñ…'Ñ","name:az":"KÃ¼tahya","name:ba":"ĞšÑÑ‚Ğ°Ñ…ÑŒÑ","name:be":"ĞšÑÑ‚Ğ°Ñ…â€™Ñ","name:br":"KÃ¼tahya","name:ca":"KÃ¼tahya","name:cs":"KÃ¼tahya","name:cv":"ĞšÓ³Ñ‚Ğ°Ñ…ÑŒÑ","name:da":"KÃ¼tahya","name:de":"KÃ¼tahya","name:eo":"KÃ¼tahya","name:es":"KÃ¼tahya","name:et":"KÃ¼tahya","name:fi":"KÃ¼tahya","name:fr":"KÃ¼tahya","name:gl":"KÃ¼tahya","name:it":"KÃ¼tahya","name:ms":"KÃ¼tahya","name:na":"KÃ¼tahya","name:nl":"KÃ¼tahya","name:no":"KÃ¼tahya","name:os":"ĞšÑÑ‚Ğ°Ñ…ÑŒÑ","name:pl":"KÃ¼tahya","name:pt":"KÃ¼tahya","name:ro":"KÃ¼tahya","name:rw":"KÃ¼tahya","name:sv":"KÃ¼tahya","name:sw":"KÃ¼tahya","name:vi":"KÃ¼tahya","name:ast":"KÃ¼tahya","name:ceb":"KÃ¼tahya","name:ckb":"Ú©ÙˆØªØ§Ú¾ÛŒØ§","name:gag":"KÃ¼tahya","name:kaa":"KÃ¼tahya","name:min":"KÃ¼tahya","name:udm":"ĞšÑÑ‚Ğ°Ñ…ÑŒÑ","name:vep":"KÃ¼tahj","alt":"KÃ¼tahya","alt:ml":"à´•àµ‚à´¤àµà´¤à´¾à´¹àµà´¯","alt:tr":"KÃ¼tahya","alt:ur":"Ú©ÙˆØªØ§ÛÛŒÛ"},"display_name":"KÃ¼tahya Merkez, KÃ¼tahya, Ege BÃ¶lgesi, TÃ¼rkiye","address":{"city":"KÃ¼tahya Merkez","province":"KÃ¼tahya","ISO3166-2-lvl4":"TR-43","region":"Ege BÃ¶lgesi","country":"TÃ¼rkiye","country_code":"tr"},"population":573642,"osm_type":"relation","osm_id":1824951,"type":"administrative","location":[29.9857886,39.4199106],"bbox":[29.7225536,39.1169911,30.4645727,39.7115161]}}
{"name":"Malatya","other_names":{"name:ar":"Ù…Ù„Ø·ÙŠØ©","name:be":"ĞœĞ°Ğ»Ğ°Ñ‚â€™Ñ","name:bg":"ĞœĞ°Ğ»Ğ°Ñ‚Ğ¸Ñ","name:ce":"ĞœĞ°Ğ»Ğ°Ñ‚Ğ¸","name:el":"ÎœÎ±Î»Î¬Ï„ÎµÎ¹Î±","name:fa":"Ù…Ù„Ø·ÛŒ","name:he":"××œ×˜×™×”","name:hi":"à¤®à¤²à¤¤à¥à¤¯à¤¾","name:hu":"Malatya","name:hy":"Õ„Õ¡Õ¬Õ¡Õ©Õ«Õ¡","name:ja":"ãƒãƒ©ãƒ†ã‚£ãƒ¤","name:ka":"áƒ›áƒáƒšáƒáƒ—áƒ˜áƒ","name:kk":"ĞœĞ°Ğ»Ğ°Ñ‚Ğ¸Ğ°","name:ko":"ë§ë¼í‹°ì•„","name:ku":"MeletÃ®","name:la":"Melitene","name:lt":"Malatija","name:lv":"Malatja","name:mk":"ĞœĞ°Ğ»Ğ°Ñ‚Ğ¸Ñ˜Ğ°","name:ml":"à´®à´²à´¤àµà´¤àµà´¯","name:nl":"Malatya","name:os":"ĞœĞ°Ğ»Ğ°Ñ‚ÑŒÑ","name:pa":"à¨®à¨²à¨¾à¨¤à¨¿à¨†","name:ps":"Ù…Ø§Ù„Ø§ØªÛŒÙ‡","name:pt":"MalÃ¡tia","name:ru":"ĞœĞ°Ğ»Ğ°Ñ‚ÑŒÑ","name:sk":"Malatya","name:sr":"ĞœĞ°Ğ»Ğ°Ñ‚Ğ¸Ñ˜Ğ°","name:tg":"ĞœĞ°Ğ»Ğ°Ñ‚Ğ¸Ñ","name:tr":"Malatya","name:tt":"ĞœĞ°Ğ»Ğ°Ñ‚ÑŒÑ","name:uk":"ĞœĞ°Ğ»Ğ°Ñ‚ÑŒÑ","name:ur":"Ù…Ø§Ù„Ø§Ø·ÛŒÛ","name:zh":"é¦¬æ‹‰è’‚äº","name:ckb":"Ù…Û•Ù„Û•ØªÛŒ","name:zza":"Meletiye","old_name":"Melitene;Aspuzu","old_name:el":"ÎœÎµÎ»Î¹Ï„Î·Î½Î®"},"display_name":"Malatya, Battalgazi, Malatya, DoÄŸu Anadolu BÃ¶lgesi, 44000, TÃ¼rkiye","address":{"city":"Malatya","town":"Battalgazi","province":"Malatya","ISO3166-2-lvl4":"TR-44","region":"DoÄŸu Anadolu BÃ¶lgesi","postcode":"44000","country":"TÃ¼rkiye","country_code":"tr"},"population":781305,"osm_type":"node","osm_id":26486997,"type":"city","location":[38.3190674,38.3487153],"bbox":[38.1590674,38.1887153,38.4790674,38.5087153]}
{"name":"Manisa","other_names":{"name:ar":"Ù…Ø§Ù†ÙŠØ³Ø§","name:az":"Manisa","name:be":"ĞœĞ°Ğ½Ñ–ÑĞ°","name:bg":"ĞœĞ°Ğ½Ğ¸ÑĞ°","name:br":"Manisa","name:bs":"Manisa","name:ca":"Manisa","name:cs":"Manisa","name:cv":"ĞœĞ°Ğ½Ğ¸ÑĞ°","name:de":"Manisa","name:el":"ÎœÎ±Î½Î¯ÏƒÎ±","name:en":"Manisa","name:eo":"Manisa","name:es":"Manisa","name:et":"Manisa","name:fa":"Ù…Ø§Ù†ÛŒØ³Ø§","name:fi":"Manisan","name:fr":"Manisa","name:gd":"Manisa","name:hi":"à¤®à¤¨à¤¿à¤¸à¤¾","name:hu":"Manisa","name:hy":"Õ„Õ¡Õ¶Õ«Õ½Õ¡","name:id":"Manisa","name:ik":"Manisa","name:it":"Magnesia","name:ja":"ãƒãƒ‹ã‚µ","name:ka":"áƒ›áƒáƒœáƒ˜áƒ¡áƒ","name:ko":"ë§ˆë‹ˆì‚¬","name:la":"Magnesia ad Sipylum","name:lv":"Manisas","name:mk":"ĞœĞ°Ğ½Ğ¸ÑĞ°","name:ml":"à´®à´¾à´¨àµ€à´¸","name:mr":"à¤®à¤¨à¤¿à¤¸à¤¾ à¤ªà¥à¤°à¤¾à¤‚à¤¤","name:ms":"Manisa","name:nl":"Manisa","name:no":"Manisa","name:os":"ĞœĞ°Ğ½Ğ¸ÑĞ°","name:pl":"Manisa","name:pt":"Manisa","name:ro":"Manisa","name:ru":"ĞœĞ°Ğ½Ğ¸ÑĞ°","name:sh":"Manisa","name:sl":"Manisa","name:sr":"ĞœĞ°Ğ½Ğ¸ÑĞ°","name:sv":"Manisa","name:sw":"Manisa","name:tg":"ĞœĞ°Ğ½Ğ¸ÑĞ¾","name:th":"à¸ˆà¸±à¸‡à¸«à¸§à¸±à¸”à¸¡à¸²à¸™à¸µà¸‹à¸²","name:tk":"Manisa","name:tr":"Manisa","name:ug":"Ù…Ø§Ù†Ù‰Ø³Ø§ Û‹Ù‰Ù„Ø§ÙŠÙ‰ØªÙ‰","name:uk":"ĞœĞ°Ğ½Ñ–ÑĞ°","name:ur":"ØµÙˆØ¨Û Ù…Ø§Ù†ÛŒØ³Ø§","name:uz":"Manisa","name:zh":"é©¬å°¼è¨çœ","name:ast":"Manisa","name:bar":"Manisa","name:ceb":"Manisa","name:ckb":"Ù…Ø§Ù†ÛŒØ³Ø§","name:crh":"Manisa","name:grc":"ÎœÎ±Î³Î½Î·ÏƒÎ¯Î± á¼Ï€á½¶ Î£Î¹Ï€ÏÎ»á¿³","name:mrj":"ĞœĞ°Ğ½Ğ¸ÑĞ°","name:sco":"Manisa","name:war":"Manisa","name:zza":"Manisa"},"display_name":"Manisa, Åehzadeler, Manisa, Ege BÃ¶lgesi, 45020, TÃ¼rkiye","address":{"city":"Manisa","county":"Åehzadeler","province":"Manisa","ISO3166-2-lvl4":"TR-45","region":"Ege BÃ¶lgesi","postcode":"45020","country":"TÃ¼rkiye","country_code":"tr"},"population":1475353,"osm_type":"node","osm_id":25869819,"type":"city","location":[27.4333969,38.6125793],"bbox":[27.2733969,38.4525793,27.5933969,38.7725793]}
{"name":"Mardin","other_names":{"name:ar":"Ù…Ø§Ø±Ø¯ÙŠÙ†","name:bg":"ĞœĞ°Ñ€Ğ´Ğ¸Ğ½","name:de":"Mardin","name:el":"ÎœÎ±ÏÎ½Ï„Î¯Î½","name:fa":"Ø§Ø³ØªØ§Ù† Ù…Ø§Ø±Ø¯ÛŒÙ†","name:hi":"à¤®à¤¾à¤°à¥à¤¡à¤¿à¤¨","name:hy":"Õ„Õ¡Ö€Õ¤Õ«Õ¶","name:ku":"MÃªrdÃ®n","name:ml":"à´®à´¾àµ¼à´¦àµ€àµ»","name:ru":"ĞœĞ°Ñ€Ğ´Ğ¸Ğ½","name:sr":"ĞœĞ°Ñ€Ğ´Ğ¸Ğ½","name:tr":"Mardin","name:uk":"ĞœĞ°Ñ€Ğ´Ñ–Ğ½","name:ckb":"Ù…ÛØ±Ø¯ÛŒÙ†","name:zza":"Mardin"},"display_name":"Mardin, Artuklu, Mardin, GÃ¼neydoÄŸu Anadolu BÃ¶lgesi, 47100, TÃ¼rkiye","address":{"city":"Mardin","town":"Artuklu","province":"Mardin","ISO3166-2-lvl4":"TR-47","region":"GÃ¼neydoÄŸu Anadolu BÃ¶lgesi","postcode":"47100","country":"TÃ¼rkiye","country_code":"tr"},"population":133381,"osm_type":"node","osm_id":26487735,"type":"city","location":[40.7354383,37.3132581],"bbox":[40.5754383,37.1532581,40.8954383,37.4732581],"border":{"name":"Artuklu","other_names":{"name:ce":"ĞÑ€Ñ‚ÑƒĞºĞ»Ñƒ","name:de":"Artuklu","name:en":"Artuklu","name:tr":"Artuklu","name:tt":"ĞÑ€Ñ‚ÑƒĞºĞ»Ñƒ","name:sr":"ĞÑ€Ñ‚ÑƒĞºĞ»Ñƒ","old_name":"Mardin"},"display_name":"Artuklu, Mardin, GÃ¼neydoÄŸu Anadolu BÃ¶lgesi, TÃ¼rkiye","address":{"town":"Artuklu","province":"Mardin","ISO3166-2-lvl4":"TR-47","region":"GÃ¼neydoÄŸu Anadolu BÃ¶lgesi","country":"TÃ¼rkiye","country_code":"tr"},"population":186622,"osm_type":"relation","osm_id":1693939,"type":"administrative","location":[40.7251295,37.3209802],"bbox":[40.497026,37.1062084,41.082569,37.565633]}}
{"name":"Mersin","other_names":{"name:ar":"Ù…Ø±Ø³ÙŠÙ†","name:el":"ÎœÎµÏÏƒÎ¯Î½Î±","name:en":"Mersin","name:es":"MersÃ­n","name:fa":"Ù…Ø±Ø³ÛŒÙ†","name:hi":"à¤®à¥‡à¤°à¥à¤¸à¥€à¤¨","name:hu":"Mersin","name:hy":"Õ„Õ¥Ö€Õ½Õ«Õ¶","name:ka":"áƒ›áƒ”áƒ áƒ¡áƒ˜áƒœáƒ˜","name:ku":"MÃªrsÃ®n","name:ml":"à´®àµ†àµ¼à´¸àµ€àµ»","name:ru":"ĞœĞµÑ€ÑĞ¸Ğ½","name:sr":"ĞœĞµÑ€ÑĞ¸Ğ½","name:tr":"Mersin","name:tt":"ĞœÓ™Ñ€ÑĞ¸Ğ½","name:uk":"ĞœĞµÑ€ÑÑ–Ğ½","alt_name":"Ä°Ã§el","name:ckb":"Ù…ÛØ±Ø³ÛŒÙ†","old_name:es":"Cefirio"},"display_name":"Mersin, Akdeniz, Mersin, Akdeniz BÃ¶lgesi, 33060, TÃ¼rkiye","address":{"city":"Mersin","town":"Akdeniz","province":"Mersin","ISO3166-2-lvl4":"TR-33","region":"Akdeniz BÃ¶lgesi","postcode":"33060","country":"TÃ¼rkiye","country_code":"tr"},"population":1773852,"osm_type":"node","osm_id":26481523,"type":"city","location":[34.6298391,36.7978381],"bbox":[34.4698391,36.6378381,34.7898391,36.9578381]}
{"name":"MuÄŸla","other_names":{"name:ar":"Ù…ÙˆØºÙ„Ø§","name:de":"MuÄŸla","name:el":"ÎœÎ¿Ï…Î³Î»Î¬","name:es":"MuÄŸla","name:fr":"MuÄŸla","name:hi":"à¤®à¥à¤¯à¥‚à¤—à¥à¤²à¤¾","name:it":"MuÄŸla","name:ml":"à´®àµ‚à´—àµà´²","name:nl":"MuÄŸla","name:pl":"MuÄŸla","name:pt":"MuÄŸla","name:ru":"ĞœÑƒĞ³Ğ»Ğ°","name:sr":"ĞœÑƒĞ³Ğ»Ğ°","name:sv":"MuÄŸla","name:tr":"MuÄŸla","name:uk":"ĞœÑƒĞ³Ğ»Ğ°","name:ur":"Ù…ÙˆØºÙ„Û","alt_name:ur":"Ù…ÙˆØºÙ„Ø§"},"display_name":"MuÄŸla, MenteÅŸe, MuÄŸla, Ege BÃ¶lgesi, 48050, TÃ¼rkiye","address":{"city":"MuÄŸla","town":"MenteÅŸe","province":"MuÄŸla","ISO3166-2-lvl4":"TR-48","region":"Ege BÃ¶lgesi","postcode":"48050","country":"TÃ¼rkiye","country_code":"tr"},"population":82717,"osm_type":"node","osm_id":25869694,"type":"city","location":[28.363733,37.2151784],"bbox":[28.203733,37.0551784,28.523733,37.3751784]}
{"name":"MuÅŸ","other_names":{"name:ar":"Ù…ÙˆØ´","name:fa":"Ù…ÙˆØ´","name:hi":"à¤®à¥‚à¤¶","name:hy":"Õ„Õ¸Ö‚Õ·","name:ku":"MÃ»ÅŸ","name:ml":"à´®àµ‚à´·àµ","name:ru":"ĞœÑƒÑˆ","name:sr":"ĞœÑƒÑˆ","name:tr":"MuÅŸ","name:uk":"ĞœÑƒÑˆ","name:ckb":"Ù…ÙˆÙˆØ´"},"display_name":"MuÅŸ, MuÅŸ Merkez, MuÅŸ, DoÄŸu Anadolu BÃ¶lgesi, TÃ¼rkiye","address":{"city":"MuÅŸ","province":"MuÅŸ","ISO3166-2-lvl4":"TR-49","region":"DoÄŸu Anadolu BÃ¶lgesi","country":"TÃ¼rkiye","country_code":"tr"},"population":116707,"osm_type":"node","osm_id":26486736,"type":"city","location":[41.4898925,38.7322221],"bbox":[41.3298925,38.5722221,41.6498925,38.8922221],"border":{"name":"MuÅŸ Merkez","other_names":{"name:ar":"Ù…ÙˆØ´","name:bg":"ĞœÑƒÑˆ","name:ce":"ĞœÑƒÑˆ","name:de":"MuÅŸ","name:el":"ÎœÎ¿Ï…Ï‚","name:en":"MuÅŸ","name:fa":"Ù…ÙˆØ´","name:he":"××•×©","name:hy":"Õ„Õ¸Ö‚Õ·","name:ja":"ãƒ ã‚·ãƒ¥","name:ka":"áƒ›áƒ£áƒ¨áƒ˜","name:ko":"ë¬´ìŠˆ","name:ku":"MÃ»ÅŸ","name:ru":"ĞœÑƒÑˆ","name:th":"à¸¡à¸¸à¸Š","name:tr":"MuÅŸ Merkez","name:ur":"Ù…ÙˆØ´","name:zh":"ç©†ä»€","name:hi":"à¤®à¥‚à¤¶","name:ml":"à´®àµ‚à´·àµ","name:sr":"ĞœÑƒÑˆ","name:uk":"ĞœÑƒÑˆ","name:ckb":"Ù…ÙˆÙˆØ´","alt":"MuÅŸ","alt:tr":"MuÅŸ"},"display_name":"MuÅŸ Merkez, MuÅŸ, DoÄŸu Anadolu BÃ¶lgesi, TÃ¼rkiye","address":{"city":"MuÅŸ Merkez","province":"MuÅŸ","ISO3166-2-lvl4":"TR-49","region":"DoÄŸu Anadolu BÃ¶lgesi","country":"TÃ¼rkiye","country_code":"tr"},"population":116707,"osm_type":"relation","osm_id":1831013,"type":"administrative","location":[41.4898925,38.7322221],"bbox":[41.1044966,38.4829853,41.8822888,39.0693914]}}
{"name":"NevÅŸehir","other_names":{"name:ar":"Ù†ÙˆØ´Ù‡Ø±","name:az":"NevÅŸÉ™hÉ™r","name:bg":"ĞĞµĞ²ÑˆĞµÑ…Ğ¸Ñ€","name:de":"NevÅŸehir","name:el":"ÎÎµÎ²ÏƒÎµÏ‡Î¯Ï","name:en":"NevÅŸehir","name:es":"NevÅŸehir","name:fa":"Ù†ÙˆØ´Ù‡Ø±","name:hi":"à¤¨à¤µà¤¶à¤¹à¤°","name:hu":"NevÅŸehir","name:hy":"Õ†Ö‡Õ·Õ¥Õ°Õ«Ö€","name:ja":"ãƒãƒ´ã‚·ã‚§ãƒ’ãƒ«","name:ka":"áƒœáƒ”áƒ•áƒ¨áƒ”áƒ°áƒ˜áƒ áƒ˜","name:ko":"ë„¤ë¸Œì…°íˆë¥´","name:ml":"à´¨àµ†à´µàµà´·àµ†à´¹à´¿àµ¼","name:nl":"NevÅŸehir","name:no":"NevÅŸehir","name:pl":"NevÅŸehir","name:pt":"NevÅŸehir","name:ru":"ĞĞµĞ²ÑˆĞµÑ…Ğ¸Ñ€","name:sr":"ĞĞµĞ²ÑˆĞµÑ…Ğ¸Ñ€","name:sv":"NevÅŸehir","name:tr":"NevÅŸehir","name:uk":"ĞĞµĞ²ÑˆĞµÑ…Ñ–Ñ€","name:ur":"Ù†Ùˆ Ø´ÛØ±","name:zh":"å…§å¤«è¬å¸Œçˆ¾","alt_name":"ÎÎµÎ¬Ï€Î¿Î»Î·","old_name":"Newschehr;MuÅŸkara","alt_name:ml":"à´¨àµ—à´·à´¹àµ¼"},"display_name":"NevÅŸehir, NevÅŸehir Ä°l Merkezi, NevÅŸehir Merkez, NevÅŸehir, Ä°Ã§ Anadolu BÃ¶lgesi, TÃ¼rkiye","address":{"city":"NevÅŸehir","province":"NevÅŸehir","ISO3166-2-lvl4":"TR-50","region":"Ä°Ã§ Anadolu BÃ¶lgesi","country":"TÃ¼rkiye","country_code":"tr"},"population":290895,"osm_type":"node","osm_id":26482523,"type":"city","location":[34.7150685,38.6250389],"bbox":[34.5550685,38.4650389,34.8750685,38.7850389],"border":[{"name":"NevÅŸehir Merkez","other_names":{"name:de":"NevÅŸehir","name:en":"NevÅŸehir","name:ru":"ĞĞµĞ²ÑˆĞµÑ…Ğ¸Ñ€","name:tr":"NevÅŸehir Merkez","name:ar":"Ù†ÙˆØ´Ù‡Ø±","name:az":"NevÅŸÉ™hÉ™r","name:bg":"ĞĞµĞ²ÑˆĞµÑ…Ğ¸Ñ€","name:el":"ÎÎµÎ²ÏƒÎµÏ‡Î¯Ï","name:es":"NevÅŸehir","name:fa":"Ù†ÙˆØ´Ù‡Ø±","name:hi":"à¤¨à¤µà¤¶à¤¹à¤°","name:hu":"NevÅŸehir","name:hy":"Õ†Ö‡Õ·Õ¥Õ°Õ«Ö€","name:ja":"ãƒãƒ´ã‚·ã‚§ãƒ’ãƒ«","name:ka":"áƒœáƒ”áƒ•áƒ¨áƒ”áƒ°áƒ˜áƒ áƒ˜","name:ko":"ë„¤ë¸Œì…°íˆë¥´","name:ml":"à´¨àµ†à´µàµà´·àµ†à´¹à´¿àµ¼","name:nl":"NevÅŸehir","name:no":"NevÅŸehir","name:pl":"NevÅŸehir","name:pt":"NevÅŸehir","name:sr":"ĞĞµĞ²ÑˆĞµÑ…Ğ¸Ñ€","name:sv":"NevÅŸehir","name:uk":"ĞĞµĞ²ÑˆĞµÑ…Ñ–Ñ€","name:ur":"Ù†Ùˆ Ø´ÛØ±","name:zh":"å…§å¤«è¬å¸Œçˆ¾","alt_name":"ÎÎµÎ¬Ï€Î¿Î»Î·","old_name":"Newschehr;MuÅŸkara","alt_name:ml":"à´¨àµ—à´·à´¹àµ¼","alt":"NevÅŸehir","alt:tr":"NevÅŸehir"},"display_name":"NevÅŸehir Merkez, NevÅŸehir, Ä°Ã§ Anadolu BÃ¶lgesi, TÃ¼rkiye","address":{"city":"NevÅŸehir Merkez","province":"NevÅŸehir","ISO3166-2-lvl4":"TR-50","region":"Ä°Ã§ Anadolu BÃ¶lgesi","country":"TÃ¼rkiye","country_code":"tr"},"population":290895,"osm_type":"relation","osm_id":282342,"type":"administrative","location":[34.7150685,38.6250389],"bbox":[34.429213,38.4186088,34.857851,38.7564164]},{"name":"NevÅŸehir Ä°l Merkezi","other_names":{"name:tr":"NevÅŸehir Ä°l Merkezi","alt_name":"NevÅŸehir Merkez","name:ar":"Ù†ÙˆØ´Ù‡Ø±","name:az":"NevÅŸÉ™hÉ™r","name:bg":"ĞĞµĞ²ÑˆĞµÑ…Ğ¸Ñ€","name:de":"NevÅŸehir","name:el":"ÎÎµÎ²ÏƒÎµÏ‡Î¯Ï","name:en":"NevÅŸehir","name:es":"NevÅŸehir","name:fa":"Ù†ÙˆØ´Ù‡Ø±","name:hi":"à¤¨à¤µà¤¶à¤¹à¤°","name:hu":"NevÅŸehir","name:hy":"Õ†Ö‡Õ·Õ¥Õ°Õ«Ö€","name:ja":"ãƒãƒ´ã‚·ã‚§ãƒ’ãƒ«","name:ka":"áƒœáƒ”áƒ•áƒ¨áƒ”áƒ°áƒ˜áƒ áƒ˜","name:ko":"ë„¤ë¸Œì…°íˆë¥´","name:ml":"à´¨àµ†à´µàµà´·àµ†à´¹à´¿àµ¼","name:nl":"NevÅŸehir","name:no":"NevÅŸehir","name:pl":"NevÅŸehir","name:pt":"NevÅŸehir","name:ru":"ĞĞµĞ²ÑˆĞµÑ…Ğ¸Ñ€","name:sr":"ĞĞµĞ²ÑˆĞµÑ…Ğ¸Ñ€","name:sv":"NevÅŸehir","name:uk":"ĞĞµĞ²ÑˆĞµÑ…Ñ–Ñ€","name:ur":"Ù†Ùˆ Ø´ÛØ±","name:zh":"å…§å¤«è¬å¸Œçˆ¾","_place_alt_name":"ÎÎµÎ¬Ï€Î¿Î»Î·","old_name":"Newschehr;MuÅŸkara","alt_name:ml":"à´¨àµ—à´·à´¹àµ¼","alt":"NevÅŸehir","alt:tr":"NevÅŸehir"},"display_name":"NevÅŸehir Ä°l Merkezi, NevÅŸehir Merkez, NevÅŸehir, Ä°Ã§ Anadolu BÃ¶lgesi, TÃ¼rkiye","address":{"city":"NevÅŸehir Ä°l Merkezi","province":"NevÅŸehir","ISO3166-2-lvl4":"TR-50","region":"Ä°Ã§ Anadolu BÃ¶lgesi","country":"TÃ¼rkiye","country_code":"tr"},"population":290895,"osm_type":"relation","osm_id":1774226,"type":"administrative","location":[34.7150685,38.6250389],"bbox":[34.6017891,38.568502,34.7713806,38.6903966]}]}
{"name":"NiÄŸde","other_names":{"name:ar":"Ù†ÙŠØ¯Ø§","name:de":"NiÄŸde","name:el":"ÎÎ¯Î³Î´Î·","name:en":"NiÄŸde","name:es":"NiÄŸde","name:hu":"NiÄŸde","name:hy":"Õ†Õ«Õ£Õ¤Õ¥","name:it":"NiÄŸde","name:ko":"ë‹ˆë°","name:ml":"à´¨àµ€à´—àµà´¦àµ†","name:nl":"NiÄŸde","name:no":"NiÄŸde","name:pl":"NiÄŸde","name:pt":"NiÄŸde","name:ru":"ĞĞ¸Ğ³Ğ´Ğµ","name:sr":"ĞĞ¸Ğ³Ğ´Ğµ","name:tr":"NiÄŸde","name:uk":"ĞÑ–Ğ¹Ğ´Ğµ","old_name":"Naqda;ÎÎ¯Î³Î´Î·Ï‚;Nagida;Naxita"},"display_name":"NiÄŸde, NiÄŸde Merkez, NiÄŸde, Ä°Ã§ Anadolu BÃ¶lgesi, TÃ¼rkiye","address":{"city":"NiÄŸde","province":"NiÄŸde","ISO3166-2-lvl4":"TR-51","region":"Ä°Ã§ Anadolu BÃ¶lgesi","country":"TÃ¼rkiye","country_code":"tr"},"population":351468,"osm_type":"node","osm_id":26482716,"type":"city","location":[34.6764495,37.969849],"bbox":[34.5164495,37.809849,34.8364495,38.129849],"border":{"name":"NiÄŸde Merkez","other_names":{"name:ar":"Ù†ÙŠØ¯Ø§","name:az":"NiÄŸdÉ™","name:bg":"ĞĞ¸Ğ³Ğ´Ğµ","name:de":"NiÄŸde","name:el":"ÎÎ¯Î³Î´Î·","name:en":"NiÄŸde","name:fa":"Ù†ÛŒØºØ¯Ù‡","name:hy":"Õ†Õ«Õ²Õ¤Õ¥","name:ja":"ãƒ‹ãƒ¼ãƒ‡","name:ka":"áƒœáƒ˜áƒ¦áƒ“áƒ”","name:ko":"ë‹ˆë°","name:ru":"ĞĞ¸Ğ³Ğ´Ğµ","name:tr":"NiÄŸde Merkez","name:uk":"ĞÑ–Ğ³Ğ´Ğµ","name:zh":"å°¼ä»£","alt_name":"NiÄŸde","name:es":"NiÄŸde","name:hu":"NiÄŸde","name:it":"NiÄŸde","name:ml":"à´¨àµ€à´—àµà´¦àµ†","name:nl":"NiÄŸde","name:no":"NiÄŸde","name:pl":"NiÄŸde","name:pt":"NiÄŸde","name:sr":"ĞĞ¸Ğ³Ğ´Ğµ","old_name":"Naqda;ÎÎ¯Î³Î´Î·Ï‚;Nagida;Naxita","alt":"NiÄŸde","alt:hy":"Õ†Õ«Õ£Õ¤Õ¥","alt:tr":"NiÄŸde","alt:uk":"ĞÑ–Ğ¹Ğ´Ğµ"},"display_name":"NiÄŸde Merkez, NiÄŸde, Ä°Ã§ Anadolu BÃ¶lgesi, TÃ¼rkiye","address":{"city":"NiÄŸde Merkez","province":"NiÄŸde","ISO3166-2-lvl4":"TR-51","region":"Ä°Ã§ Anadolu BÃ¶lgesi","country":"TÃ¼rkiye","country_code":"tr"},"population":351468,"osm_type":"relation","osm_id":1249730,"type":"administrative","location":[34.6764495,37.969849],"bbox":[34.4207351,37.8562323,35.2369008,38.3902473]}}
{"name":"Ordu","other_names":{"name:ar":"Ø£Ø±Ø¯Ùˆ","name:az":"Ordu","name:be":"ĞÑ€Ğ´Ñƒ","name:bg":"ĞÑ€Ğ´Ñƒ","name:ca":"Ordu","name:ce":"ĞÑ€Ğ´Ñƒ","name:cs":"Ordu","name:de":"Ordu","name:el":"ÎšÎ¿Ï„ÏÏ‰ÏÎ±","name:en":"Ordu","name:eo":"Ordu","name:es":"Ordu","name:fa":"Ø§Ø±Ø¯Ùˆ","name:fi":"Ordu","name:fr":"Ordu","name:hi":"à¤‘à¤°à¥à¤¦à¥","name:hu":"Ordu","name:hy":"Õ•Ö€Õ¤Õ¸Ö‚","name:id":"Ordu","name:it":"Ordu","name:ja":"ã‚ªãƒ«ãƒ‰ã‚¥","name:ka":"áƒáƒ áƒ“áƒ£","name:kk":"ĞÑ€Ğ´Ñƒ","name:ko":"ì˜¤ë¥´ë‘","name:lt":"Ordu","name:ml":"à´’àµ¼à´¦àµ","name:ms":"Ordu","name:na":"Ordu","name:nl":"Ordu","name:nn":"Ordu","name:no":"Ordu","name:os":"ĞÑ€Ğ´Ñƒ","name:pl":"Ordu","name:pt":"Ordu","name:ro":"Ordu","name:ru":"ĞÑ€Ğ´Ñƒ","name:rw":"Ordu","name:sh":"Ordu","name:sq":"Ordu","name:sr":"ĞÑ€Ğ´Ñƒ","name:sw":"Ordu","name:ta":"à®’à®°à¯à®¤à¯","name:tg":"ĞÑ€Ğ´Ñƒ","name:tr":"Ordu","name:uk":"ĞÑ€Ğ´Ñƒ","name:ur":"Ø§ÙˆØ±Ø¯Ùˆ","name:vi":"Ordu","name:zh":"å¥§çˆ¾æœ","name:ast":"Ordu","name:azb":"Ø§ÙˆØ±Ø¯Ùˆ","name:ceb":"Ordu","name:crh":"Ordu","name:diq":"Ordu","name:gag":"Ordu","name:kaa":"Ordu","name:min":"Ordu","name:mrj":"ĞÑ€Ğ´Ñƒ","name:pnb":"Ø§ÙˆØ±ÚˆÙˆ","name:sco":"Ordu","name:udm":"ĞÑ€Ğ´Ñƒ","name:war":"Ordu","name:wuu":"å¥¥å°”æœ","name:simple":"Ordu","name:be-tarask":"ĞÑ€Ğ´Ñƒ"},"display_name":"Ordu, AltÄ±nordu, Ordu, Karadeniz BÃ¶lgesi, 52100, TÃ¼rkiye","address":{"city":"Ordu","town":"AltÄ±nordu","province":"Ordu","ISO3166-2-lvl4":"TR-52","region":"Karadeniz BÃ¶lgesi","postcode":"52100","country":"TÃ¼rkiye","country_code":"tr"},"population":750588,"osm_type":"node","osm_id":26486071,"type":"city","location":[37.8797732,40.9852301],"bbox":[37.7197732,40.8252301,38.0397732,41.1452301]}
{"name":"Osmaniye","other_names":{"name:ar":"Ø¹Ø«Ù…Ø§Ù†ÙŠØ©","name:bn":"à¦“à¦¸à¦®à¦¾à¦¨à¦¿à§Ÿà§‡","name:el":"Î•Ï€Î±ÏÏ‡Î¯Î± ÎŸÏƒÎ¼Î±Î½Î¯Î³Î¹Îµ","name:en":"Osmaniye","name:es":"Osmaniye","name:fa":"Ø¹Ø«Ù…Ø§Ù†ÛŒÙ‡","name:he":"××•×¡×× ×™×”","name:hi":"à¤‰à¤¸à¥à¤®à¤¾à¤¨à¤¿à¤¯à¤¾","name:hu":"Osmaniye","name:hy":"Õ•Õ½Õ´Õ¡Õ¶Õ«Õ¥Õ« Õ´Õ¡Ö€Õ¦","name:ka":"áƒáƒ¡áƒ›áƒáƒœáƒ˜áƒ”","name:ku":"Kinikan","name:ml":"à´‰à´¸àµà´®à´¾à´¨à´¿à´¯àµ†","name:ru":"ĞÑĞ¼Ğ°Ğ½Ğ¸Ğµ","name:sr":"ĞÑĞ¼Ğ°Ğ½Ğ¸Ñ˜Ğµ","name:tr":"Osmaniye","name:tt":"Ğ“Ğ¾ÑĞ¼Ğ°Ğ½Ğ¸Ñ","name:uk":"ĞÑĞ¼Ğ°Ğ½Ñ–Ñ”","name:zh":"å¥§æ–¯æ›¼å°¼è€¶","name:ckb":"Ú©Ù†Ú©Ø§Ù†","old_name":"Cebel-i Bereket"},"display_name":"Osmaniye, Alibeyli Mahallesi, Osmaniye Merkez, Osmaniye, Akdeniz BÃ¶lgesi, 80010, TÃ¼rkiye","address":{"city":"Osmaniye","county":"Osmaniye Merkez","province":"Osmaniye","ISO3166-2-lvl4":"TR-80","region":"Akdeniz BÃ¶lgesi","postcode":"80010","country":"TÃ¼rkiye","country_code":"tr"},"population":522175,"osm_type":"node","osm_id":26481742,"type":"city","location":[36.2507673,37.0733588],"bbox":[36.0907673,36.9133588,36.4107673,37.2333588],"border":{"name":"Osmaniye Merkez","other_names":{"name:ar":"Ø¹Ø«Ù…Ø§Ù†ÙŠØ©","name:az":"OsmaniyÉ™","name:be":"ĞÑĞ¼Ğ°Ğ½Ñ–Ğµ","name:bg":"ĞÑĞ¼Ğ°Ğ½Ğ¸Ğµ","name:ce":"ĞÑĞ¼Ğ°Ğ½Ğ¸Ğ¹Ğµ","name:de":"Osmaniye","name:el":"ÎŸÏƒÎ¼Î±Î½Î¯Î³Î¹Îµ","name:en":"Osmaniye","name:fa":"Ø¹Ø«Ù…Ø§Ù†ÛŒÙ‡","name:he":"××•×¡×× ×™×”","name:hy":"Õ•Õ½Õ´Õ¡Õ¶Õ«Õ¥","name:ja":"ã‚ªã‚¹ãƒãƒ‹ã‚¨","name:ka":"áƒáƒ¡áƒ›áƒáƒœáƒ˜áƒ”","name:kk":"ĞÑĞ¼Ğ°Ğ½Ğ¸Ğµ","name:ko":"ì˜¤ìŠ¤ë§ˆë‹ˆì˜ˆ","name:ku":"Kinikan","name:lt":"OsmanijÄ—","name:ru":"ĞÑĞ¼Ğ°Ğ½Ğ¸Ğµ","name:sr":"ĞÑĞ¼Ğ°Ğ½Ğ¸Ñ˜Ğµ","name:tg":"Ğ£ÑĞ¼Ğ¾Ğ½Ğ¸Ñ","name:tr":"Osmaniye Merkez","name:tt":"ĞÑĞ¼Ğ°Ğ½Ğ¸Ğµ","name:uk":"ĞÑĞ¼Ğ°Ğ½Ñ–Ñ”","name:ur":"Ø¹Ø«Ù…Ø§Ù†ÛŒÛ","name:yi":"××¡××× ×™×¢","name:zh":"å¥§æ–¯æ›¼å°¼è€¶","name:zza":"Usmaniya"},"display_name":"Osmaniye Merkez, Osmaniye, Akdeniz BÃ¶lgesi, TÃ¼rkiye","address":{"county":"Osmaniye Merkez","province":"Osmaniye","ISO3166-2-lvl4":"TR-80","region":"Akdeniz BÃ¶lgesi","country":"TÃ¼rkiye","country_code":"tr"},"osm_type":"relation","osm_id":1248433,"type":"administrative","location":[36.290346929808265,37.0924619],"bbox":[36.03544,36.9297265,36.5016353,37.2548774]}}
{"name":"Rize","other_names":{"ref":"53","name:el":"Î•Ï€Î±ÏÏ‡Î¯Î± Î¡Î¹Î¶Î¿ÏÎ½Ï„Î±Ï‚","name:en":"Rize","name:fa":"Ø±ÛŒØ²Ù‡","name:hy":"ÕŒÕ«Õ¦Õ¥Õ« Õ´Õ¡Ö€Õ¦","name:ka":"áƒ áƒ˜áƒ–áƒ”","name:ml":"à´±àµ€à´¸àµ†","name:ru":"Ğ Ğ¸Ğ·Ğµ","name:sr":"Ğ Ğ¸Ğ·Ğµ","name:tr":"Rize","name:uk":"Ğ Ñ–Ğ·Ğµ","name:lzz":"áƒ áƒ˜áƒ–áƒ˜áƒœáƒ˜","name:ota":"Ø±ÙŠØ²Ù‡"},"display_name":"Rize, Rize Merkez, Rize, Karadeniz BÃ¶lgesi, 53020, TÃ¼rkiye","address":{"city":"Rize","county":"Rize Merkez","province":"Rize","ISO3166-2-lvl4":"TR-53","region":"Karadeniz BÃ¶lgesi","postcode":"53020","country":"TÃ¼rkiye","country_code":"tr"},"population":119828,"osm_type":"node","osm_id":26486097,"type":"city","location":[40.5199142,41.0248249],"bbox":[40.3599142,40.8648249,40.6799142,41.1848249],"border":{"name":"Rize Merkez","other_names":{"name:ar":"Ø±ÙŠØ²Ø§","name:az":"RizÉ™","name:bg":"Ğ Ğ¸Ğ·Ğµ","name:ce":"Ğ Ğ¸Ğ·Ğµ","name:de":"Rize","name:el":"Î¡Î¯Î¶Îµ","name:en":"Rize","name:fa":"Ø±ÛŒØ²Ù‡","name:hy":"ÕŒÕ«Õ¦Õ¥","name:ja":"ãƒªã‚¼","name:ka":"áƒ áƒ˜áƒ–áƒ”","name:ko":"ë¦¬ì œ","name:lt":"RizÄ—","name:os":"Ğ Ğ¸Ğ·Ğµ","name:ru":"Ğ Ğ¸Ğ·Ğµ","name:sr":"Ğ Ğ¸Ğ·Ğµ","name:tg":"Ğ Ğ¸Ğ·Ğµ","name:tr":"Rize Merkez","name:tt":"Ğ Ğ¸Ğ·Ğµ","name:uk":"Ğ Ñ–Ğ·Ğµ","name:ur":"Ø±ÛŒØ²Û","name:zh":"é‡Œæ¾¤","alt_name":"Rize"},"display_name":"Rize Merkez, Rize, Karadeniz BÃ¶lgesi, TÃ¼rkiye","address":{"county":"Rize Merkez","province":"Rize","ISO3166-2-lvl4":"TR-53","region":"Karadeniz BÃ¶lgesi","country":"TÃ¼rkiye","country_code":"tr"},"population":150414,"osm_type":"relation","osm_id":1838682,"type":"administrative","location":[40.53242736954586,40.9498436],"bbox":[40.3994095,40.8287548,40.6979198,41.0709255]}}
{"name":"Sakarya","other_names":{"name:el":"Î£Î±ÎºÎ¬ÏÎ¹Î±","name:ml":"à´¸à´•àµà´•à´±à´¿à´¯","name:sr":"Ğ¡Ğ°ĞºĞ°Ñ€Ğ¸Ñ˜Ğ°","name:tr":"Sakarya","name:uk":"Ğ¡Ğ°ĞºĞ°Ñ€'Ñ"},"display_name":"Sakarya, AdapazarÄ±, Sakarya, Marmara BÃ¶lgesi, 54000, TÃ¼rkiye","address":{"city":"Sakarya","town":"AdapazarÄ±","province":"Sakarya","ISO3166-2-lvl4":"TR-54","region":"Marmara BÃ¶lgesi","postcode":"54000","country":"TÃ¼rkiye","country_code":"tr"},"population":1094481,"osm_type":"node","osm_id":11212641962,"type":"city","location":[30.4038575,40.7726291],"bbox":[30.2438575,40.6126291,30.5638575,40.9326291],"border":{"name":"AdapazarÄ±","other_names":{"name:ab":"ĞĞ´Ğ°Ô¥Ğ°Ğ·Ğ°Ñ€Ñ‹","name:ar":"Ø¢Ø¯Ø§Ø¨Ø§Ø²Ø§Ø±ÙŠ","name:av":"ĞĞ´Ğ°Ğ¿Ğ°Ğ·Ğ°Ñ€Ğ¸","name:be":"ĞĞ´Ğ°Ğ¿Ğ°Ğ·Ğ°Ñ€Ñ‹","name:bg":"ĞĞ´Ğ°Ğ¿Ğ°Ğ·Ğ°Ñ€ÑŠ","name:br":"AdapazarÄ±","name:ca":"AdapazarÄ±","name:ce":"ĞĞ´Ğ°Ğ¿Ğ°Ğ·Ğ°Ñ€Ğ¸","name:cs":"Sakarya","name:da":"AdapazarÄ±","name:de":"AdapazarÄ±","name:el":"Î‘Î½Ï„Î±Ï€Î±Î¶Î±ÏÎ¯","name:en":"AdapazarÄ±","name:eo":"AdapazarÄ±","name:es":"AdapazarÄ±","name:et":"AdapazarÄ±","name:fa":"Ø¢Ø¯Ø§Ù¾Ø§Ø²Ø§Ø±ÛŒ","name:fi":"AdapazarÄ±","name:fr":"AdapazarÄ±","name:hu":"AdapazarÄ±","name:hy":"Ô±Õ¤Õ¡ÖƒÕ¡Õ¦Õ¡Ö€","name:id":"AdapazarÄ±","name:it":"AdapazarÄ±","name:ja":"ã‚¢ãƒ€ãƒ‘ã‚¶ãƒ«","name:ka":"áƒáƒ“áƒáƒ¤áƒáƒ–áƒáƒ áƒ˜","name:ko":"ì•„ë‹¤íŒŒìë¦¬","name:la":"Tarsia","name:lt":"Adapazaris","name:lv":"Adapazari","name:mk":"ĞĞ´Ğ°Ğ¿Ğ°Ğ·Ğ°Ñ€","name:ms":"AdapazarÄ±","name:nl":"AdapazarÄ±","name:no":"AdapazarÄ±","name:os":"ĞĞ´Ğ°Ğ¿Ğ°Ğ·Ğ°Ñ€Ñ‹","name:pl":"AdapazarÄ±","name:ps":"Ø¢Ø¯Ø§Ù¾Ø§Ø²Ø§Ø±ÙŠ","name:pt":"AdapazarÄ±","name:rn":"AdapazarÄ±","name:ro":"AdapazarÄ±","name:ru":"ĞĞ´Ğ°Ğ¿Ğ°Ğ·Ğ°Ñ€Ñ‹","name:rw":"AdapazarÄ±","name:sh":"AdapazarÄ±","name:sk":"AdapazarÄ±","name:sr":"ĞĞ´Ğ°Ğ¿Ğ°Ğ·Ğ°Ñ€Ğ¸","name:sv":"AdapazarÄ±","name:sw":"AdapazarÄ±","name:tg":"ĞĞ´Ğ°Ğ¿Ğ°Ğ·Ğ°Ñ€Ğ¸","name:tr":"AdapazarÄ±","name:tt":"ĞĞ´Ğ°Ğ¿Ğ°Ğ·Ğ°Ñ€Ñ‹","name:uk":"ĞĞ´Ğ°Ğ¿Ğ°Ğ·Ğ°Ñ€Ğ¸","name:ur":"Ø¢Ø¯Ø§Ø¨Ø§Ø²Ø§Ø±ÛŒ","name:uz":"Adapazari","name:vi":"Adapazari","name:zh":"é˜¿è¾¾å¸•æ‰å‹’","name:arz":"Ø¢Ø¯Ø§Ø¨Ø§Ø²Ø§Ø±Ù‰","name:cab":"AdapazarÄ±","name:ckb":"Ø¦Ø§Ø¯Ø§Ù¾Ø§Ø²Ø§Ø±ÛŒ","name:gag":"Sakarya","name:hyw":"Ô±Õ¿Õ¡ÖƒÕ¡Õ¦Õ¡Ö€","name:min":"AdapazarÄ±","name:mrj":"ĞĞ´Ğ°Ğ¿Ğ°Ğ·Ğ°Ñ€Ñ‹","name:pnb":"Ø¶Ù„Ø¹ Ø§Ø¯Ø§Ù¾Ø§Ø²Ø§Ø±ÛŒ","name:udm":"ĞĞ´Ğ°Ğ¿Ğ°Ğ·Ğ°Ñ€Ñ‹","name:war":"Adapazari","name:wuu":"é˜¿è¾¾å¸•æ‰å‹’","name:ml":"à´…à´Ÿà´ªàµà´ªà´¾à´¸à´¾à´°à´¿","alt:cs":"AdapazarÄ±","alt:mk":"ĞĞ´Ğ°Ğ¿Ğ°Ğ·Ğ°Ñ€Ğ¸","alt:gag":"AdapazarÄ±"},"display_name":"AdapazarÄ±, Sakarya, Marmara BÃ¶lgesi, TÃ¼rkiye","address":{"town":"AdapazarÄ±","province":"Sakarya","ISO3166-2-lvl4":"TR-54","region":"Marmara BÃ¶lgesi","country":"TÃ¼rkiye","country_code":"tr"},"population":280214,"osm_type":"relation","osm_id":1252526,"type":"administrative","location":[30.4020898,40.7755188],"bbox":[30.2331841,40.7348787,30.5745839,40.9534637]}}
{"name":"Samsun","other_names":{"name:ar":"Ø³Ø§Ù…Ø³ÙˆÙ†","name:az":"Samsun","name:be":"Ğ¡Ğ°Ğ¼ÑÑƒĞ½","name:bg":"Ğ¡Ğ°Ğ¼ÑÑƒĞ½","name:br":"Samsun","name:bs":"Samsun","name:ca":"Samsun","name:ce":"Ğ¡Ğ°Ğ¼ÑÑƒĞ½","name:cs":"Samsun","name:da":"Samsun","name:de":"Samsun","name:el":"Î£Î±Î¼ÏˆÎ¿ÏÎ½Ï„Î±","name:en":"Samsun","name:eo":"Samsun","name:es":"Samsun","name:et":"Samsun","name:eu":"Samsun","name:fa":"ØµØ§Ù…Ø³ÙˆÙ†","name:fi":"Samsun","name:fr":"Samsun","name:gl":"Samsun","name:he":"×¡××¡×•×Ÿ","name:hi":"à¤¸à¥ˆà¤®à¤¸à¥‚à¤¨","name:hr":"Samsun","name:hu":"Samsun","name:hy":"ÕÕ¡Õ´Õ½Õ¸Ö‚Õ¶","name:id":"Samsun","name:it":"Samsun","name:ja":"ã‚µãƒ ã‚¹ãƒ³","name:ka":"áƒ¡áƒáƒ›áƒ¡áƒ£áƒœáƒ˜","name:kk":"Ğ¡Ğ°Ğ¼ÑÑƒĞ½","name:ko":"ì‚¼ìˆœ","name:lt":"Samsunas","name:lv":"Samsuna","name:mk":"Ğ¡Ğ°Ğ¼ÑÑƒĞ½","name:ml":"à´¸à´¾à´‚à´¸àµ‚àµº","name:ms":"Samsun","name:na":"Samsun","name:nl":"Samsun","name:nn":"Samsun","name:no":"Samsun","name:os":"Ğ¡Ğ°Ğ¼ÑÑƒĞ½","name:pa":"à¨¸à©ˆà¨®à¨¸à¨¨","name:pl":"Samsun","name:ps":"Ø³Ø§Ù…Ø³ÙˆÙ†","name:pt":"Samsun","name:ro":"Samsun","name:ru":"Ğ¡Ğ°Ğ¼ÑÑƒĞ½","name:rw":"Samsun","name:sh":"Samsun","name:so":"Samsun","name:sr":"Ğ¡Ğ°Ğ¼ÑÑƒĞ½","name:sv":"Samsun","name:sw":"Samsun","name:tg":"Ğ¡Ğ°Ğ¼ÑÑƒĞ½","name:th":"à¸‹à¸±à¸¡à¸‹à¸¸à¸™","name:tr":"Samsun","name:tt":"Ğ¡Ğ°Ğ¼ÑÑƒĞ½","name:tw":"Samsun","name:uk":"Ğ¡Ğ°Ğ¼ÑÑƒĞ½","name:ur":"ØµØ§Ù…Ø³ÙˆÙ†","name:uz":"Samsun","name:vi":"Samsun","name:zh":"è–©å§†æ¾","name:arz":"Ø³Ø§Ù…Ø³ÙˆÙ†","name:ast":"Samsun","name:azb":"Ø³Ø§Ù…Ø³ÙˆÙ†","name:ceb":"Samsun","name:ckb":"Ø³Ø§Ù…Ø³ÙˆÙ†","name:diq":"Samsun","name:frr":"Samsun","name:gag":"Samsun","name:grc":"á¼ˆÎ¼Î¹ÏƒÏŒÏ‚","name:min":"Samsun","name:mrj":"Ğ¡Ğ°Ğ¼ÑÑƒĞ½","name:ota":"ØµØ§Ù…Ø³ÙˆÙ†","name:pnb":"Ø³ÛŒÙ…Ø³Ù†","name:udm":"Ğ¡Ğ°Ğ¼ÑÑƒĞ½","name:war":"Samsun","name:wuu":"è¨å§†æ¾","name:xmf":"áƒ¡áƒáƒ›áƒ¡áƒ£áƒœáƒ˜ (áƒœáƒáƒ¦áƒ)","name:yue":"æ£®æ¾","alt_name:ar":"ØµØ§Ù…Ø³ÙˆÙ†","alt_name:ur":"Ø³Ø§Ù…Ø³ÙˆÙ†","name:simple":"Samsun","old_name:de":"Amisos","old_name:es":"AmisÃ³s","old_name:fr":"Amisos","alt_name:azb":"ØµØ§Ù…Ø³ÙˆÙ†","alt_name:grc":"Î£Î±Î¼ÏˆÎ¿ÏÎ½Ï„Î±","old_name:grc":"Î•á¼°Ï‚ á¼ˆÎ¼Î¹ÏƒÏŒÎ½","name:be-tarask":"Ğ¡Ğ°Ğ¼ÑÑƒĞ½"},"display_name":"Samsun, Ä°lkadÄ±m, Samsun, Karadeniz BÃ¶lgesi, 55030, TÃ¼rkiye","address":{"city":"Samsun","town":"Ä°lkadÄ±m","province":"Samsun","ISO3166-2-lvl4":"TR-55","region":"Karadeniz BÃ¶lgesi","postcode":"55030","country":"TÃ¼rkiye","country_code":"tr"},"population":1295927,"osm_type":"node","osm_id":26486105,"type":"city","location":[36.3320596,41.2946149],"bbox":[36.1720596,41.1346149,36.4920596,41.4546149]}
{"name":"ÅanlÄ±urfa","other_names":{"name:ar":"Ø£ÙˆØ±ÙØ©","name:av":"Ğ£Ñ€Ñ„Ğ°","name:ba":"Ğ¨Ğ°Ğ½Ğ»Ñ‹ÑƒÑ€Ñ„Ğ°","name:be":"Ğ¨Ğ°Ğ½Ğ»Ñ‹ÑÑ€Ñ„Ğ°","name:bg":"Ğ¨Ğ°Ğ½Ğ»ÑŠÑƒÑ€Ñ„Ğ°","name:bn":"à¦‰à¦°à¦«à¦¾","name:ce":"Ğ¨Ğ°Ğ½Ğ»Ğ¸ÑƒÑ€Ñ„Ğ°","name:de":"ÅanlÄ±urfa","name:el":"Î£Î±Î½Î»Î¹Î¿ÏÏÏ†Î±","name:en":"ÅanlÄ±urfa","name:es":"Sanliurfa","name:eu":"Urfa","name:fa":"Ø´Ø§Ù†Ù„ÛŒâ€ŒØ§ÙˆØ±ÙÙ‡","name:fr":"ÅanlÄ±urfa","name:he":"××•×¨×¤×”","name:hi":"à¤¶à¤¾à¤¨à¤²à¤¿à¤‰à¤°à¥à¤«à¤¾","name:hu":"ÅanlÄ±urfa","name:hy":"ÔµÕ¤Õ¥Õ½Õ«Õ¡","name:id":"Sanli Urfa","name:ja":"ã‚·ãƒ£ãƒ³ãƒ«ã‚¦ãƒ«ãƒ•ã‚¡","name:jv":"Urfa","name:ka":"áƒ¨áƒáƒœáƒšáƒ˜áƒ£áƒ áƒ¤áƒ","name:kk":"Ğ¨Ğ°Ğ½Ğ»Ñ‹ÑƒÑ€Ñ„Ğ°","name:ko":"ìƒ¨ë¥´ìš°ë¥´íŒŒ","name:ku":"Riha","name:la":"Edessa","name:lt":"Urfa","name:lv":"Å anliurfa","name:ml":"à´·à´¾àµ»à´²à´¿à´¯àµ‚àµ¼à´«","name:nl":"ÅanlÄ±urfa","name:os":"Ğ¨Ğ°Ğ½Ğ»Ñ‹ÑƒÑ€Ñ„Ã¦","name:ps":"Ø´Ø§Ù†Ù„ÙŠ Ø§ÙˆØ±ÙØ§","name:pt":"Xanleurfa","name:ru":"Ğ¨Ğ°Ğ½Ğ»Ñ‹ÑƒÑ€Ñ„Ğ°","name:sq":"ShanllÃ«urfa","name:sr":"Ğ¨Ğ°Ğ½Ğ»Ğ¸Ñ˜ÑƒÑ€Ñ„Ğ°","name:tg":"Ğ¨Ğ°Ğ½Ğ»Ğ¸ÑƒÑ€Ñ„Ğ°","name:th":"à¸Šà¸±à¸™à¸¥à¸·à¸­à¸­à¸¹à¸£à¹Œà¸Ÿà¸²","name:tr":"ÅanlÄ±urfa","name:tt":"Ğ¨Ğ°Ğ½Ğ»Ñ‹ÑƒÑ€Ñ„Ğ°","name:uk":"Ğ¨Ğ°Ğ½Ğ»Ğ¸ÑƒÑ€Ñ„Ğ°","name:ur":"Ø´Ø§Ù†Ù„ÛŒ Ø§ÙˆØ±ÙÛ","name:uz":"Shanliurfa","name:vi":"Urfa","name:zh":"å°šå‹’çƒçˆ¾æ³•","alt_name":"Urfa;Edessa","name:azb":"Ø´Ø§Ù†Ù„ÛŒâ€ŒØ§ÙˆØ±ÙØ§","name:ckb":"Ú•Ø­Ø§","name:grc":"á¼œÎ´ÎµÏƒÏƒÎ±","name:zza":"RÄ±ha","alt_name:ml":"à´Šàµ¼à´«"},"display_name":"ÅanlÄ±urfa, Haliliye, ÅanlÄ±urfa, GÃ¼neydoÄŸu Anadolu BÃ¶lgesi, 63100, TÃ¼rkiye","address":{"city":"ÅanlÄ±urfa","town":"Haliliye","province":"ÅanlÄ±urfa","ISO3166-2-lvl4":"TR-63","region":"GÃ¼neydoÄŸu Anadolu BÃ¶lgesi","postcode":"63100","country":"TÃ¼rkiye","country_code":"tr"},"population":2143020,"osm_type":"node","osm_id":26487743,"type":"city","location":[38.791929,37.1596239],"bbox":[38.631929,36.9996239,38.951929,37.3196239]}
{"name":"Siirt","other_names":{"name:ar":"Ø³Ø¹Ø±Ø¯","name:bg":"Ğ¡Ğ¸Ğ¸Ñ€Ñ‚","name:el":"Î£ÏÏÏ„Î·","name:fa":"Ø³Ø¹Ø±Ø¯","name:hy":"ÕÕ²Õ¥Ö€Õ¤","name:ja":"ã‚¹ã‚£ã‚¤ãƒ«ãƒˆ","name:ka":"áƒ¡áƒ˜áƒ˜áƒ áƒ—áƒ˜","name:ko":"ì‹œì´ë¥´íŠ¸","name:ku":"SÃªrt","name:ml":"à´¸àµ€àµ¼à´¤àµà´¤àµ","name:ru":"Ğ¡Ğ¸Ğ¸Ñ€Ñ‚","name:sr":"Ğ¡Ğ¸Ñ€Ñ‚","name:uk":"Ğ¡Ñ–Ñ—Ñ€Ñ‚","name:ur":"Ø³Ø¹Ø±Ø¯","name:zh":"éŒ«çˆ¾ç‰¹","name:ckb":"Ø³ÛØ±Øª","name:zza":"SÃªrt","alt_name:ml":"à´¸àµ€àµ¼à´¦àµ"},"display_name":"Siirt, Siirt Merkez, Siirt, GÃ¼neydoÄŸu Anadolu BÃ¶lgesi, TÃ¼rkiye","address":{"city":"Siirt","province":"Siirt","ISO3166-2-lvl4":"TR-56","region":"GÃ¼neydoÄŸu Anadolu BÃ¶lgesi","country":"TÃ¼rkiye","country_code":"tr"},"population":331980,"osm_type":"node","osm_id":26487823,"type":"city","location":[41.94218,37.9273623],"bbox":[41.78218,37.7673623,42.10218,38.0873623],"border":{"name":"Siirt Merkez","other_names":{"name:ar":"Ø³Ø¹Ø±Ø¯","name:bg":"Ğ¡Ğ¸Ğ¸Ñ€Ñ‚","name:ce":"Ğ¡Ğ¸Ğ¸Ñ€Ñ‚","name:de":"Siirt","name:el":"Î£ÏÏÏ„Î·","name:en":"Siirt","name:fa":"Ø³Ø¹Ø±Ø¯","name:hy":"ÕÕ²Õ¥Ö€Õ¤","name:ja":"ã‚¹ã‚£ã‚¤ãƒ«ãƒˆ","name:ka":"áƒ¡áƒ˜áƒ˜áƒ áƒ—áƒ˜","name:ko":"ì‹œì´ë¥´íŠ¸","name:ku":"SÃªrt","name:ru":"Ğ¡Ğ¸Ğ¸Ñ€Ñ‚","name:sr":"Ğ¡Ğ¸Ñ€Ñ‚","name:tr":"Siirt","name:uk":"Ğ¡Ñ–Ñ—Ñ€Ñ‚","name:ur":"Ø³Ø¹Ø±Ø¯","name:zh":"éŒ«çˆ¾ç‰¹","name:zza":"SÃªrt","name:ml":"à´¸àµ€àµ¼à´¤àµà´¤àµ","name:ckb":"Ø³ÛØ±Øª","alt_name:ml":"à´¸àµ€àµ¼à´¦àµ","alt":"Siirt"},"display_name":"Siirt Merkez, Siirt, GÃ¼neydoÄŸu Anadolu BÃ¶lgesi, 56100, TÃ¼rkiye","address":{"city":"Siirt Merkez","province":"Siirt","ISO3166-2-lvl4":"TR-56","region":"GÃ¼neydoÄŸu Anadolu BÃ¶lgesi","postcode":"56100","country":"TÃ¼rkiye","country_code":"tr"},"population":331980,"osm_type":"relation","osm_id":1246473,"type":"administrative","location":[41.94218,37.9273623],"bbox":[41.7726461,37.6870143,42.1506784,38.0517644]}}
{"name":"Sinop","other_names":{"name:ar":"Ø³ÙŠÙ†ÙˆØ¨","name:be":"Ğ¡Ñ–Ğ½Ğ¾Ğ¿","name:bg":"Ğ¡Ğ¸Ğ½Ğ¾Ğ¿","name:bo":"à½¦à½²à¼‹à½“à½¼à¼‹à½”à½ºà¼","name:ca":"Sinope","name:ce":"Ğ¡Ğ¸Ğ½Ğ¾Ğ¿","name:de":"Sinope","name:el":"Î£Î¹Î½ÏÏ€Î·","name:en":"Sinop","name:es":"Sinope","name:fa":"Ø³ÛŒÙ†ÙˆØ¨","name:gl":"Sinope","name:he":"×¡×™× ×•×¤","name:hi":"à¤¸à¤¾à¤‡à¤¨à¥‰à¤ª","name:hy":"ÕÕ«Õ¶Õ¸Õº","name:it":"Sinope","name:ja":"ã‚¹ã‚£ãƒãƒ—","name:ka":"áƒ¡áƒ˜áƒœáƒáƒáƒ˜","name:ko":"ì‹œë…¸í”„","name:ku":"SÃ®nob","name:la":"Sinope","name:ml":"à´¸àµˆà´¨àµ‹à´ªàµà´ªàµ","name:os":"Ğ¡Ğ¸Ğ½Ğ¾Ğ¿","name:pl":"Synopa","name:pt":"Sinope","name:ru":"Ğ¡Ğ¸Ğ½Ğ¾Ğ¿","name:sr":"Ğ¡Ğ¸Ğ½Ğ¾Ğ¿","name:tg":"Ğ¡Ğ¸Ğ½Ğ¾Ğ¿","name:tt":"Ğ¡Ğ¸Ğ½Ğ¾Ğ¿","name:uk":"Ğ¡Ñ–Ğ½Ğ¾Ğ¿","name:ur":"Ø³ÛŒÙ†ÙˆÙ¾","name:zh":"é”¡è¯ºæ™®","name:pnt":"Î£Î¹Î½ÏÏ€Î·"},"display_name":"Sinop, Sinop Merkez, Sinop, Karadeniz BÃ¶lgesi, TÃ¼rkiye","address":{"city":"Sinop","province":"Sinop","ISO3166-2-lvl4":"TR-57","region":"Karadeniz BÃ¶lgesi","country":"TÃ¼rkiye","country_code":"tr"},"population":56479,"osm_type":"node","osm_id":26486164,"type":"city","location":[35.1511512,42.0265798],"bbox":[34.9911512,41.8665798,35.3111512,42.1865798],"border":{"name":"Sinop Merkez","other_names":{"name:ar":"Ø³ÙŠÙ†ÙˆØ¨","name:be":"Ğ¡Ñ–Ğ½Ğ¾Ğ¿","name:bg":"Ğ¡Ğ¸Ğ½Ğ¾Ğ¿","name:bo":"à½¦à½²à¼‹à½“à½¼à¼‹à½”à½ºà¼","name:ca":"Sinope","name:ce":"Ğ¡Ğ¸Ğ½Ğ¾Ğ¿","name:de":"Sinop","name:el":"Î£Î¹Î½ÏÏ€Î·","name:en":"Sinop","name:es":"Sinope","name:fa":"Ø³ÛŒÙ†ÙˆØ¨","name:gl":"Sinope","name:he":"×¡×™× ×•×¤","name:hy":"ÕÕ«Õ¶Õ¸Õº","name:it":"Sinope","name:ja":"ã‚¹ã‚£ãƒãƒ—","name:ka":"áƒ¡áƒ˜áƒœáƒáƒáƒ˜","name:ko":"ì‹œë…¸í”„","name:ku":"SÃ®nob","name:la":"Sinope","name:os":"Ğ¡Ğ¸Ğ½Ğ¾Ğ¿","name:pl":"Synopa","name:pt":"Sinope","name:ru":"Ğ¡Ğ¸Ğ½Ğ¾Ğ¿","name:sr":"Ğ¡Ğ¸Ğ½Ğ¾Ğ¿","name:tg":"Ğ¡Ğ¸Ğ½Ğ¾Ğ¿","name:tr":"Sinop Merkez","name:tt":"Ğ¡Ğ¸Ğ½Ğ¾Ğ¿","name:uk":"Ğ¡Ñ–Ğ½Ğ¾Ğ¿","name:ur":"Ø³ÛŒÙ†ÙˆÙ¾","name:zh":"é”¡è¯ºæ™®","name:pnt":"Î£Î¹Î½ÏÏ€Î·","name:hi":"à¤¸à¤¾à¤‡à¤¨à¥‰à¤ª","name:ml":"à´¸àµˆà´¨àµ‹à´ªàµà´ªàµ","alt":"Sinop","alt:de":"Sinope"},"display_name":"Sinop Merkez, Sinop, Karadeniz BÃ¶lgesi, 57002, TÃ¼rkiye","address":{"city":"Sinop Merkez","province":"Sinop","ISO3166-2-lvl4":"TR-57","region":"Karadeniz BÃ¶lgesi","postcode":"57002","country":"TÃ¼rkiye","country_code":"tr"},"population":68012,"osm_type":"relation","osm_id":1428703,"type":"administrative","location":[35.1511512,42.0265798],"bbox":[34.810107,41.6638385,35.2113694,42.0980451]}}
{"name":"Sivas","other_names":{"name:ar":"Ø³ÙŠÙˆØ§Ø³","name:el":"Î£ÎµÎ²Î¬ÏƒÏ„ÎµÎ¹Î±","name:hi":"à¤¸à¤¿à¤µà¤¾à¤¸","name:hu":"Sivas","name:hy":"ÕÕ¥Õ¢Õ¡Õ½Õ¿Õ«Õ¡","name:ku":"SÃªwas","name:ml":"à´¸à´¿à´µà´¾à´¸àµ","name:ru":"Ğ¡Ğ¸Ğ²Ğ°Ñ","name:sr":"Ğ¡Ğ¸Ğ²Ğ°Ñ","name:uk":"Ğ¡Ñ–Ğ²Ğ°Ñ","name:ckb":"Ø³ÛÙˆØ§Ø³"},"display_name":"Sivas, Sivas Belediyesi, Sivas Merkez, Sivas, Ä°Ã§ Anadolu BÃ¶lgesi, TÃ¼rkiye","address":{"city":"Sivas","province":"Sivas","ISO3166-2-lvl4":"TR-58","region":"Ä°Ã§ Anadolu BÃ¶lgesi","country":"TÃ¼rkiye","country_code":"tr"},"population":621224,"osm_type":"node","osm_id":26482940,"type":"city","location":[37.0145173,39.7503574],"bbox":[36.8545173,39.5903574,37.1745173,39.9103574],"border":[{"name":"Sivas Merkez","other_names":{"name:de":"Sivas","name:el":"Î£ÎµÎ²Î¬ÏƒÏ„ÎµÎ¹Î±","name:en":"Sivas","name:fa":"Ø³ÛŒÙˆØ§Ø³","name:he":"×¡×™×•×•×¡","name:hy":"ÕÕ¥Õ¢Õ¡Õ½Õ¿Õ«Õ¡","name:ka":"áƒ¡áƒ˜áƒ•áƒáƒ¡áƒ˜","name:ku":"SÃªwas","name:tr":"Sivas Merkez","name:uk":"Ğ¡Ñ–Ğ²Ğ°Ñ","name:zh":"éŒ«ç“¦æ–¯","alt_name":"Sivas","name:ar":"Ø³ÙŠÙˆØ§Ø³","name:hi":"à¤¸à¤¿à¤µà¤¾à¤¸","name:hu":"Sivas","name:ml":"à´¸à´¿à´µà´¾à´¸àµ","name:ru":"Ğ¡Ğ¸Ğ²Ğ°Ñ","name:sr":"Ğ¡Ğ¸Ğ²Ğ°Ñ","name:ckb":"Ø³ÛÙˆØ§Ø³","alt":"Sivas"},"display_name":"Sivas Merkez, Sivas, Ä°Ã§ Anadolu BÃ¶lgesi, TÃ¼rkiye","address":{"city":"Sivas Merkez","province":"Sivas","ISO3166-2-lvl4":"TR-58","region":"Ä°Ã§ Anadolu BÃ¶lgesi","country":"TÃ¼rkiye","country_code":"tr"},"population":389719,"osm_type":"relation","osm_id":1440079,"type":"administrative","location":[37.0145173,39.7503574],"bbox":[36.5171219,39.3171619,37.4956511,40.1771684]},{"name":"Sivas Belediyesi","other_names":{"name:tr":"Sivas Belediyesi","name:ar":"Ø³ÙŠÙˆØ§Ø³","name:el":"Î£ÎµÎ²Î¬ÏƒÏ„ÎµÎ¹Î±","name:hi":"à¤¸à¤¿à¤µà¤¾à¤¸","name:hu":"Sivas","name:hy":"ÕÕ¥Õ¢Õ¡Õ½Õ¿Õ«Õ¡","name:ku":"SÃªwas","name:ml":"à´¸à´¿à´µà´¾à´¸àµ","name:ru":"Ğ¡Ğ¸Ğ²Ğ°Ñ","name:sr":"Ğ¡Ğ¸Ğ²Ğ°Ñ","name:uk":"Ğ¡Ñ–Ğ²Ğ°Ñ","name:ckb":"Ø³ÛÙˆØ§Ø³","alt":"Sivas"},"display_name":"Sivas Belediyesi, Sivas Merkez, Sivas, Ä°Ã§ Anadolu BÃ¶lgesi, TÃ¼rkiye","address":{"city":"Sivas Belediyesi","province":"Sivas","ISO3166-2-lvl4":"TR-58","region":"Ä°Ã§ Anadolu BÃ¶lgesi","country":"TÃ¼rkiye","country_code":"tr"},"population":621224,"osm_type":"relation","osm_id":6894338,"type":"administrative","location":[37.0145173,39.7503574],"bbox":[36.8996712,39.6677022,37.1164143,39.8270597]}]}
{"name":"ÅÄ±rnak","other_names":{"name:ar":"Ø´Ø±Ù†Ø§Ù‚","name:az":"ÅÄ±rnak","name:ce":"Ğ¨Ğ¸Ñ€Ğ½Ğ°Ğº","name:cs":"ÅÄ±rnak","name:de":"ÅÄ±rnak","name:el":"Î£Î¹ÏÎ½Î¬Îº","name:en":"ÅÄ±rnak","name:eo":"ÅÄ±rnak","name:es":"ÅÄ±rnak","name:fa":"Ø´Ø±Ù†Ø§Ù‚","name:fi":"ÅÄ±rnak","name:fr":"ÅÄ±rnak","name:hy":"Õ‡Õ¥Ö€Õ¶Õ¡Õ¯","name:it":"ÅÄ±rnak","name:ja":"ã‚·ãƒ¥ãƒ«ãƒŠã‚¯","name:ka":"áƒ¨áƒ˜áƒ áƒœáƒáƒ¥áƒ˜","name:ko":"ì‹œë¥´ë‚˜í¬","name:ku":"Åirnex","name:ml":"à´·à´¿àµ¼à´¨à´¾à´•àµà´•àµ","name:ms":"ÅÄ±rnak","name:na":"ÅÄ±rnak","name:nl":"ÅÄ±rnak","name:no":"ÅÄ±rnak","name:pa":"à¨¸à¨¿à¨°à¨¨à¨¾à¨•","name:pl":"ÅÄ±rnak","name:pt":"ÅÄ±rnak","name:ro":"ÅÄ±rnak","name:ru":"Ğ¨Ñ‹Ñ€Ğ½Ğ°Ğº","name:rw":"ÅÄ±rnak","name:sh":"ÅÄ±rnak","name:sr":"Ğ¨Ğ¸Ñ€Ğ½Ğ°Ğº","name:sw":"ÅÄ±rnak","name:tg":"Ğ¨Ğ¸Ñ€Ğ½Ğ°Ğº","name:tr":"ÅÄ±rnak","name:tt":"Ğ¨Ñ‹Ñ€Ğ½Ğ°Ğº","name:uk":"Ğ¨Ğ¸Ñ€Ğ½Ğ°Ğº","name:ur":"Ø´Ø±Ù†Ø§Ù‚","name:vi":"ÅÄ±rnak","name:zh":"èˆçˆ¾ç´å…‹","name:arc":"Ü«ÜÜªÜ¢ÜÜŸ","name:azb":"Ø´ÛŒØ±Ù†Ø§Ù‚","name:ckb":"Ø´Ø±Ù†Û•Ø®","name:crh":"ÅÄ±rnak","name:diq":"ÅÄ±rnaq","name:kaa":"ÅÄ±rnak","name:min":"ÅÄ±rnak","name:mrj":"Ğ¨Ñ‹Ñ€Ğ½Ğ°Ğº","name:pnb":"Ø´Ø±Ù†Ø§Ú©","name:sco":"ÅÄ±rnak","name:udm":"Ğ¨Ñ‹Ñ€Ğ½Ğ°Ğº","name:war":"ÅÄ±rnak","name:zh-Hans":"èˆå°”çº³å…‹"},"display_name":"ÅÄ±rnak, ÅÄ±rnak Merkez, ÅÄ±rnak, GÃ¼neydoÄŸu Anadolu BÃ¶lgesi, 73000, TÃ¼rkiye","address":{"city":"ÅÄ±rnak","county":"ÅÄ±rnak Merkez","province":"ÅÄ±rnak","ISO3166-2-lvl4":"TR-73","region":"GÃ¼neydoÄŸu Anadolu BÃ¶lgesi","postcode":"73000","country":"TÃ¼rkiye","country_code":"tr"},"population":69338,"osm_type":"node","osm_id":26487882,"type":"city","location":[42.4570311,37.5219577],"bbox":[42.2970311,37.3619577,42.6170311,37.6819577],"border":{"name":"ÅÄ±rnak Merkez","other_names":{"name:ar":"Ø´Ø±Ù†Ø§Ù‚","name:ce":"Ğ¨Ğ¸Ñ€Ğ½Ğ°Ğº","name:de":"ÅÄ±rnak","name:el":"Î£Î¹ÏÎ½Î¬Îº","name:en":"ÅÄ±rnak","name:es":"ÅÄ±rnak","name:fa":"Ø´Ø±Ù†Ø§Ù‚","name:fr":"ÅÄ±rnak","name:hy":"Õ‡Õ¥Ö€Õ¶Õ¡Õ¯","name:it":"ÅÄ±rnak","name:ja":"ã‚·ãƒ¥ãƒ«ãƒŠã‚¯","name:ka":"áƒ¨áƒ˜áƒ áƒœáƒáƒ¥áƒ˜","name:ko":"ì‹œë¥´ë‚˜í¬","name:ku":"Åirnex","name:pt":"ÅÄ±rnak","name:tr":"ÅÄ±rnak Merkez","name:tt":"Ğ¨Ñ‹Ñ€Ğ½Ğ°Ğº","name:uk":"Ğ¨Ğ¸Ñ€Ğ½Ğ°Ğº","name:ur":"Ø´Ø±Ù†Ø§Ù‚","name:vi":"ÅÄ±rnak","name:zh":"èˆçˆ¾ç´å…‹","name:arc":"Ü«ÜÜªÜ¢ÜÜŸ","name:ckb":"Ø´Ø±Ù†Û•Ø®"},"display_name":"ÅÄ±rnak Merkez, ÅÄ±rnak, GÃ¼neydoÄŸu Anadolu BÃ¶lgesi, 73000, TÃ¼rkiye","address":{"county":"ÅÄ±rnak Merkez","province":"ÅÄ±rnak","ISO3166-2-lvl4":"TR-73","region":"GÃ¼neydoÄŸu Anadolu BÃ¶lgesi","postcode":"73000","country":"TÃ¼rkiye","country_code":"tr"},"osm_type":"relation","osm_id":1751843,"type":"administrative","location":[42.36187880016271,37.548722],"bbox":[42.0356641,37.3758966,42.8407121,37.7266541]}}
{"name":"TekirdaÄŸ","other_names":{"name:ar":"ØªÙƒÙŠØ±Ø¯Ø§Øº","name:bg":"Ğ Ğ¾Ğ´Ğ¾ÑÑ‚Ğ¾","name:el":"Î¡Î±Î¹Î´ÎµÏƒÏ„ÏŒÏ‚","name:hu":"RodostÃ³","name:la":"Rhaedestus","name:ml":"à´¤à´•àµ€àµ¼à´¦à´¾à´—àµ","name:ru":"Ğ¢ĞµĞºĞ¸Ñ€Ğ´Ğ°Ğ³","name:sr":"Ğ¢ĞµĞºĞ¸Ñ€Ğ´Ğ°Ğ³","name:tr":"TekirdaÄŸ","name:uk":"Ğ¢ĞµĞºÑ–Ñ€Ğ´Ğ°Ğ³","alt_name:ml":"à´±àµˆà´¡àµ†à´¸àµà´±àµà´±àµ‹à´¸àµ"},"display_name":"TekirdaÄŸ, SÃ¼leymanpaÅŸa, TekirdaÄŸ, Marmara BÃ¶lgesi, 59200, TÃ¼rkiye","address":{"city":"TekirdaÄŸ","town":"SÃ¼leymanpaÅŸa","province":"TekirdaÄŸ","ISO3166-2-lvl4":"TR-59","region":"Marmara BÃ¶lgesi","postcode":"59200","country":"TÃ¼rkiye","country_code":"tr"},"population":215558,"osm_type":"node","osm_id":1846826471,"type":"city","location":[27.5107799,40.9781214],"bbox":[27.3507799,40.8181214,27.6707799,41.1381214]}
{"name":"Tokat","other_names":{"name:ar":"ØªÙˆÙ‚Ø§Ø¯","name:el":"Î¤Î¿ÎºÎ¬Ï„Î·","name:es":"Tokat","name:fr":"Tokat","name:hi":"à¤Ÿà¥‹à¤•à¤¾à¤Ÿ","name:hy":"ÔµÕ¾Õ¤Õ¸Õ¯Õ«Õ¡","name:it":"Tokat","name:ka":"áƒ—áƒáƒ¥áƒáƒ—áƒ˜","name:ko":"í† ì¹´íŠ¸","name:ml":"à´¤àµ‹à´•àµà´•à´¾à´¦àµ","name:nl":"Tokat","name:no":"Tokat","name:pt":"Tocate","name:ru":"Ğ¢Ğ¾ĞºĞ°Ñ‚","name:sr":"Ğ¢Ğ¾ĞºĞ°Ñ‚","name:sv":"Tokat","name:tr":"Tokat","name:uk":"Ğ¢Ğ¾ĞºĞ°Ñ‚","name:zh":"æ‰˜å¡ç‰¹","alt_name:el":"Î•Ï…Î´Î¿ÎºÎ¹Î¬Î´Î±"},"display_name":"Tokat, Tokat Merkez, Tokat, Karadeniz BÃ¶lgesi, TÃ¼rkiye","address":{"city":"Tokat","province":"Tokat","ISO3166-2-lvl4":"TR-60","region":"Karadeniz BÃ¶lgesi","country":"TÃ¼rkiye","country_code":"tr"},"population":164405,"osm_type":"node","osm_id":26486186,"type":"city","location":[36.552162,40.3233534],"bbox":[36.392162,40.1633534,36.712162,40.4833534],"border":{"name":"Tokat Merkez","other_names":{"name:de":"Tokat Merkez","name:en":"Tokat","name:tr":"Tokat","name:ar":"ØªÙˆÙ‚Ø§Ø¯","name:el":"Î¤Î¿ÎºÎ¬Ï„Î·","name:es":"Tokat","name:fr":"Tokat","name:hi":"à¤Ÿà¥‹à¤•à¤¾à¤Ÿ","name:hy":"ÔµÕ¾Õ¤Õ¸Õ¯Õ«Õ¡","name:it":"Tokat","name:ka":"áƒ—áƒáƒ¥áƒáƒ—áƒ˜","name:ko":"í† ì¹´íŠ¸","name:ml":"à´¤àµ‹à´•àµà´•à´¾à´¦àµ","name:nl":"Tokat","name:no":"Tokat","name:pt":"Tocate","name:ru":"Ğ¢Ğ¾ĞºĞ°Ñ‚","name:sr":"Ğ¢Ğ¾ĞºĞ°Ñ‚","name:sv":"Tokat","name:uk":"Ğ¢Ğ¾ĞºĞ°Ñ‚","name:zh":"æ‰˜å¡ç‰¹","alt_name:el":"Î•Ï…Î´Î¿ÎºÎ¹Î¬Î´Î±","alt":"Tokat"},"display_name":"Tokat Merkez, Tokat, Karadeniz BÃ¶lgesi, TÃ¼rkiye","address":{"city":"Tokat Merkez","province":"Tokat","ISO3166-2-lvl4":"TR-60","region":"Karadeniz BÃ¶lgesi","country":"TÃ¼rkiye","country_code":"tr"},"population":164405,"osm_type":"relation","osm_id":1804178,"type":"administrative","location":[36.552162,40.3233534],"bbox":[36.3269805,39.939883,36.9061405,40.5584498]}}
{"name":"Trabzon","other_names":{"name:af":"Trabzon","name:an":"Trapesonda","name:ar":"Ø·Ø±Ø§Ø¨Ø²ÙˆÙ†","name:az":"Trabzon","name:ba":"Ğ¢Ñ€Ğ°Ğ±Ğ·Ğ¾Ğ½","name:be":"Ğ¢Ñ€Ğ°Ğ±Ğ·Ğ¾Ğ½","name:bg":"Ğ¢Ñ€Ğ°Ğ±Ğ·Ğ¾Ğ½","name:br":"Trabzon","name:ca":"Trebisonda","name:ce":"Ğ¢Ñ€Ğ°Ğ±Ğ·Ğ¾Ğ½","name:cs":"Trabzon","name:cy":"Trabzon","name:da":"Trabzon","name:de":"Trabzon","name:el":"Î¤ÏÎ±Ï€ÎµÎ¶Î¿ÏÎ½Ï„Î±","name:en":"Trabzon","name:eo":"Trabzon","name:es":"Trebisonda","name:et":"Trabzon","name:eu":"Trabzon","name:fa":"Ø·Ø±Ø¨Ø²ÙˆÙ†","name:fi":"Trabzon","name:fr":"Trabzon","name:gl":"Trabzon","name:he":"×˜×¨×‘×–×•×Ÿ","name:hi":"à¤Ÿà¥à¤°à¤¾à¤¬à¥à¤œà¤¼à¤¨","name:hr":"Trabzon","name:hu":"Trabzon","name:hy":"ÕÖ€Õ¡ÕºÕ«Õ¦Õ¸Õ¶","name:id":"Trabzon","name:ie":"Trabzon","name:it":"Trebisonda","name:ja":"ãƒˆãƒ©ãƒ–ã‚¾ãƒ³","name:ka":"áƒ¢áƒáƒ›áƒ¢áƒ áƒ","name:kk":"Ğ¢Ñ€Ğ°Ğ±Ğ·Ğ¾Ğ½","name:ko":"íŠ¸ë¼ë¸Œì¡´","name:ku":"Trebzon","name:la":"Trapezus","name:lt":"Trabzonas","name:lv":"Trabzona","name:mk":"Ğ¢Ñ€Ğ°Ğ±Ğ·Ğ¾Ğ½","name:ml":"à´¤àµà´°à´¬àµà´¸àµ‹àµº","name:ms":"Trabzon","name:na":"Trabzon","name:nl":"Trabzon","name:no":"Trabzon","name:os":"Ğ¢Ñ€Ğ°Ğ±Ğ·Ğ¾Ğ½","name:pa":"à¨¤à¨°à¨¾à¨¬à¨œà¨¼à©‹à¨¨","name:pl":"Trabzon","name:pt":"Trebizonda","name:ro":"Trabzon","name:ru":"Ğ¢Ñ€Ğ°Ğ±Ğ·Ğ¾Ğ½","name:rw":"Trabzon","name:sh":"Trabzon","name:sk":"Trabzon","name:so":"Trabzon","name:sq":"Trabzoni","name:sr":"Ğ¢Ñ€Ğ°Ğ±Ğ·Ğ¾Ğ½","name:sv":"Trabzon","name:sw":"Trabzon","name:tg":"Ğ¢Ñ€Ğ°Ğ±Ğ·Ğ¾Ğ½","name:th":"à¸—à¸£à¸±à¸šà¸‹à¸­à¸™","name:tr":"Trabzon","name:tt":"Ğ¢Ñ€Ğ°Ğ±Ğ·ÑƒĞ½","name:tw":"Trabzon","name:uk":"Ğ¢Ñ€Ğ°Ğ±Ğ·Ğ¾Ğ½","name:ur":"Ø·Ø±Ø§Ø¨Ø²ÙˆÙ†","name:uz":"Trabzon","name:vi":"Trabzon","name:vo":"Trabzon","name:zh":"ç‰¹æ‹‰å¸ƒå®—","name:ast":"Trebisonda","name:azb":"ØªØ±Ø§Ø¨Ø²ÙˆÙ†","name:ceb":"Trabzon","name:ckb":"ØªØ±Ø§Ø¨Ø²Û†Ù†","name:diq":"Trabzon","name:dsb":"Trabzon","name:gag":"Trabzon","name:grc":"TÏÎ±Ï€ÎµÎ¶Î¿á¿¦Ï‚","name:hyw":"ÕÖ€Õ¡ÕºÕ«Õ¦Õ¸Õ¶","name:kaa":"Trabzon","name:lij":"Trabizonda","name:lmo":"Trabisonda","name:lzz":"Å¤rabuzeni","name:mhr":"Ğ¢Ñ€Ğ°Ğ±Ğ·Ğ¾Ğ½","name:min":"Trabzon","name:mrj":"Ğ¢Ñ€Ğ°Ğ±Ğ·Ğ¾Ğ½","name:nap":"Trebisonda","name:ota":"Ø·Ø±Ø¨Ø²ÙˆÙ†","name:pnb":"ØªØ±Ø§Ø¨Ø²ÙˆÙ†","name:pnt":"Î¤ÏÎ±Ï€ÎµÎ¶Î¿ÏÎ½Ï„Î±","name:sco":"Trabzon","name:udm":"Ğ¢Ñ€Ğ°Ğ±Ğ·Ğ¾Ğ½","name:vep":"Trabzon","name:war":"Trabzon","name:wuu":"ç‰¹æ‹‰å¸ƒå®—","name:xmf":"áƒ¢áƒ áƒáƒáƒ˜áƒ–áƒáƒœáƒ˜","old_name":"TrÃ©bizonde;Trapesuz","old_name:de":"Trapezunt","old_name:es":"Trebisonda","old_name:fr":"Trebizonde","old_name:it":"Trapesunta","old_name:nl":"Trebizonde","alt_name:azb":"Ø·Ø±Ø¨Ø²ÙˆÙ†","alt_name:grc":"Î¤ÏÎ±Ï€ÎµÎ¶Î¿ÏÎ½Ï„Î±","name:lzz-Geor":"áƒ¢áƒ áƒáƒ‘áƒ£áƒ–áƒ”áƒœáƒ˜","name:be-tarask":"Ğ¢Ñ€Ğ°Ğ±Ğ·Ğ¾Ğ½"},"display_name":"Trabzon, Ortahisar, Trabzon, Karadeniz BÃ¶lgesi, 61050, TÃ¼rkiye","address":{"city":"Trabzon","town":"Ortahisar","province":"Trabzon","ISO3166-2-lvl4":"TR-61","region":"Karadeniz BÃ¶lgesi","postcode":"61050","country":"TÃ¼rkiye","country_code":"tr"},"population":816684,"osm_type":"node","osm_id":512552945,"type":"city","location":[39.7301463,41.0054605],"bbox":[39.5701463,40.8454605,39.8901463,41.1654605]}
{"name":"Tunceli","other_names":{"name:ar":"ØªÙˆÙ†Ø¬Ù„ÙŠ","name:bg":"Ğ¢ÑƒĞ½Ğ´Ğ¶ĞµĞ»Ğ¸","name:ce":"Ğ¢ÑƒĞ½Ğ´Ğ¶ĞµĞ»Ğ¸","name:el":"Î¤Î¿ÏÎ½Ï„Î¶ÎµÎ»Î¹","name:fa":"ØªÙˆÙ†Ø¬Ù„ÛŒ","name:he":"×˜×•× ×’'×œ×™","name:hy":"Ô¹Õ¸Ö‚Õ¶Õ»Õ¥Õ¬Õ«","name:ja":"ãƒˆã‚¥ãƒ³ã‚¸ã‚§ãƒª","name:ka":"áƒ—áƒ£áƒœáƒ¯áƒ”áƒšáƒ˜","name:ko":"íˆ°ì ¤ë¦¬","name:ku":"MamekÃ®","name:ml":"à´¤àµà´àµà´šàµ†à´²à´¿","name:ru":"Ğ¢ÑƒĞ½Ğ´Ğ¶ĞµĞ»Ğ¸","name:sr":"Ğ¢ÑƒĞ½ÑŸĞµĞ»Ğ¸","name:tg":"Ğ¢ÑƒĞ½Ñ‡ĞµĞ»Ğ¸","name:tr":"Tunceli","name:tt":"Ğ¢ÑƒĞ½Ò—ĞµĞ»Ğ¸","name:uk":"Ğ¢ÑƒĞ½Ğ´Ğ¶ĞµĞ»Ñ–","name:ur":"ØªÙˆÙ†Ø¬ÛŒÙ„ÛŒ","name:zh":"é€šå‚‘åˆ©","name:ckb":"Ù…Ø§Ù…Û•Ú©ÛŒ","name:zza":"Mamekiye","old_name":"Mamiki;Mameki;Dersim;Kalan;Qalan","alt_name:ku":"Kalan;DÃªrsim","alt_name:ckb":"Ø¯ÛØ±Ø³Ù…Ø›Ú©Ø§Ù„Ø§Ù†"},"display_name":"Tunceli, Tunceli Merkez, Tunceli, DoÄŸu Anadolu BÃ¶lgesi, 62000, TÃ¼rkiye","address":{"city":"Tunceli","county":"Tunceli Merkez","province":"Tunceli","ISO3166-2-lvl4":"TR-62","region":"DoÄŸu Anadolu BÃ¶lgesi","postcode":"62000","country":"TÃ¼rkiye","country_code":"tr"},"population":34461,"osm_type":"node","osm_id":26487261,"type":"city","location":[39.5482693,39.1060641],"bbox":[39.3882693,38.9460641,39.7082693,39.2660641],"border":{"name":"Tunceli Merkez","other_names":{"name:ar":"ØªÙˆÙ†Ø¬Ù„ÙŠ","name:bg":"Ğ¢ÑƒĞ½Ğ´Ğ¶ĞµĞ»Ğ¸","name:ce":"Ğ¢ÑƒĞ½Ğ´Ğ¶ĞµĞ»Ğ¸","name:el":"Î¤Î¿ÏÎ½Ï„Î¶ÎµÎ»Î¹","name:fa":"ØªÙˆÙ†Ø¬Ù„ÛŒ","name:he":"×˜×•× ×’'×œ×™","name:hy":"Ô¹Õ¸Ö‚Õ¶Õ»Õ¥Õ¬Õ«","name:ja":"ãƒˆã‚¥ãƒ³ã‚¸ã‚§ãƒª","name:ka":"áƒ—áƒ£áƒœáƒ¯áƒ”áƒšáƒ˜","name:ko":"íˆ°ì ¤ë¦¬","name:ku":"MamekÃ®","name:ru":"Ğ¢ÑƒĞ½Ğ´Ğ¶ĞµĞ»Ğ¸","name:tg":"Ğ¢ÑƒĞ½Ñ‡ĞµĞ»Ğ¸","name:tr":"Tunceli Merkez","name:tt":"Ğ¢ÑƒĞ½Ò—ĞµĞ»Ğ¸","name:uk":"Ğ¢ÑƒĞ½Ğ´Ğ¶ĞµĞ»Ñ–","name:ur":"ØªÙˆÙ†Ø¬ÛŒÙ„ÛŒ","name:zh":"é€šå‚‘åˆ©","name:zza":"Mamekiye","old_name":"Mamiki;Mameki;Dersim;Kalan;Qalan","alt_name:ku":"Mamekiye"},"display_name":"Tunceli Merkez, Tunceli, DoÄŸu Anadolu BÃ¶lgesi, 62000, TÃ¼rkiye","address":{"county":"Tunceli Merkez","province":"Tunceli","ISO3166-2-lvl4":"TR-62","region":"DoÄŸu Anadolu BÃ¶lgesi","postcode":"62000","country":"TÃ¼rkiye","country_code":"tr"},"population":38429,"osm_type":"relation","osm_id":1829330,"type":"administrative","location":[39.53341976415847,39.136580800000004],"bbox":[39.3096478,38.9003022,39.7870561,39.3716945]}}
{"name":"UÅŸak","other_names":{"name:ar":"Ø£ÙˆØ´Ø§Ùƒ","name:az":"UÅŸak ili","name:bg":"Ğ£ÑˆĞ°Ğº","name:cs":"UÅŸak","name:el":"Î•Ï€Î±ÏÏ‡Î¯Î± ÎŸÏ…ÏƒÎ¬Îº","name:en":"UÅŸak","name:hu":"UÅŸak","name:hy":"ÕˆÖ‚Õ·Õ¡Ö„Õ« Õ´Õ¡Ö€Õ¦","name:ja":"ã‚¦ã‚·ãƒ£ã‚¯çœŒ","name:ka":"áƒ£áƒ¨áƒáƒ¥áƒ˜áƒ¡ áƒáƒ áƒáƒ•áƒ˜áƒœáƒªáƒ˜áƒ","name:ko":"ìš°ìƒ¤í¬ì£¼","name:ml":"à´Šà´·à´¾à´•àµà´•àµ","name:ru":"Ğ£ÑˆĞ°Ğº","name:sr":"Ğ£ÑˆĞ°Ğº","name:tg":"Ğ’Ğ¸Ğ»Ğ¾ÑÑ‚Ğ¸ Ğ£ÑˆĞ¾Ğº","name:tr":"UÅŸak","name:uk":"Ğ£ÑˆĞ°Ğº","name:ur":"ØµÙˆØ¨Û Ø¹Ø´Ø§Ù‚","name:zh":"ä¹Œæ²™å…‹çœ"},"display_name":"UÅŸak, UÅŸak Merkez, UÅŸak, Ege BÃ¶lgesi, TÃ¼rkiye","address":{"city":"UÅŸak","province":"UÅŸak","ISO3166-2-lvl4":"TR-64","region":"Ege BÃ¶lgesi","country":"TÃ¼rkiye","country_code":"tr"},"population":377001,"osm_type":"node","osm_id":25869820,"type":"city","location":[29.4058419,38.6740401],"bbox":[29.2458419,38.5140401,29.5658419,38.8340401],"border":{"name":"UÅŸak Merkez","other_names":{"name:be":"Ğ£ÑˆĞ°Ğº","name:bg":"Ğ£ÑˆĞ°Ğº","name:ce":"Ğ£ÑˆĞ°Ğº","name:el":"ÎŸÏ…ÏƒÎ¬Îº","name:fa":"Ø¹Ø´Ø§Ù‚","name:hy":"ÕˆÖ‚Õ·Õ¡Ö„","name:ja":"ã‚¦ã‚·ãƒ£ã‚¯","name:ka":"áƒ£áƒ¨áƒáƒ¥áƒ˜","name:ko":"ìš°ìƒ¤í¬","name:lt":"UÅ¡akas","name:pa":"à¨‰à¨¸à¨¼à¨¾à¨•","name:ru":"Ğ£ÑˆĞ°Ğº","name:tg":"Ğ£ÑˆĞ¾Ò›","name:tr":"UÅŸak","name:ur":"Ø¹Ø´Ø§Ù‚","name:zh":"çƒæ²™å…‹","name:ar":"Ø£ÙˆØ´Ø§Ùƒ","name:az":"UÅŸak ili","name:cs":"UÅŸak","name:en":"UÅŸak","name:hu":"UÅŸak","name:ml":"à´Šà´·à´¾à´•àµà´•àµ","name:sr":"Ğ£ÑˆĞ°Ğº","name:uk":"Ğ£ÑˆĞ°Ğº","alt":"UÅŸak","alt:el":"Î•Ï€Î±ÏÏ‡Î¯Î± ÎŸÏ…ÏƒÎ¬Îº","alt:hy":"ÕˆÖ‚Õ·Õ¡Ö„Õ« Õ´Õ¡Ö€Õ¦","alt:ja":"ã‚¦ã‚·ãƒ£ã‚¯çœŒ","alt:ka":"áƒ£áƒ¨áƒáƒ¥áƒ˜áƒ¡ áƒáƒ áƒáƒ•áƒ˜áƒœáƒªáƒ˜áƒ","alt:ko":"ìš°ìƒ¤í¬ì£¼","alt:tg":"Ğ’Ğ¸Ğ»Ğ¾ÑÑ‚Ğ¸ Ğ£ÑˆĞ¾Ğº","alt:ur":"ØµÙˆØ¨Û Ø¹Ø´Ø§Ù‚","alt:zh":"ä¹Œæ²™å…‹çœ"},"display_name":"UÅŸak Merkez, UÅŸak, Ege BÃ¶lgesi, TÃ¼rkiye","address":{"city":"UÅŸak Merkez","province":"UÅŸak","ISO3166-2-lvl4":"TR-64","region":"Ege BÃ¶lgesi","country":"TÃ¼rkiye","country_code":"tr"},"population":377001,"osm_type":"relation","osm_id":1609669,"type":"administrative","location":[29.4058419,38.6740401],"bbox":[28.8224848,38.4568682,29.6393665,38.8843201]}}
{"name":"Van","other_names":{"name:ar":"ÙˆØ§Ù†","name:de":"Van","name:el":"Î’Î±Î½","name:fa":"ÙˆØ§Ù†","name:fr":"Van","name:hi":"à¤µà¤¾à¤¨","name:hu":"Van","name:hy":"ÕÕ¡Õ¶","name:ku":"Wan","name:ml":"à´µà´¾àµ»","name:pt":"Van","name:ru":"Ğ’Ğ°Ğ½","name:sr":"Ğ’Ğ°Ğ½","name:tr":"Van","name:uk":"Ğ’Ğ°Ğ½","name:ur":"ÙˆØ§Ù†","name:azb":"ÙˆØ§Ù†","name:ckb":"ÙˆØ§Ù†","name:grc":"Î•á½”Î±","name:hyw":"ÕÕ¡Õ¶","alt_name:grc":"Î¤ÏŒÏƒÏ€Î¹Î±;Î¤Î¿ÏÏƒÏ€Î±"},"display_name":"Van, Ä°pekyolu, Van, DoÄŸu Anadolu BÃ¶lgesi, 65030, TÃ¼rkiye","address":{"city":"Van","town":"Ä°pekyolu","province":"Van","ISO3166-2-lvl4":"TR-65","region":"DoÄŸu Anadolu BÃ¶lgesi","postcode":"65030","country":"TÃ¼rkiye","country_code":"tr"},"population":1141015,"osm_type":"node","osm_id":26480571,"type":"city","location":[43.3946051,38.500875],"bbox":[43.2346051,38.340875,43.5546051,38.660875]}
{"name":"Yalova","other_names":{"name:ar":"ÙŠØ§Ù„ÙˆÙØ§","name:el":"Î“Î¹Î¬Î»Î¿Î²Î±","name:hi":"à¤¯à¤¾à¤²à¥‹à¤µà¤¾","name:hu":"Yalova","name:ml":"à´¯à´¾à´²àµ‹à´µ","name:ru":"Ğ¯Ğ»Ğ¾Ğ²Ğ°","name:sr":"ĞˆĞ°Ğ»Ğ¾Ğ²Ğ°","name:tr":"Yalova","name:uk":"Ğ¯Ğ»Ğ¾Ğ²Ğ°","name:zh":"äºæ´›ç“¦","old_name":"Yalakova;Yalakabad"},"display_name":"Yalova, Yalova Merkez, Yalova, Marmara BÃ¶lgesi, TÃ¼rkiye","address":{"city":"Yalova","province":"Yalova","ISO3166-2-lvl4":"TR-77","region":"Marmara BÃ¶lgesi","country":"TÃ¼rkiye","country_code":"tr"},"population":241665,"osm_type":"node","osm_id":25869857,"type":"city","location":[29.2699916,40.6582529],"bbox":[29.1099916,40.4982529,29.4299916,40.8182529],"border":{"name":"Yalova Merkez","other_names":{"name:ar":"ÙŠØ§Ù„ÙˆÙØ§","name:el":"Î“Î¹Î¬Î»Î¿Î²Î± ÎœÎµÏÎºÎ­Î¶","name:ru":"Ğ¯Ğ»Ğ¾Ğ²Ğ°","name:tr":"Yalova Merkez","name:uk":"Ğ¯Ğ»Ğ¾Ğ²Ğ°","name:zh":"äºæ´›ç“¦","name:hi":"à¤¯à¤¾à¤²à¥‹à¤µà¤¾","name:hu":"Yalova","name:ml":"à´¯à´¾à´²àµ‹à´µ","name:sr":"ĞˆĞ°Ğ»Ğ¾Ğ²Ğ°","old_name":"Yalakova;Yalakabad","alt":"Yalova","alt:el":"Î“Î¹Î¬Î»Î¿Î²Î±","alt:tr":"Yalova"},"display_name":"Yalova Merkez, Yalova, Marmara BÃ¶lgesi, TÃ¼rkiye","address":{"city":"Yalova Merkez","province":"Yalova","ISO3166-2-lvl4":"TR-77","region":"Marmara BÃ¶lgesi","country":"TÃ¼rkiye","country_code":"tr"},"population":241665,"osm_type":"relation","osm_id":1840933,"type":"administrative","location":[29.2699916,40.6582529],"bbox":[29.1854487,40.5205916,29.3503941,40.6676713]}}
{"name":"Yozgat","other_names":{"name:ar":"ÙŠÙˆØ²ØºØ§Øª","name:az":"Yozqat","name:bg":"Ğ™Ğ¾Ğ·Ğ³Ğ°Ñ‚","name:ce":"Ğ™Ğ¾Ğ·Ğ³Ğ°Ñ‚","name:de":"Yozgat","name:el":"Î“Î¹Î¿Î¶Î³ÎºÎ¬Ï„","name:en":"Yozgat","name:es":"Yozgat","name:fr":"Yozgat","name:hi":"à¤¯à¥‹à¤œà¤—à¤¤","name:hu":"Yozgat","name:hy":"Õ…Õ¸Õ¦Õ£Õ¡Õ©Õ« Õ´Õ¡Ö€Õ¦","name:it":"Yozgat","name:ka":"áƒ˜áƒáƒ–áƒ’áƒáƒ—áƒ˜","name:ko":"ìš”ì¦ˆê°€íŠ¸","name:lt":"Jozgatas","name:ml":"à´¯àµ‹à´¸àµà´—à´¾à´¤àµà´¤àµ","name:nl":"Yozgat","name:no":"Yozgat","name:pl":"Yozgat","name:pt":"Yozgat","name:ru":"Ğ™Ğ¾Ğ·Ğ³Ğ°Ñ‚","name:sr":"ĞˆĞ¾Ğ·Ğ³Ğ°Ñ‚","name:sv":"Yozgat","name:tg":"Ğ™Ğ¾Ğ·Ğ³Ğ°Ñ‚","name:tr":"Yozgat","name:tt":"Ğ™Ğ¾Ğ·Ğ³Ğ°Ñ‚","name:uk":"Ğ™Ğ¾Ğ·Ò‘Ğ°Ñ‚","name:ur":"ÛŒÙˆØ²Ú¯Øª","name:zh":"ç´„èŒ²åŠ ç‰¹","old_name":"Bozok"},"display_name":"Yozgat, Yozgat Merkez, Yozgat, Ä°Ã§ Anadolu BÃ¶lgesi, 66100, TÃ¼rkiye","address":{"city":"Yozgat","county":"Yozgat Merkez","province":"Yozgat","ISO3166-2-lvl4":"TR-66","region":"Ä°Ã§ Anadolu BÃ¶lgesi","postcode":"66100","country":"TÃ¼rkiye","country_code":"tr"},"population":79611,"osm_type":"node","osm_id":26482958,"type":"city","location":[34.8080972,39.8221974],"bbox":[34.6480972,39.6621974,34.9680972,39.9821974],"border":{"name":"Yozgat Merkez","other_names":{"name:ar":"ÙŠÙˆØ²ØºØ§Øª","name:az":"Yozqat","name:bg":"Ğ™Ğ¾Ğ·Ğ³Ğ°Ñ‚","name:ce":"Ğ™Ğ¾Ğ·Ğ³Ğ°Ñ‚","name:de":"Yozgat","name:el":"Î“Î¹Î¿Î¶Î³ÎºÎ¬Ï„","name:en":"Yozgat","name:fa":"ÛŒÙˆØ²ØºØ§Ø¯","name:hy":"Õ…Õ¸Õ¦Õ£Õ¡Õ©","name:ja":"ãƒ¨ã‚ºã‚¬ãƒˆ","name:lt":"Jozgatas","name:ru":"Ğ™Ğ¾Ğ·Ğ³Ğ°Ñ‚","name:tg":"Ğ™Ğ¾Ğ·Ğ³Ğ°Ñ‚","name:tr":"Yozgat Merkez","name:tt":"Ğ™Ğ¾Ğ·Ğ³Ğ°Ñ‚","name:uk":"Ğ™Ğ¾Ğ·Ò‘Ğ°Ñ‚","name:ur":"ÛŒÙˆØ²Ú¯Øª","name:zh":"ç´„èŒ²åŠ ç‰¹","alt_name":"Yozgat"},"display_name":"Yozgat Merkez, Yozgat, Ä°Ã§ Anadolu BÃ¶lgesi, TÃ¼rkiye","address":{"county":"Yozgat Merkez","province":"Yozgat","ISO3166-2-lvl4":"TR-66","region":"Ä°Ã§ Anadolu BÃ¶lgesi","country":"TÃ¼rkiye","country_code":"tr"},"osm_type":"relation","osm_id":1561849,"type":"administrative","location":[34.78382717544196,39.7564536],"bbox":[34.3587587,39.4652572,35.1246138,40.0491352]}}
{"name":"Zonguldak","other_names":{"name:ar":"Ø²ÙˆÙ†ØºÙˆÙ„Ø¯Ø§Ù‚","name:az":"Zonquldak","name:be":"Ğ—Ğ°Ğ½Ğ³ÑƒĞ»Ğ´Ğ°Ğº","name:bg":"Ğ—Ğ¾Ğ½Ğ³ÑƒĞ»Ğ´Ğ°Ğº","name:ce":"Ğ—Ğ¾Ğ½Ğ³ÑƒĞ»Ğ´Ğ°Ğº","name:el":"Î–Î¿Î½Î³ÎºÎ¿Ï…Î»Î½Ï„Î¬Îº","name:fa":"Ø²ÙˆÙ†Ú¯ÙˆÙ„Ø¯Ø§Øº","name:hu":"Zonguldak","name:hy":"Ô¶Õ¸Õ¶Õ£Õ¸Ö‚Õ¬Õ¤Õ¡Ö„","name:ja":"ã‚¾ãƒ³ã‚°ãƒ«ãƒ€ã‚¯","name:ka":"áƒ–áƒáƒœáƒ’áƒ£áƒšáƒ“áƒáƒ¥áƒ˜","name:kk":"Ğ—Ğ¾Ğ½Ğ³ÑƒĞ»Ğ´Ğ°Ğº","name:ko":"ì¢…êµ´ë‹¤í¬","name:lt":"Zonguldakas","name:ml":"à´¸àµ‹à´‚à´—àµàµ½à´¡à´¾à´•àµà´•àµ","name:os":"Ğ—Ğ¾Ğ½Ğ³ÑƒĞ»Ğ´Ğ°Ğº","name:pt":"Zonguldaque","name:ru":"Ğ—Ğ¾Ğ½Ğ³ÑƒĞ»Ğ´Ğ°Ğº","name:sr":"Ğ—Ğ¾Ğ½Ğ³ÑƒĞ»Ğ´Ğ°Ğº","name:tg":"Ğ—Ğ¾Ğ½Ğ³ÑƒĞ»Ğ´Ğ°Ğº","name:tt":"Ğ—Ğ¾Ğ½Ğ³ÑƒĞ»Ğ´Ğ°Ğº","name:uk":"Ğ—Ğ¾Ğ½Ğ³ÑƒĞ»Ğ´Ğ°Ğº","name:ur":"Ø²Ø§Ù†Ú¯ÙˆÙ„Ø¯Ø§Ú©","name:zh":"å®—å¤çˆ¾é”å…‹"},"display_name":"Zonguldak, Zonguldak Merkez, Zonguldak, Karadeniz BÃ¶lgesi, TÃ¼rkiye","address":{"city":"Zonguldak","province":"Zonguldak","ISO3166-2-lvl4":"TR-67","region":"Karadeniz BÃ¶lgesi","country":"TÃ¼rkiye","country_code":"tr"},"population":103079,"osm_type":"node","osm_id":26486267,"type":"city","location":[31.7919867,41.4506981],"bbox":[31.6319867,41.2906981,31.9519867,41.6106981],"border":{"name":"Zonguldak Merkez","other_names":{"name:ar":"Ø²ÙˆÙ†ØºÙˆÙ„Ø¯Ø§Ù‚","name:az":"Zonquldak","name:be":"Ğ—Ğ°Ğ½Ğ³ÑƒĞ»Ğ´Ğ°Ğº","name:bg":"Ğ—Ğ¾Ğ½Ğ³ÑƒĞ»Ğ´Ğ°Ğº","name:ce":"Ğ—Ğ¾Ğ½Ğ³ÑƒĞ»Ğ´Ğ°Ğº","name:de":"Zonguldak","name:el":"Î–Î¿Î½Î³ÎºÎ¿Ï…Î»Î½Ï„Î¬Îº","name:en":"Zonguldak","name:fa":"Ø²ÙˆÙ†Ú¯ÙˆÙ„Ø¯Ø§Øº","name:hy":"Ô¶Õ¸Õ¶Õ£Õ¸Ö‚Õ¬Õ¤Õ¡Ö„","name:ja":"ã‚¾ãƒ³ã‚°ãƒ«ãƒ€ã‚¯","name:ka":"áƒ–áƒáƒœáƒ’áƒ£áƒšáƒ“áƒáƒ¥áƒ˜","name:kk":"Ğ—Ğ¾Ğ½Ğ³ÑƒĞ»Ğ´Ğ°Ğº","name:ko":"ì¢…êµ´ë‹¤í¬","name:lt":"Zonguldakas","name:os":"Ğ—Ğ¾Ğ½Ğ³ÑƒĞ»Ğ´Ğ°Ğº","name:pt":"Zonguldaque","name:ru":"Ğ—Ğ¾Ğ½Ğ³ÑƒĞ»Ğ´Ğ°Ğº","name:sr":"Ğ—Ğ¾Ğ½Ğ³ÑƒĞ»Ğ´Ğ°Ğº","name:tg":"Ğ—Ğ¾Ğ½Ğ³ÑƒĞ»Ğ´Ğ°Ğº","name:tr":"Zonguldak Merkez","name:tt":"Ğ—Ğ¾Ğ½Ğ³ÑƒĞ»Ğ´Ğ°Ğº","name:uk":"Ğ—Ğ¾Ğ½Ğ³ÑƒĞ»Ğ´Ğ°Ğº","name:ur":"Ø²Ø§Ù†Ú¯ÙˆÙ„Ø¯Ø§Ú©","name:zh":"å®—å¤çˆ¾é”å…‹","alt_name":"Zonguldak","name:hu":"Zonguldak","name:ml":"à´¸àµ‹à´‚à´—àµàµ½à´¡à´¾à´•àµà´•àµ","alt":"Zonguldak"},"display_name":"Zonguldak Merkez, Zonguldak, Karadeniz BÃ¶lgesi, TÃ¼rkiye","address":{"city":"Zonguldak Merkez","province":"Zonguldak","ISO3166-2-lvl4":"TR-67","region":"Karadeniz BÃ¶lgesi","country":"TÃ¼rkiye","country_code":"tr"},"population":120395,"osm_type":"relation","osm_id":1840251,"type":"administrative","location":[31.7919867,41.4506981],"bbox":[31.7558473,41.2635173,32.0731969,41.4818596]}}
